<?xml version="1.0" encoding="UTF-8"?>
<kml xmlns="http://www.opengis.net/kml/2.2">
<Document>
<name>WNW_3.Fungfung waterfall Nuwakot</name>
<description/>
<Style id="icon-1899-DB4436-normal">
<IconStyle>
<color>ff3644db</color>
<scale>1</scale>
<Icon>
<href>https://www.gstatic.com/mapspro/images/stock/503-wht-blank_maps.png</href>
</Icon>
<hotSpot x="32" xunits="pixels" y="64" yunits="insetPixels"/>
</IconStyle>
<LabelStyle>
<scale>0</scale>
</LabelStyle>
</Style>
<Style id="icon-1899-DB4436-highlight">
<IconStyle>
<color>ff3644db</color>
<scale>1</scale>
<Icon>
<href>https://www.gstatic.com/mapspro/images/stock/503-wht-blank_maps.png</href>
</Icon>
<hotSpot x="32" xunits="pixels" y="64" yunits="insetPixels"/>
</IconStyle>
<LabelStyle>
<scale>1</scale>
</LabelStyle>
</Style>
<StyleMap id="icon-1899-DB4436">
<Pair>
<key>normal</key>
<styleUrl>#icon-1899-DB4436-normal</styleUrl>
</Pair>
<Pair>
<key>highlight</key>
<styleUrl>#icon-1899-DB4436-highlight</styleUrl>
</Pair>
</StyleMap>
<Style id="icon-1899-DB4436-nodesc-normal">
<IconStyle>
<color>ff3644db</color>
<scale>1</scale>
<Icon>
<href>https://www.gstatic.com/mapspro/images/stock/503-wht-blank_maps.png</href>
</Icon>
<hotSpot x="32" xunits="pixels" y="64" yunits="insetPixels"/>
</IconStyle>
<LabelStyle>
<scale>0</scale>
</LabelStyle>
<BalloonStyle>
<text><![CDATA[<h3>$[name]</h3>]]></text>
</BalloonStyle>
</Style>
<Style id="icon-1899-DB4436-nodesc-highlight">
<IconStyle>
<color>ff3644db</color>
<scale>1</scale>
<Icon>
<href>https://www.gstatic.com/mapspro/images/stock/503-wht-blank_maps.png</href>
</Icon>
<hotSpot x="32" xunits="pixels" y="64" yunits="insetPixels"/>
</IconStyle>
<LabelStyle>
<scale>1</scale>
</LabelStyle>
<BalloonStyle>
<text><![CDATA[<h3>$[name]</h3>]]></text>
</BalloonStyle>
</Style>
<StyleMap id="icon-1899-DB4436-nodesc">
<Pair>
<key>normal</key>
<styleUrl>#icon-1899-DB4436-nodesc-normal</styleUrl>
</Pair>
<Pair>
<key>highlight</key>
<styleUrl>#icon-1899-DB4436-nodesc-highlight</styleUrl>
</Pair>
</StyleMap>
<Style id="line-0000FF-2000-nodesc-normal">
<LineStyle>
<color>ffff0000</color>
<width>2</width>
</LineStyle>
<BalloonStyle>
<text><![CDATA[<h3>$[name]</h3>]]></text>
</BalloonStyle>
</Style>
<Style id="line-0000FF-2000-nodesc-highlight">
<LineStyle>
<color>ffff0000</color>
<width>3</width>
</LineStyle>
<BalloonStyle>
<text><![CDATA[<h3>$[name]</h3>]]></text>
</BalloonStyle>
</Style>
<StyleMap id="line-0000FF-2000-nodesc">
<Pair>
<key>normal</key>
<styleUrl>#line-0000FF-2000-nodesc-normal</styleUrl>
</Pair>
<Pair>
<key>highlight</key>
<styleUrl>#line-0000FF-2000-nodesc-highlight</styleUrl>
</Pair>
</StyleMap>
<Style id="line-F0F000-2000-nodesc-normal">
<LineStyle>
<color>ff00f0f0</color>
<width>2</width>
</LineStyle>
<BalloonStyle>
<text><![CDATA[<h3>$[name]</h3>]]></text>
</BalloonStyle>
</Style>
<Style id="line-F0F000-2000-nodesc-highlight">
<LineStyle>
<color>ff00f0f0</color>
<width>3</width>
</LineStyle>
<BalloonStyle>
<text><![CDATA[<h3>$[name]</h3>]]></text>
</BalloonStyle>
</Style>
<StyleMap id="line-F0F000-2000-nodesc">
<Pair>
<key>normal</key>
<styleUrl>#line-F0F000-2000-nodesc-normal</styleUrl>
</Pair>
<Pair>
<key>highlight</key>
<styleUrl>#line-F0F000-2000-nodesc-highlight</styleUrl>
</Pair>
</StyleMap>
<Style id="line-FF0000-2000-nodesc-normal">
<LineStyle>
<color>ff0000ff</color>
<width>2</width>
</LineStyle>
<BalloonStyle>
<text><![CDATA[<h3>$[name]</h3>]]></text>
</BalloonStyle>
</Style>
<Style id="line-FF0000-2000-nodesc-highlight">
<LineStyle>
<color>ff0000ff</color>
<width>3</width>
</LineStyle>
<BalloonStyle>
<text><![CDATA[<h3>$[name]</h3>]]></text>
</BalloonStyle>
</Style>
<StyleMap id="line-FF0000-2000-nodesc">
<Pair>
<key>normal</key>
<styleUrl>#line-FF0000-2000-nodesc-normal</styleUrl>
</Pair>
<Pair>
<key>highlight</key>
<styleUrl>#line-FF0000-2000-nodesc-highlight</styleUrl>
</Pair>
</StyleMap>
<Folder>
<name>Untitled layer</name>
</Folder>
<Folder>
<name>Points</name>
<Placemark>
<name>parking</name>
<styleUrl>#icon-1899-DB4436-nodesc</styleUrl>
<Point>
<coordinates>
85.220271,27.82827,0
</coordinates>
</Point>
</Placemark>
<Placemark>
<name>Balaju</name>
<description>Balaju, Kathmandu 44600, Nepal</description>
<styleUrl>#icon-1899-DB4436</styleUrl>
<Point>
<coordinates>
85.295524,27.730912,0
</coordinates>
</Point>
</Placemark>
<Placemark>
<name>Trishuli Hwy</name>
<description>Trishuli Hwy, Kakani 44900, Nepal</description>
<styleUrl>#icon-1899-DB4436</styleUrl>
<Point>
<coordinates>
85.271361,27.799744,0
</coordinates>
</Point>
</Placemark>
<Placemark>
<name>Nuwakot simana</name>
<styleUrl>#icon-1899-DB4436-nodesc</styleUrl>
<Point>
<coordinates>
85.278215,27.792941,0
</coordinates>
</Point>
</Placemark>
<Placemark>
<name>R6HC H5 Fung Fung Waterfall</name>
<description>Fung Fung Waterfall, R6HC+H5, Kakani 44900, Nepal</description>
<styleUrl>#icon-1899-DB4436</styleUrl>
<Point>
<coordinates>
85.220473,27.828926,0
</coordinates>
</Point>
</Placemark>
<Placemark>
<name>44900</name>
<description>Kakani, 44900, Nepal</description>
<styleUrl>#icon-1899-DB4436</styleUrl>
<Point>
<coordinates>
85.242027,27.830689,0
</coordinates>
</Point>
</Placemark>
<Placemark>
<name>Dhading simana</name>
<styleUrl>#icon-1899-DB4436-nodesc</styleUrl>
<Point>
<coordinates>
85.270579,27.758348,0
</coordinates>
</Point>
</Placemark>
</Folder>
<Folder>
<name>LineStrings</name>
<Placemark>
<name/>
<styleUrl>#line-FF0000-2000-nodesc</styleUrl>
<LineString>
<tessellate>1</tessellate>
<coordinates>
85.220255,27.828289,0
85.21993,27.82822,0
85.21987,27.82818,0
85.21967,27.8279,0
85.21962,27.82754,0
85.21955,27.82739,0
85.21945,27.82725,0
85.21938,27.82688,0
85.21926,27.82679,0
85.21922,27.82673,0
85.21919,27.82608,0
85.219161,27.82605,0
85.219144,27.826062,0
85.218844,27.825702,0
85.218171,27.825204,0
85.218292,27.825236,0
85.218461,27.825194,0
85.218567,27.825314,0
85.218351,27.825242,0
85.21825,27.82523,0
85.21814,27.825183,0
85.21809,27.825095,0
85.21808,27.825002,0
85.218028,27.824903,0
85.218005,27.82479,0
85.218009,27.824698,0
85.218061,27.824619,0
85.218098,27.824517,0
85.218074,27.824415,0
85.218049,27.824311,0
85.21812,27.82422,0
85.218185,27.824131,0
85.218205,27.824025,0
85.218223,27.823936,0
85.218256,27.823824,0
85.218302,27.823721,0
85.21829,27.823631,0
85.218273,27.823527,0
85.218281,27.823427,0
85.218323,27.823334,0
85.218263,27.823217,0
85.218164,27.823115,0
85.218067,27.823032,0
85.218032,27.822922,0
85.218016,27.822798,0
85.217961,27.822713,0
85.217916,27.822625,0
85.217874,27.822507,0
85.217824,27.822394,0
85.217749,27.822312,0
85.217673,27.82224,0
85.217661,27.822137,0
85.217633,27.822019,0
85.217612,27.821921,0
85.21759,27.821814,0
85.217569,27.821704,0
85.217604,27.821591,0
85.217645,27.821506,0
85.217605,27.821417,0
85.21757,27.82133,0
85.217681,27.821327,0
85.217774,27.821374,0
85.21788,27.821417,0
85.217825,27.821513,0
85.217815,27.821633,0
85.217896,27.821718,0
85.21799,27.821795,0
85.218063,27.821875,0
85.218099,27.821975,0
85.2182,27.82205,0
85.218294,27.822089,0
85.218396,27.822148,0
85.218456,27.822252,0
85.218523,27.822364,0
85.218605,27.822465,0
85.218677,27.822576,0
85.218738,27.822653,0
85.218835,27.822736,0
85.218931,27.8228,0
85.219024,27.822873,0
85.21914,27.822869,0
85.219276,27.822874,0
85.219368,27.822938,0
85.219383,27.823032,0
85.219389,27.82314,0
85.219442,27.823239,0
85.219494,27.823353,0
85.219558,27.823452,0
85.219606,27.823534,0
85.219662,27.823612,0
85.219744,27.8237,0
85.219803,27.823774,0
85.219879,27.823865,0
85.219932,27.823961,0
85.219997,27.82407,0
85.220054,27.824166,0
85.220177,27.824236,0
85.220274,27.824267,0
85.220406,27.824334,0
85.220519,27.824347,0
85.220618,27.824284,0
85.220723,27.824243,0
85.220828,27.82423,0
85.220934,27.82424,0
85.221054,27.82424,0
85.221172,27.82423,0
85.221285,27.824271,0
85.221303,27.824172,0
85.221221,27.824119,0
85.221133,27.824064,0
85.221079,27.823975,0
85.221042,27.823887,0
85.221105,27.823796,0
85.221216,27.823774,0
85.221282,27.823859,0
85.221349,27.823942,0
85.22144,27.824009,0
85.221515,27.824085,0
85.22162,27.824159,0
85.221684,27.824257,0
85.221751,27.824382,0
85.221796,27.824468,0
85.221895,27.824537,0
85.221987,27.824587,0
85.222091,27.824644,0
85.222163,27.824726,0
85.222246,27.824779,0
85.222332,27.824833,0
85.22244,27.824875,0
85.222557,27.824886,0
85.222649,27.824832,0
85.222753,27.824791,0
85.22285,27.824763,0
85.222964,27.82474,0
85.223075,27.824762,0
85.223222,27.824775,0
85.223354,27.82482,0
85.223471,27.824835,0
85.223584,27.824879,0
85.223713,27.824863,0
85.22381,27.824925,0
85.223928,27.824978,0
85.22407,27.824975,0
85.224186,27.824976,0
85.224333,27.824948,0
85.22457,27.824935,0
85.224641,27.824841,0
85.224745,27.824802,0
85.22487,27.824734,0
85.225002,27.824684,0
85.225096,27.824626,0
85.225208,27.824568,0
85.225333,27.824562,0
85.225478,27.824618,0
85.22559,27.824558,0
85.225717,27.824526,0
85.225814,27.824459,0
85.225925,27.824387,0
85.225985,27.824311,0
85.226098,27.824243,0
85.226154,27.824162,0
85.226266,27.824149,0
85.226363,27.82408,0
85.226442,27.824014,0
85.22651,27.823944,0
85.226619,27.823866,0
85.226745,27.823843,0
85.226824,27.823912,0
85.226898,27.824012,0
85.22691,27.824114,0
85.226894,27.824216,0
85.226887,27.824312,0
85.22687,27.824404,0
85.226918,27.824515,0
85.22698,27.824613,0
85.227035,27.824721,0
85.227126,27.824773,0
85.227265,27.824786,0
85.227354,27.824843,0
85.227389,27.824929,0
85.227492,27.824957,0
85.227617,27.824984,0
85.22772,27.825041,0
85.227799,27.825127,0
85.227805,27.825249,0
85.22773,27.825359,0
85.227703,27.82545,0
85.227651,27.82556,0
85.227568,27.825641,0
85.22756,27.825763,0
85.227584,27.825857,0
85.227606,27.825952,0
85.227625,27.826082,0
85.227631,27.826185,0
85.227494,27.826247,0
85.227421,27.826343,0
85.227404,27.826458,0
85.227448,27.82658,0
85.22746,27.826695,0
85.22747,27.826801,0
85.227483,27.8269,0
85.227507,27.826997,0
85.227523,27.827115,0
85.227527,27.827233,0
85.227468,27.827318,0
85.227456,27.827429,0
85.227446,27.82752,0
85.22744,27.827624,0
85.227451,27.827717,0
85.227481,27.827834,0
85.227489,27.827933,0
85.227543,27.828019,0
85.227628,27.828085,0
85.227722,27.828154,0
85.227809,27.828231,0
85.227952,27.828283,0
85.228055,27.828293,0
85.228153,27.828321,0
85.228023,27.828248,0
85.227991,27.828155,0
85.227946,27.828068,0
85.227967,27.827955,0
85.227971,27.827834,0
85.227971,27.827728,0
85.227973,27.827607,0
85.227981,27.827504,0
85.227987,27.827411,0
85.228112,27.827411,0
85.228129,27.827512,0
85.228127,27.82761,0
85.228201,27.827702,0
85.228261,27.827776,0
85.228323,27.827862,0
85.228382,27.82794,0
85.228457,27.828026,0
85.228547,27.828092,0
85.228664,27.828118,0
85.228789,27.828087,0
85.228905,27.828063,0
85.229016,27.828055,0
85.229129,27.828065,0
85.229255,27.828099,0
85.229354,27.828137,0
85.229489,27.828205,0
85.229589,27.828232,0
85.229699,27.82826,0
85.229815,27.828203,0
85.229908,27.828166,0
85.230042,27.828115,0
85.230151,27.828097,0
85.23026,27.828098,0
85.230386,27.828107,0
85.230541,27.828108,0
85.230679,27.828114,0
85.230793,27.828095,0
85.230895,27.828068,0
85.230994,27.82801,0
85.231088,27.82796,0
85.231254,27.827965,0
85.231381,27.827911,0
85.231506,27.827881,0
85.231603,27.827827,0
85.231715,27.827777,0
85.231806,27.827726,0
85.231926,27.827681,0
85.232026,27.827642,0
85.232142,27.82771,0
85.232277,27.827739,0
85.232384,27.827707,0
85.232499,27.827666,0
85.232605,27.827626,0
85.232699,27.827582,0
85.232829,27.827573,0
85.232968,27.827547,0
85.233087,27.827508,0
85.233215,27.827505,0
85.23326,27.827622,0
85.233273,27.827748,0
85.233287,27.827845,0
85.233302,27.827951,0
85.233306,27.828072,0
85.233369,27.828166,0
85.233469,27.828227,0
85.233573,27.828307,0
85.23367,27.82837,0
85.233728,27.828463,0
85.233825,27.828508,0
85.233913,27.828587,0
85.234015,27.828635,0
85.234014,27.828736,0
85.234019,27.828841,0
85.233967,27.828944,0
85.233863,27.829025,0
85.233764,27.829068,0
85.233698,27.829146,0
85.233568,27.829195,0
85.233444,27.829265,0
85.233325,27.829378,0
85.233267,27.829479,0
85.233233,27.829572,0
85.233201,27.829682,0
85.233228,27.829774,0
85.233275,27.829875,0
85.233314,27.829985,0
85.233322,27.83011,0
85.233341,27.830205,0
85.233373,27.830321,0
85.233443,27.830397,0
85.233467,27.830487,0
85.233555,27.83056,0
85.233626,27.830687,0
85.233723,27.830725,0
85.233819,27.830781,0
85.233908,27.830926,0
85.233967,27.831095,0
85.233995,27.831225,0
85.234044,27.83133,0
85.234151,27.831422,0
85.234293,27.831505,0
85.234439,27.831561,0
85.234579,27.83161,0
85.234709,27.831654,0
85.234815,27.831698,0
85.234891,27.831789,0
85.235007,27.831836,0
85.235125,27.831887,0
85.235244,27.831933,0
85.235229,27.832035,0
85.235257,27.832147,0
85.235267,27.832262,0
85.235302,27.832381,0
85.235382,27.832484,0
85.235504,27.832549,0
85.235613,27.832655,0
85.23573,27.83273,0
85.235854,27.832773,0
85.235965,27.83282,0
85.236055,27.8329,0
85.236128,27.83298,0
85.236208,27.833054,0
85.236315,27.83311,0
85.236407,27.833156,0
85.236505,27.833197,0
85.23662,27.833233,0
85.236742,27.833263,0
85.236862,27.833245,0
85.236998,27.833292,0
85.237088,27.833355,0
85.237241,27.833397,0
85.237355,27.833472,0
85.237496,27.833557,0
85.23762,27.833639,0
85.237716,27.833727,0
85.237802,27.833812,0
85.237925,27.833862,0
85.238056,27.833876,0
85.23816,27.834002,0
85.238157,27.834119,0
85.238125,27.834232,0
85.238159,27.834344,0
85.238289,27.834297,0
85.238385,27.834254,0
85.238469,27.834201,0
85.23856,27.834153,0
85.238617,27.834072,0
85.238686,27.833985,0
85.238777,27.833915,0
85.238841,27.833837,0
85.238808,27.833746,0
85.238804,27.833632,0
85.238897,27.833563,0
85.238847,27.833405,0
85.238885,27.833309,0
85.238947,27.833231,0
85.239023,27.833151,0
85.239132,27.833019,0
85.239194,27.832913,0
85.239211,27.832707,0
85.239198,27.832617,0
85.239183,27.8325,0
85.239264,27.83244,0
85.239301,27.832343,0
85.239408,27.832318,0
85.23949,27.832236,0
85.239554,27.832243,0
</coordinates>
</LineString>
</Placemark>
<Placemark>
<name>44900 to R6HC H5 Fung Fung Waterfall</name>
<styleUrl>#line-0000FF-2000-nodesc</styleUrl>
<LineString>
<tessellate>1</tessellate>
<coordinates>
85.242037,27.830692,0
85.24202,27.83076,0
85.24197,27.83084,0
85.24187,27.83095,0
85.24179,27.83102,0
85.24175,27.83107,0
85.24174,27.83109,0
85.2417,27.83116,0
85.24167,27.83128,0
85.24163,27.83139,0
85.2416,27.83147,0
85.24157,27.83154,0
85.24151,27.83159,0
85.24143,27.83163,0
85.24137,27.83165,0
85.24134,27.83167,0
85.24133,27.83167,0
85.24126,27.83171,0
85.24118,27.83178,0
85.2411,27.83186,0
85.24103,27.83197,0
85.241,27.83205,0
85.24099,27.83206,0
85.24096,27.83216,0
85.24088,27.83222,0
85.24079,27.83227,0
85.24066,27.83229,0
85.24053,27.83231,0
85.24049,27.83231,0
85.24049,27.832308,0
85.24053,27.83248,0
85.24071,27.83279,0
85.24071,27.832793,0
85.24071,27.8328,0
85.24066,27.83286,0
85.24064,27.83289,0
85.24061,27.83292,0
85.2406,27.83294,0
85.24059,27.83297,0
85.24057,27.83299,0
85.24056,27.83301,0
85.24052,27.83305,0
85.24048,27.83307,0
85.24045,27.83308,0
85.24041,27.83309,0
85.24039,27.8331,0
85.24034,27.83311,0
85.24027,27.83312,0
85.24026,27.83312,0
85.2402,27.83314,0
85.24004,27.8332,0
85.24,27.83321,0
85.23987,27.83324,0
85.23971,27.8333,0
85.23965,27.83332,0
85.23959,27.83334,0
85.23953,27.83338,0
85.23935,27.83352,0
85.23919,27.83365,0
85.2391,27.83371,0
85.23909,27.83372,0
85.23898,27.83378,0
85.2389,27.83382,0
85.23881,27.83386,0
85.23881,27.83387,0
85.23872,27.83392,0
85.23871,27.83392,0
85.23865,27.83397,0
85.23859,27.83402,0
85.23852,27.83408,0
85.23844,27.83413,0
85.23839,27.83417,0
85.23827,27.83422,0
85.23821,27.83425,0
85.23811,27.83429,0
85.238114,27.834292,0
85.23812,27.83431,0
85.23812,27.83432,0
85.23813,27.83434,0
85.23813,27.83436,0
85.23813,27.83437,0
85.23814,27.83439,0
85.23819,27.83445,0
85.23822,27.83449,0
85.23823,27.83451,0
85.23825,27.83454,0
85.23827,27.83467,0
85.23827,27.83472,0
85.23828,27.83477,0
85.23828,27.8348,0
85.23828,27.83482,0
85.23829,27.83484,0
85.2383,27.83485,0
85.23834,27.83486,0
85.23842,27.83487,0
85.23845,27.8349,0
85.23846,27.83492,0
85.23846,27.83494,0
85.23845,27.83495,0
85.23842,27.83498,0
85.2384,27.835,0
85.23838,27.83501,0
85.23832,27.83502,0
85.23827,27.83502,0
85.23822,27.83503,0
85.23819,27.83504,0
85.23816,27.83504,0
85.23814,27.83506,0
85.23812,27.83507,0
85.23811,27.83508,0
85.2381,27.83514,0
85.23809,27.8352,0
85.23809,27.83525,0
85.23809,27.83529,0
85.23811,27.83533,0
85.23812,27.83535,0
85.23817,27.83538,0
85.23822,27.83542,0
85.2384,27.83553,0
85.23844,27.83559,0
85.23845,27.83561,0
85.23844,27.83562,0
85.23844,27.83563,0
85.23843,27.83564,0
85.23841,27.83565,0
85.23839,27.83565,0
85.23835,27.83564,0
85.23829,27.8356,0
85.23824,27.83557,0
85.23822,27.83556,0
85.23819,27.83557,0
85.23815,27.83558,0
85.23811,27.83559,0
85.23808,27.83563,0
85.23803,27.83571,0
85.238,27.83577,0
85.23797,27.83584,0
85.23795,27.83591,0
85.23794,27.83597,0
85.23795,27.83605,0
85.23796,27.83617,0
85.23798,27.83629,0
85.23799,27.83636,0
85.23801,27.83644,0
85.23809,27.83668,0
85.23809,27.8367,0
85.23811,27.83674,0
85.23812,27.83675,0
85.23815,27.83678,0
85.23816,27.83679,0
85.2382,27.83682,0
85.23821,27.83684,0
85.2382,27.83686,0
85.2382,27.83688,0
85.23818,27.83689,0
85.23816,27.8369,0
85.23814,27.83691,0
85.23812,27.83692,0
85.2381,27.83691,0
85.23807,27.8369,0
85.23802,27.83681,0
85.23796,27.8367,0
85.23794,27.83669,0
85.23793,27.83668,0
85.23792,27.83668,0
85.2379,27.83669,0
85.23788,27.8367,0
85.23787,27.83671,0
85.23786,27.83672,0
85.23786,27.83674,0
85.23785,27.83679,0
85.23785,27.83682,0
85.23785,27.8369,0
85.23786,27.83698,0
85.23787,27.83704,0
85.23788,27.83708,0
85.23789,27.83709,0
85.23792,27.83711,0
85.23798,27.83713,0
85.238,27.83714,0
85.23804,27.83714,0
85.2381,27.83714,0
85.23817,27.83714,0
85.2382,27.83713,0
85.23824,27.83712,0
85.23835,27.83708,0
85.23854,27.83704,0
85.23855,27.83704,0
85.23856,27.83704,0
85.23858,27.83704,0
85.2386,27.83705,0
85.23861,27.83706,0
85.23861,27.83707,0
85.23861,27.83709,0
85.2386,27.8371,0
85.23859,27.83712,0
85.23857,27.83713,0
85.23853,27.83714,0
85.23846,27.83715,0
85.23843,27.83717,0
85.23835,27.83722,0
85.23823,27.83738,0
85.23821,27.83743,0
85.23818,27.83746,0
85.23817,27.83754,0
85.23817,27.8376,0
85.23819,27.83768,0
85.238189,27.83768,0
85.23816,27.83774,0
85.23814,27.8378,0
85.23809,27.83786,0
85.23803,27.83793,0
85.23797,27.838,0
85.23791,27.83811,0
85.23788,27.83817,0
85.23785,27.83826,0
85.23781,27.83836,0
85.2378,27.83841,0
85.23777,27.8385,0
85.23773,27.83878,0
85.2377,27.83886,0
85.23766,27.83893,0
85.23762,27.83901,0
85.23758,27.83907,0
85.23736,27.83955,0
85.23734,27.83962,0
85.23728,27.83978,0
85.23725,27.83984,0
85.23724,27.83987,0
85.23724,27.83989,0
85.23725,27.83993,0
85.23725,27.84002,0
85.23725,27.84005,0
85.23724,27.8401,0
85.23726,27.84015,0
85.23727,27.84018,0
85.23729,27.84019,0
85.2373,27.8402,0
85.23732,27.84022,0
85.23734,27.84023,0
85.23737,27.84024,0
85.23741,27.84024,0
85.23746,27.84024,0
85.23751,27.84023,0
85.23761,27.84022,0
85.23766,27.84022,0
85.23771,27.84024,0
85.23773,27.84025,0
85.23782,27.84032,0
85.237819,27.840325,0
85.23778,27.84032,0
85.23774,27.84031,0
85.23767,27.8403,0
85.23762,27.84031,0
85.23755,27.84033,0
85.23745,27.84036,0
85.237452,27.840363,0
85.23743,27.84036,0
85.23738,27.84035,0
85.23733,27.84035,0
85.23729,27.84034,0
85.23727,27.84033,0
85.23724,27.84031,0
85.23721,27.84029,0
85.23709,27.84022,0
85.23707,27.84022,0
85.23687,27.8401,0
85.23684,27.84008,0
85.2368,27.84003,0
85.23673,27.83996,0
85.23671,27.83991,0
85.2367,27.83987,0
85.2367,27.83982,0
85.23669,27.83971,0
85.23669,27.83969,0
85.23667,27.83958,0
85.23665,27.83952,0
85.23659,27.8394,0
85.23657,27.83932,0
85.23656,27.83932,0
85.23655,27.83927,0
85.23655,27.83924,0
85.23656,27.83921,0
85.23657,27.83916,0
85.23659,27.83913,0
85.23664,27.83899,0
85.23664,27.83897,0
85.23665,27.83892,0
85.23665,27.83884,0
85.23663,27.83874,0
85.23661,27.83864,0
85.23656,27.83854,0
85.23654,27.83846,0
85.23654,27.83838,0
85.23654,27.83833,0
85.23653,27.83827,0
85.23649,27.83817,0
85.23643,27.83805,0
85.2364,27.83798,0
85.23635,27.8379,0
85.23627,27.83782,0
85.23611,27.83775,0
85.23588,27.83767,0
85.23585,27.83764,0
85.23584,27.83762,0
85.23583,27.8376,0
85.23583,27.83758,0
85.23584,27.83756,0
85.23588,27.83749,0
85.2359,27.83743,0
85.23591,27.83739,0
85.23591,27.83731,0
85.2359,27.83727,0
85.23585,27.83718,0
85.23573,27.83704,0
85.2357,27.83699,0
85.23566,27.8369,0
85.23565,27.83684,0
85.23564,27.83673,0
85.23563,27.83667,0
85.23563,27.83666,0
85.23559,27.83655,0
85.23553,27.83642,0
85.23544,27.83627,0
85.23538,27.83616,0
85.23535,27.83612,0
85.23532,27.83609,0
85.2353,27.83608,0
85.23524,27.83606,0
85.23516,27.83604,0
85.23508,27.83602,0
85.23505,27.836,0
85.23504,27.836,0
85.23497,27.83596,0
85.2349,27.83591,0
85.23488,27.83588,0
85.23487,27.83587,0
85.23485,27.83584,0
85.23484,27.83576,0
85.23484,27.8357,0
85.23486,27.83556,0
85.23489,27.83544,0
85.23489,27.8354,0
85.23488,27.83538,0
85.23487,27.83537,0
85.23487,27.83536,0
85.23483,27.83533,0
85.23462,27.83519,0
85.23456,27.83514,0
85.23446,27.83504,0
85.23434,27.83492,0
85.23428,27.83488,0
85.23404,27.8347,0
85.23397,27.83465,0
85.23383,27.83455,0
85.2337,27.83439,0
85.23336,27.83406,0
85.23329,27.834,0
85.2331,27.83389,0
85.23299,27.83383,0
85.23293,27.8338,0
85.23259,27.83364,0
85.23257,27.83363,0
85.23242,27.83356,0
85.23228,27.83351,0
85.23221,27.83351,0
85.23211,27.83353,0
85.23207,27.83354,0
85.23201,27.83355,0
85.23186,27.83361,0
85.23167,27.83369,0
85.23154,27.83372,0
85.23148,27.83373,0
85.23142,27.83372,0
85.23139,27.83372,0
85.23132,27.83371,0
85.23123,27.83368,0
85.23109,27.83364,0
85.231089,27.833636,0
85.23109,27.83363,0
85.2311,27.83363,0
85.23111,27.83362,0
85.23111,27.83361,0
85.2311,27.83356,0
85.23109,27.83355,0
85.23104,27.8335,0
85.231,27.8334,0
85.23092,27.83332,0
85.23084,27.83324,0
85.23074,27.83319,0
85.23064,27.83314,0
85.23046,27.83304,0
85.23042,27.833,0
85.2304,27.83297,0
85.2304,27.83296,0
85.2304,27.83291,0
85.23041,27.83281,0
85.23041,27.83277,0
85.2304,27.83274,0
85.23039,27.83273,0
85.23028,27.83266,0
85.2302,27.8326,0
85.23016,27.83258,0
85.23014,27.83257,0
85.23012,27.83253,0
85.23012,27.83247,0
85.23014,27.8324,0
85.23015,27.83237,0
85.23025,27.83203,0
85.23029,27.83191,0
85.2303,27.8318,0
85.2303,27.83177,0
85.23032,27.83172,0
85.23035,27.83157,0
85.23038,27.8315,0
85.23043,27.8314,0
85.23044,27.83136,0
85.23047,27.83128,0
85.2305,27.83122,0
85.23054,27.83117,0
85.23057,27.83112,0
85.23061,27.83108,0
85.23063,27.83105,0
85.23063,27.83103,0
85.23063,27.83099,0
85.23063,27.83095,0
85.23062,27.83092,0
85.23061,27.83087,0
85.2306,27.8308,0
85.2306,27.83074,0
85.23062,27.83068,0
85.23063,27.83056,0
85.23066,27.83048,0
85.23067,27.83035,0
85.23067,27.83032,0
85.23068,27.8303,0
85.23073,27.83019,0
85.23076,27.83014,0
85.23082,27.82998,0
85.23083,27.8299,0
85.23083,27.82986,0
85.23083,27.82984,0
85.23081,27.8298,0
85.2308,27.8298,0
85.23075,27.82976,0
85.23071,27.82971,0
85.2307,27.82969,0
85.2307,27.82967,0
85.2307,27.82961,0
85.2308,27.82939,0
85.23081,27.82937,0
85.23081,27.82934,0
85.2308,27.82925,0
85.2308,27.8292,0
85.23077,27.82895,0
85.23077,27.82889,0
85.23076,27.82886,0
85.23076,27.82883,0
85.23075,27.82881,0
85.23074,27.8288,0
85.23073,27.8288,0
85.23071,27.8288,0
85.23068,27.8288,0
85.23064,27.8288,0
85.23058,27.82881,0
85.23046,27.82881,0
85.23038,27.82881,0
85.23034,27.82881,0
85.2303,27.8288,0
85.23022,27.82878,0
85.23015,27.82875,0
85.23005,27.82873,0
85.22994,27.82874,0
85.22989,27.82875,0
85.22984,27.82876,0
85.2298,27.82878,0
85.22975,27.82879,0
85.22972,27.8288,0
85.22967,27.8288,0
85.22963,27.8288,0
85.22959,27.8288,0
85.22955,27.82879,0
85.22938,27.82873,0
85.22932,27.8287,0
85.22924,27.82865,0
85.22911,27.82853,0
85.22907,27.82852,0
85.22903,27.82852,0
85.22896,27.82855,0
85.22891,27.82859,0
85.22884,27.82862,0
85.22881,27.82862,0
85.22877,27.82862,0
85.22873,27.82862,0
85.22871,27.82861,0
85.22868,27.8286,0
85.22866,27.82858,0
85.22864,27.82857,0
85.22859,27.82854,0
85.22833,27.82839,0
85.22831,27.82837,0
85.228308,27.828369,0
85.22823,27.82837,0
85.22817,27.82837,0
85.22811,27.82837,0
85.22807,27.82836,0
85.22801,27.82835,0
85.228,27.82834,0
85.22789,27.82828,0
85.2278,27.82825,0
85.22766,27.82819,0
85.22762,27.82817,0
85.22757,27.82814,0
85.22748,27.82804,0
85.22746,27.82799,0
85.22743,27.82792,0
85.22743,27.82785,0
85.22741,27.82777,0
85.22739,27.82772,0
85.22738,27.82765,0
85.22738,27.8276,0
85.22738,27.82754,0
85.22738,27.82751,0
85.22739,27.8275,0
85.22741,27.82747,0
85.22743,27.82744,0
85.22751,27.82733,0
85.22752,27.8273,0
85.22752,27.82727,0
85.22752,27.82723,0
85.22752,27.82719,0
85.22752,27.82716,0
85.22752,27.82714,0
85.22749,27.82709,0
85.22744,27.82701,0
85.22742,27.82698,0
85.22742,27.82695,0
85.22741,27.82689,0
85.22741,27.82679,0
85.22739,27.82672,0
85.22737,27.82667,0
85.22736,27.82663,0
85.22735,27.8266,0
85.22735,27.82657,0
85.22735,27.82649,0
85.22735,27.82642,0
85.22735,27.82638,0
85.22735,27.82636,0
85.22736,27.82634,0
85.22737,27.82632,0
85.22738,27.82632,0
85.2274,27.82631,0
85.22741,27.82631,0
85.22742,27.82631,0
85.22742,27.826305,0
85.2274,27.8263,0
85.22737,27.82629,0
85.22735,27.82629,0
85.22733,27.82629,0
85.22732,27.82629,0
85.2273,27.8263,0
85.2273,27.82631,0
85.22729,27.82631,0
85.22729,27.82634,0
85.22729,27.82636,0
85.22727,27.82644,0
85.22725,27.82649,0
85.22723,27.82659,0
85.22721,27.82666,0
85.22719,27.82675,0
85.22717,27.8268,0
85.22715,27.82687,0
85.22713,27.8269,0
85.2271,27.82693,0
85.22707,27.82696,0
85.22706,27.82697,0
85.22704,27.82698,0
85.22701,27.82699,0
85.227,27.82699,0
85.22698,27.82699,0
85.22697,27.82699,0
85.22695,27.82699,0
85.2269,27.82699,0
85.22688,27.82699,0
85.22683,27.827,0
85.22679,27.82702,0
85.22677,27.82703,0
85.22674,27.82704,0
85.22672,27.82704,0
85.22668,27.82703,0
85.22664,27.82702,0
85.22654,27.827,0
85.22651,27.82699,0
85.22649,27.82699,0
85.22648,27.82699,0
85.22646,27.827,0
85.22644,27.827,0
85.22642,27.82701,0
85.22639,27.82702,0
85.22636,27.82704,0
85.2263,27.82708,0
85.22622,27.82715,0
85.2262,27.82718,0
85.22617,27.82723,0
85.22616,27.82727,0
85.22616,27.82731,0
85.22619,27.82742,0
85.22622,27.82748,0
85.22638,27.82773,0
85.22645,27.82785,0
85.22646,27.8279,0
85.22648,27.82795,0
85.22648,27.82804,0
85.22644,27.82826,0
85.22643,27.82838,0
85.22643,27.82843,0
85.22642,27.8285,0
85.22639,27.82862,0
85.22635,27.82878,0
85.22632,27.82895,0
85.22631,27.82898,0
85.22631,27.829,0
85.22636,27.82911,0
85.22646,27.82928,0
85.22648,27.82932,0
85.2265,27.82937,0
85.2265,27.82945,0
85.22649,27.82952,0
85.22647,27.82964,0
85.22643,27.82977,0
85.22642,27.82983,0
85.22642,27.82988,0
85.22642,27.82995,0
85.22642,27.82998,0
85.22641,27.82999,0
85.22638,27.83009,0
85.22633,27.83019,0
85.2263,27.83027,0
85.22629,27.83029,0
85.22629,27.83032,0
85.2263,27.83034,0
85.22631,27.83038,0
85.22633,27.83041,0
85.22639,27.83044,0
85.22644,27.83047,0
85.22661,27.83053,0
85.22667,27.83055,0
85.2267,27.83055,0
85.22671,27.83055,0
85.22674,27.83055,0
85.22681,27.83053,0
85.22684,27.83052,0
85.22693,27.83052,0
85.22694,27.83052,0
85.22696,27.83052,0
85.22696,27.83053,0
85.22697,27.83053,0
85.22697,27.83054,0
85.22697,27.83055,0
85.22696,27.83056,0
85.22695,27.83057,0
85.22694,27.83058,0
85.22693,27.83059,0
85.22689,27.83061,0
85.22682,27.83066,0
85.22676,27.83069,0
85.22671,27.83072,0
85.22667,27.83077,0
85.22665,27.8308,0
85.22663,27.83089,0
85.22661,27.83097,0
85.22659,27.83105,0
85.22657,27.8311,0
85.22656,27.83111,0
85.22654,27.83112,0
85.22653,27.83112,0
85.22649,27.83113,0
85.22646,27.83113,0
85.22644,27.83113,0
85.22639,27.83111,0
85.22637,27.83109,0
85.2263,27.831,0
85.22629,27.83097,0
85.22627,27.83091,0
85.22624,27.83084,0
85.22623,27.83083,0
85.22619,27.8308,0
85.22599,27.83074,0
85.22595,27.83072,0
85.22593,27.83071,0
85.22589,27.8307,0
85.22588,27.83069,0
85.22581,27.8307,0
85.22576,27.83071,0
85.22573,27.83073,0
85.22571,27.83074,0
85.22565,27.83079,0
85.22562,27.83082,0
85.22557,27.83086,0
85.22556,27.83087,0
85.22554,27.83088,0
85.2255,27.83088,0
85.22544,27.83087,0
85.22538,27.83085,0
85.22533,27.83083,0
85.22527,27.83079,0
85.22525,27.83077,0
85.22519,27.83073,0
85.22471,27.83032,0
85.22469,27.83031,0
85.22467,27.83031,0
85.22464,27.83031,0
85.2246,27.83032,0
85.22452,27.83035,0
85.22434,27.83043,0
85.2242,27.83049,0
85.22417,27.83051,0
85.22414,27.83053,0
85.2241,27.83055,0
85.22407,27.83059,0
85.22404,27.83061,0
85.22402,27.83061,0
85.224,27.83061,0
85.22399,27.8306,0
85.22397,27.83059,0
85.22394,27.83058,0
85.22391,27.83057,0
85.22387,27.83055,0
85.22384,27.83054,0
85.22381,27.83054,0
85.22368,27.83052,0
85.22361,27.83049,0
85.22353,27.83045,0
85.22341,27.83036,0
85.22325,27.83025,0
85.2232,27.83023,0
85.22315,27.83021,0
85.2231,27.8302,0
85.22305,27.8302,0
85.22302,27.8302,0
85.22292,27.83021,0
85.22282,27.83023,0
85.22274,27.83023,0
85.22269,27.83023,0
85.22247,27.83022,0
85.22243,27.83021,0
85.2224,27.8302,0
85.22233,27.83018,0
85.22228,27.83016,0
85.22222,27.83013,0
85.22213,27.83012,0
85.22203,27.83011,0
85.22193,27.83008,0
85.22186,27.83005,0
85.22183,27.83003,0
85.22182,27.83001,0
85.22182,27.82999,0
85.22181,27.82995,0
85.22183,27.82989,0
85.22183,27.82987,0
85.22183,27.82986,0
85.22183,27.82984,0
85.22182,27.82979,0
85.22177,27.82957,0
85.22174,27.82946,0
85.22171,27.82929,0
85.2217,27.82924,0
85.22169,27.82917,0
85.22168,27.82911,0
85.22168,27.82909,0
85.22168,27.82907,0
85.221679,27.829075,0
</coordinates>
</LineString>
</Placemark>
<Placemark>
<name/>
<styleUrl>#line-FF0000-2000-nodesc</styleUrl>
<LineString>
<tessellate>1</tessellate>
<coordinates>
85.278174,27.776569,0
85.27828,27.7765,0
85.27849,27.77637,0
85.27866,27.77626,0
85.27887,27.7761,0
85.27912,27.77593,0
85.27925,27.77584,0
85.27931,27.77579,0
85.27942,27.77568,0
85.27945,27.77565,0
85.27948,27.77561,0
85.27948,27.77557,0
85.27948,27.77554,0
85.27946,27.77547,0
85.27944,27.77543,0
85.27938,27.77538,0
85.2793,27.77531,0
85.27909,27.77519,0
85.27896,27.77509,0
85.27889,27.77504,0
85.27881,27.77501,0
85.27872,27.77499,0
85.27861,27.77495,0
85.27848,27.7749,0
85.27845,27.77488,0
85.27844,27.77485,0
85.27843,27.77482,0
85.27843,27.7748,0
85.27843,27.77478,0
85.27843,27.77476,0
85.27844,27.77474,0
85.27845,27.77471,0
85.27846,27.7747,0
85.27847,27.77468,0
85.27849,27.77467,0
85.2785,27.77466,0
85.278584,27.774622,0
85.27858,27.77462,0
85.27902,27.77483,0
85.27925,27.77492,0
85.27948,27.775,0
85.27952,27.77501,0
85.28018,27.7751,0
85.28039,27.77512,0
85.28063,27.77514,0
85.28078,27.77517,0
85.28086,27.7752,0
85.2809,27.77524,0
85.28092,27.77526,0
85.28092,27.77528,0
85.28092,27.77531,0
85.28091,27.77534,0
85.2809,27.77538,0
85.28089,27.77539,0
85.28088,27.77541,0
85.28086,27.77543,0
85.28085,27.77545,0
85.28083,27.77547,0
85.28081,27.77549,0
85.28079,27.7755,0
85.28075,27.77552,0
85.2807,27.77555,0
85.28065,27.77558,0
85.28061,27.7756,0
85.28057,27.77565,0
85.28049,27.77574,0
85.28046,27.77597,0
85.28045,27.77608,0
85.28046,27.77611,0
85.28046,27.77612,0
85.28048,27.77615,0
85.28048,27.77616,0
85.28051,27.77621,0
85.28054,27.77622,0
85.28055,27.77623,0
85.28058,27.77624,0
85.28061,27.77624,0
85.28064,27.77624,0
85.28067,27.77624,0
85.2807,27.77623,0
85.28073,27.77621,0
85.28078,27.77617,0
85.28084,27.77609,0
85.2809,27.77598,0
85.28094,27.77591,0
85.28096,27.77587,0
85.28103,27.77582,0
85.28109,27.77578,0
85.28117,27.77577,0
85.28126,27.77576,0
85.28132,27.77575,0
85.2814,27.77573,0
85.28143,27.77571,0
85.28155,27.77568,0
85.28166,27.77565,0
85.28181,27.77559,0
85.28193,27.77554,0
85.28201,27.77551,0
85.28207,27.77547,0
85.28212,27.77541,0
85.28216,27.77532,0
85.28219,27.77521,0
85.28223,27.7751,0
85.28229,27.77499,0
85.28233,27.77489,0
85.2824,27.77482,0
85.28245,27.77475,0
85.28247,27.77473,0
85.28252,27.77466,0
85.28259,27.77457,0
85.28277,27.77433,0
85.28288,27.77421,0
85.28292,27.77418,0
85.28294,27.77417,0
85.28297,27.77415,0
85.283,27.77413,0
85.28301,27.77412,0
85.28306,27.77408,0
85.28309,27.77407,0
85.28334,27.77401,0
85.28375,27.77397,0
85.28397,27.77393,0
85.28414,27.77387,0
85.28425,27.77383,0
85.28451,27.77371,0
85.2847,27.77362,0
85.28487,27.77351,0
85.28495,27.77347,0
85.28499,27.77344,0
85.28513,27.77333,0
85.28516,27.7733,0
85.2852,27.77327,0
85.28523,27.77324,0
85.28527,27.77322,0
85.2855,27.77313,0
85.28603,27.77296,0
85.28642,27.77282,0
85.28683,27.77271,0
85.28688,27.7727,0
85.28697,27.77268,0
85.2872,27.77263,0
85.2873,27.77261,0
85.28759,27.77252,0
85.28768,27.77249,0
85.28777,27.77247,0
85.28795,27.77239,0
85.2882,27.77231,0
85.28842,27.77225,0
85.28862,27.77218,0
85.28884,27.7721,0
85.28932,27.77193,0
85.28951,27.77186,0
85.28978,27.77176,0
85.2898,27.77175,0
85.29014,27.7716,0
85.29044,27.77146,0
85.29077,27.77129,0
85.2917,27.7708,0
85.29229,27.77051,0
85.29253,27.7704,0
85.29279,27.77028,0
85.29285,27.77026,0
85.29324,27.77009,0
85.29328,27.77007,0
85.29332,27.77005,0
85.29379,27.76985,0
85.2939,27.7698,0
85.29421,27.76968,0
85.29447,27.76956,0
85.29483,27.76939,0
85.29516,27.76924,0
85.29571,27.76899,0
85.29584,27.76893,0
85.296,27.76886,0
85.29614,27.76879,0
85.29643,27.76865,0
85.29648,27.76862,0
85.29654,27.76856,0
85.29658,27.7685,0
85.29661,27.76845,0
85.29666,27.76838,0
85.29667,27.76834,0
85.29672,27.76824,0
85.29682,27.76797,0
85.29686,27.76786,0
85.2969,27.76776,0
85.29706,27.76737,0
85.29716,27.76721,0
85.2972,27.76715,0
85.29731,27.76711,0
85.29732,27.76711,0
85.29801,27.76689,0
85.29816,27.76684,0
85.29852,27.76672,0
85.29859,27.7667,0
85.29864,27.76666,0
85.29866,27.76664,0
85.29869,27.7666,0
85.2987,27.76658,0
85.2987,27.76655,0
85.2987,27.76651,0
85.2987,27.76647,0
85.29869,27.76643,0
85.29867,27.76639,0
85.29867,27.76638,0
85.29865,27.76635,0
85.29865,27.76634,0
85.29855,27.76623,0
85.29839,27.76611,0
85.29837,27.7661,0
85.29835,27.76609,0
85.29829,27.76607,0
85.29824,27.76604,0
85.2982,27.76601,0
85.29819,27.76598,0
85.2982,27.76594,0
85.29821,27.7659,0
85.29827,27.76581,0
85.29833,27.76572,0
85.29835,27.76568,0
85.29837,27.76564,0
85.2984,27.7656,0
85.29842,27.76555,0
85.29843,27.76552,0
85.29844,27.76551,0
85.29844,27.76546,0
85.29844,27.76543,0
85.29843,27.7654,0
85.29842,27.76534,0
85.2984,27.7653,0
85.29837,27.76524,0
85.29832,27.76519,0
85.29829,27.76515,0
85.29827,27.76512,0
85.29825,27.76508,0
85.29825,27.76505,0
85.29825,27.76503,0
85.29826,27.76499,0
85.29827,27.76497,0
85.2983,27.76493,0
85.29831,27.76491,0
85.29833,27.7649,0
85.29836,27.76487,0
85.29842,27.76483,0
85.2986,27.76478,0
85.29887,27.76472,0
85.29903,27.76468,0
85.29906,27.76466,0
85.29915,27.76461,0
85.29917,27.7646,0
85.2992,27.76458,0
85.29924,27.76455,0
85.29927,27.76452,0
85.29928,27.76449,0
85.29929,27.76447,0
85.2993,27.76441,0
85.2993,27.76438,0
85.29927,27.76421,0
85.29926,27.76416,0
85.29926,27.76411,0
85.29928,27.76406,0
85.2993,27.764,0
85.29932,27.76394,0
85.29938,27.76383,0
85.29938,27.76381,0
85.29943,27.76371,0
85.29945,27.76364,0
85.29947,27.76358,0
85.29951,27.76326,0
85.29952,27.76322,0
85.29954,27.76309,0
85.29956,27.76299,0
85.29961,27.7628,0
85.29963,27.76276,0
85.29965,27.76272,0
85.29968,27.76269,0
85.29973,27.76266,0
85.29976,27.76265,0
85.29992,27.76259,0
85.30013,27.7625,0
85.30019,27.76248,0
85.30036,27.76239,0
85.30048,27.76232,0
85.30058,27.76227,0
85.30091,27.76201,0
85.301195,27.761778,0
85.3012,27.76178,0
85.30124,27.76166,0
85.30127,27.76151,0
85.30131,27.76129,0
85.30134,27.76103,0
85.30134,27.76099,0
85.30136,27.76076,0
85.3014,27.76028,0
85.3014,27.76008,0
85.3014,27.7599,0
85.30139,27.75982,0
85.30139,27.75973,0
85.30136,27.75955,0
85.30128,27.75929,0
85.30123,27.75915,0
85.30122,27.75908,0
85.30121,27.75906,0
85.30122,27.75901,0
85.30122,27.75898,0
85.30123,27.75894,0
85.30123,27.75892,0
85.3013,27.75861,0
85.30131,27.75858,0
85.30132,27.75854,0
85.30132,27.75852,0
85.30134,27.75848,0
85.30135,27.75844,0
85.30142,27.7583,0
85.30148,27.75819,0
85.30166,27.75793,0
85.3017,27.75788,0
85.3018,27.75777,0
85.30184,27.75772,0
85.30198,27.75757,0
85.30206,27.75745,0
85.30194,27.75702,0
85.30193,27.75684,0
85.30192,27.75672,0
85.30192,27.7567,0
85.30191,27.75656,0
85.30188,27.75625,0
85.30188,27.75621,0
85.30189,27.75598,0
85.30192,27.75579,0
85.30195,27.75559,0
85.30198,27.7554,0
85.302,27.75531,0
85.30204,27.75518,0
85.30206,27.75508,0
85.30212,27.75477,0
85.30215,27.75459,0
85.3022,27.75442,0
85.3023,27.75417,0
85.30241,27.75391,0
85.30258,27.75361,0
85.30275,27.75332,0
85.30284,27.75317,0
85.30307,27.75278,0
85.30311,27.75262,0
85.30314,27.75235,0
85.30316,27.75216,0
85.30317,27.7519,0
85.30308,27.75147,0
85.30302,27.75134,0
85.30298,27.75126,0
85.30294,27.75119,0
85.30284,27.75102,0
85.30278,27.75094,0
85.30273,27.75086,0
85.30266,27.75076,0
85.30253,27.7506,0
85.30247,27.75049,0
85.30238,27.75029,0
85.30234,27.75018,0
85.30228,27.75003,0
85.30224,27.74997,0
85.30198,27.74949,0
85.30188,27.74933,0
85.30187,27.74932,0
85.30173,27.74903,0
85.30155,27.7487,0
85.30132,27.7484,0
85.30112,27.74808,0
85.30099,27.74786,0
85.30094,27.74779,0
85.30084,27.7476,0
85.30076,27.74744,0
85.30072,27.74734,0
85.30069,27.74726,0
85.30065,27.74716,0
85.30056,27.74698,0
85.30051,27.74687,0
85.30047,27.74674,0
85.30042,27.74657,0
85.30041,27.74648,0
85.30039,27.7464,0
85.30037,27.74624,0
85.30034,27.74606,0
85.30031,27.7459,0
85.30027,27.74575,0
85.30027,27.74572,0
85.30023,27.74548,0
85.30021,27.74533,0
85.30021,27.74531,0
85.3002,27.74529,0
85.30019,27.74518,0
85.30017,27.74506,0
85.30016,27.74495,0
85.30016,27.74485,0
85.30017,27.74474,0
85.30017,27.74465,0
85.30019,27.74457,0
85.30019,27.74455,0
85.30021,27.74448,0
85.30025,27.74434,0
85.30027,27.7442,0
85.300316,27.744023,0
85.30032,27.74402,0
85.30038,27.74397,0
85.30045,27.74391,0
85.30049,27.74385,0
85.30061,27.74368,0
85.30065,27.74362,0
85.3007,27.74357,0
85.30092,27.74345,0
85.301,27.74339,0
85.30111,27.74332,0
85.30116,27.74328,0
85.30122,27.74322,0
85.30143,27.74304,0
85.30171,27.74282,0
85.30186,27.74269,0
85.30203,27.74255,0
85.30205,27.74253,0
85.30222,27.74237,0
85.30232,27.74227,0
85.30244,27.74218,0
85.30251,27.74214,0
85.30257,27.7421,0
85.30262,27.74207,0
85.30267,27.74204,0
85.30289,27.74194,0
85.30319,27.7418,0
85.30338,27.7417,0
85.303539,27.74161,0
85.30354,27.74161,0
85.30345,27.74138,0
85.30334,27.74109,0
85.30329,27.74098,0
85.30321,27.74077,0
85.30316,27.74063,0
85.30301,27.74029,0
85.30282,27.73982,0
85.3028,27.73977,0
85.30263,27.73932,0
85.30257,27.73913,0
85.30239,27.73862,0
85.30214,27.73796,0
85.30199,27.73759,0
85.30185,27.73722,0
85.30182,27.73711,0
85.30179,27.73704,0
85.30178,27.73694,0
85.301757,27.736752,0
85.30176,27.73675,0
85.30178,27.73672,0
85.30179,27.73668,0
85.30179,27.73635,0
85.3018,27.73623,0
85.3018,27.7362,0
85.30181,27.73609,0
85.30183,27.7359,0
85.30184,27.73584,0
85.30185,27.73577,0
85.30185,27.73565,0
85.30185,27.73549,0
85.30185,27.7354,0
85.30186,27.73532,0
85.30188,27.73523,0
85.30192,27.73477,0
85.30193,27.73468,0
85.30193,27.73463,0
85.30194,27.73458,0
85.30195,27.73454,0
85.30196,27.73449,0
85.30197,27.73443,0
85.30199,27.73436,0
85.30202,27.73432,0
85.30206,27.73427,0
85.3021,27.73424,0
85.30212,27.73422,0
85.30219,27.73418,0
85.30221,27.73415,0
85.30223,27.73414,0
85.30231,27.73401,0
85.30241,27.73385,0
85.30251,27.73361,0
85.30257,27.73348,0
85.30268,27.7332,0
85.30276,27.73299,0
85.30279,27.73286,0
85.302829,27.73268,0
</coordinates>
</LineString>
</Placemark>
<Placemark>
<name/>
<styleUrl>#line-0000FF-2000-nodesc</styleUrl>
<LineString>
<tessellate>1</tessellate>
<coordinates>
85.24758,27.814977,0
85.247612,27.81495,0
85.247703,27.81487,0
85.247823,27.814732,0
85.247921,27.81448,0
85.24807,27.814441,0
85.248169,27.814386,0
85.248294,27.81427,0
85.248217,27.814202,0
85.248268,27.81409,0
85.248329,27.814013,0
85.248362,27.813911,0
85.248408,27.813715,0
85.248546,27.813601,0
85.248655,27.813524,0
85.248797,27.813538,0
85.248898,27.813547,0
85.249021,27.813518,0
85.249065,27.813433,0
85.24906,27.813333,0
85.249121,27.813242,0
85.249102,27.813148,0
85.249102,27.81304,0
85.249192,27.812941,0
85.249271,27.812846,0
85.249314,27.812744,0
85.249367,27.812646,0
85.249433,27.812549,0
85.249417,27.812459,0
85.249524,27.812347,0
85.24961,27.812268,0
85.249668,27.812173,0
85.249767,27.811989,0
85.249816,27.811868,0
85.249863,27.81195,0
85.249965,27.811949,0
85.250095,27.811932,0
85.250223,27.811882,0
85.250324,27.811849,0
85.250418,27.811797,0
85.250531,27.811803,0
85.250659,27.811768,0
85.250752,27.81172,0
85.250851,27.811671,0
85.250883,27.811575,0
85.250848,27.811462,0
85.250943,27.811355,0
85.251008,27.811281,0
85.25112,27.811203,0
85.251243,27.811153,0
85.251323,27.811213,0
85.251427,27.811216,0
85.251582,27.811211,0
85.251694,27.811202,0
85.251804,27.811176,0
85.251915,27.811146,0
85.252034,27.811135,0
85.252143,27.811141,0
85.252243,27.811164,0
85.252361,27.811143,0
85.252537,27.811095,0
85.252758,27.810991,0
85.252854,27.810958,0
85.253026,27.810916,0
85.253101,27.810787,0
85.253234,27.810804,0
85.253362,27.810852,0
85.253485,27.810894,0
85.253603,27.810935,0
85.253715,27.810925,0
85.253819,27.810881,0
85.253918,27.810796,0
85.254025,27.810736,0
85.254142,27.810682,0
85.254236,27.810624,0
85.254336,27.81056,0
85.25443,27.810499,0
85.254545,27.810433,0
85.25467,27.81036,0
85.254808,27.81035,0
85.254908,27.810414,0
85.25496,27.810543,0
85.255053,27.810579,0
85.255188,27.81057,0
85.255314,27.810517,0
85.255424,27.810443,0
85.255504,27.810379,0
85.25561,27.810307,0
85.255743,27.810288,0
85.255847,27.810308,0
85.255977,27.810335,0
85.256148,27.810357,0
85.256249,27.810335,0
85.256346,27.810277,0
85.256445,27.81021,0
85.256556,27.810125,0
85.256691,27.810114,0
85.256867,27.810032,0
85.257001,27.809948,0
85.257142,27.809874,0
85.257281,27.809832,0
85.257398,27.80986,0
85.25751,27.809879,0
85.257639,27.809914,0
85.257745,27.809919,0
85.257867,27.809881,0
85.257993,27.809845,0
85.258117,27.80987,0
85.258236,27.809852,0
85.258314,27.809793,0
85.258398,27.809739,0
85.258381,27.809602,0
85.258468,27.809541,0
85.258562,27.809459,0
85.258653,27.809357,0
85.258729,27.809279,0
85.25886,27.809187,0
85.258957,27.809075,0
85.259001,27.808948,0
85.25904,27.808823,0
85.259077,27.808717,0
85.259204,27.808693,0
85.259281,27.808613,0
85.259356,27.808534,0
85.259475,27.808476,0
85.259585,27.80846,0
85.259706,27.808434,0
85.25981,27.808357,0
85.259876,27.808273,0
85.259953,27.808172,0
85.260055,27.808101,0
85.260181,27.808044,0
85.260289,27.808017,0
85.260423,27.808,0
85.260557,27.807998,0
85.260674,27.807967,0
85.260775,27.807951,0
85.26089,27.807904,0
85.261005,27.807901,0
85.2611,27.807865,0
85.261237,27.807798,0
85.261351,27.807819,0
85.26146,27.807807,0
85.261653,27.807772,0
85.261753,27.807741,0
85.261867,27.807679,0
85.261983,27.807646,0
85.262141,27.807635,0
85.262224,27.807558,0
85.262269,27.80747,0
85.262327,27.807381,0
85.262345,27.807277,0
85.262298,27.807174,0
85.262267,27.80707,0
85.262316,27.806979,0
85.262399,27.806908,0
85.262503,27.806848,0
85.262617,27.806801,0
85.262717,27.806758,0
85.262847,27.806746,0
85.262969,27.80668,0
85.263064,27.806619,0
85.263147,27.80653,0
85.263197,27.806431,0
85.263267,27.806344,0
85.263305,27.80625,0
85.263387,27.806177,0
85.263487,27.806158,0
85.263622,27.806161,0
85.263741,27.80619,0
85.26386,27.806237,0
85.263982,27.806283,0
85.264061,27.806359,0
85.264145,27.806416,0
85.264292,27.806463,0
85.264412,27.806473,0
85.26453,27.806472,0
85.264665,27.806505,0
85.264776,27.806586,0
85.264855,27.80665,0
85.264951,27.806701,0
85.265112,27.806713,0
85.265245,27.806712,0
85.265373,27.806707,0
85.265484,27.806693,0
85.265594,27.806613,0
85.265658,27.806489,0
85.265725,27.806398,0
85.265784,27.806308,0
85.26586,27.806191,0
85.265869,27.806091,0
85.265876,27.805982,0
85.265922,27.805888,0
85.266011,27.80582,0
85.266127,27.805789,0
85.266243,27.805826,0
85.266361,27.805871,0
85.266464,27.805912,0
85.266587,27.805956,0
85.266719,27.806015,0
85.266831,27.806048,0
85.266937,27.806056,0
85.267041,27.806038,0
85.267137,27.806002,0
85.267244,27.805967,0
85.26736,27.805925,0
85.267473,27.805845,0
85.267563,27.805785,0
85.267651,27.805735,0
85.267765,27.805709,0
85.26787,27.805668,0
85.267992,27.805655,0
85.268106,27.805685,0
85.26823,27.805717,0
85.268332,27.805801,0
85.268449,27.805878,0
85.268567,27.805943,0
85.26869,27.806004,0
85.268811,27.806019,0
85.26895,27.806032,0
85.26906,27.806044,0
85.269198,27.806045,0
85.269326,27.80603,0
85.26947,27.806037,0
85.269574,27.806015,0
85.269647,27.805948,0
85.269742,27.805895,0
85.269793,27.805784,0
85.269849,27.805667,0
85.269882,27.805556,0
85.269957,27.805472,0
85.270055,27.805436,0
85.270188,27.805435,0
85.270292,27.80547,0
85.270447,27.805452,0
85.270558,27.805424,0
85.270683,27.805402,0
85.270791,27.805375,0
85.270895,27.805406,0
85.271002,27.80537,0
85.271113,27.805327,0
85.271209,27.805293,0
85.27133,27.805279,0
85.27144,27.805306,0
85.271562,27.805332,0
85.271663,27.805369,0
85.271776,27.805405,0
85.271906,27.805446,0
85.272037,27.805453,0
85.272144,27.805449,0
85.272253,27.80543,0
85.27241,27.805454,0
85.272516,27.805487,0
85.272629,27.805496,0
85.272731,27.80556,0
85.2728,27.805731,0
85.272806,27.80583,0
85.272825,27.805985,0
85.272873,27.806087,0
85.272952,27.806166,0
85.273031,27.806241,0
85.273143,27.80624,0
85.273249,27.80627,0
85.273394,27.806282,0
85.27351,27.806283,0
85.273603,27.806354,0
85.273677,27.806422,0
85.273766,27.806483,0
85.27391,27.806473,0
85.274004,27.806371,0
85.274088,27.806299,0
85.274191,27.80623,0
85.274281,27.806147,0
85.274373,27.806103,0
85.274462,27.806039,0
85.274585,27.80597,0
85.274692,27.805904,0
85.274778,27.80582,0
85.274834,27.805714,0
85.274839,27.805598,0
85.274778,27.805507,0
85.274753,27.805406,0
85.274678,27.8053,0
85.274575,27.80518,0
85.274541,27.805068,0
85.27447,27.804957,0
85.27442,27.804862,0
85.274366,27.804782,0
85.274339,27.804691,0
85.274352,27.804581,0
85.27438,27.804459,0
85.274389,27.804361,0
85.274357,27.804231,0
85.274289,27.804141,0
85.274202,27.804055,0
85.274111,27.803975,0
85.274037,27.80389,0
85.274004,27.803779,0
85.273993,27.803663,0
85.274003,27.803544,0
85.27406,27.803458,0
85.274161,27.803417,0
85.274273,27.803344,0
85.274344,27.80325,0
85.274401,27.803161,0
85.274453,27.803066,0
85.274479,27.802967,0
85.27448,27.802875,0
85.274509,27.802788,0
85.274602,27.802709,0
85.274696,27.80267,0
85.274776,27.802609,0
85.274835,27.80252,0
85.274816,27.802413,0
85.274773,27.802297,0
85.274738,27.802193,0
85.274621,27.802138,0
85.27452,27.802096,0
85.274417,27.802079,0
85.274305,27.80197,0
85.274219,27.801923,0
85.274116,27.801908,0
85.273963,27.801838,0
85.273844,27.80177,0
85.273672,27.801715,0
85.273518,27.801686,0
85.273393,27.80165,0
85.273257,27.801643,0
85.273145,27.801632,0
85.273041,27.801582,0
85.27295,27.801526,0
85.272847,27.801472,0
85.272752,27.80141,0
85.27264,27.801337,0
85.272538,27.801264,0
85.272475,27.801187,0
85.272443,27.801081,0
85.27246,27.800987,0
85.272474,27.800858,0
85.272496,27.800759,0
85.27245,27.800677,0
85.272342,27.800615,0
85.272234,27.800597,0
85.272132,27.800536,0
85.272015,27.800428,0
85.271928,27.80037,0
85.27178,27.800329,0
85.27168,27.80031,0
85.271586,27.800258,0
85.271556,27.800168,0
85.271452,27.800197,0
85.271412,27.80029,0
85.271465,27.80037,0
85.271536,27.800439,0
85.271434,27.80038,0
85.271533,27.800411,0
85.271441,27.800347,0
85.271522,27.800408,0
85.271361,27.799744,0
85.27136,27.79974,0
85.27135,27.7997,0
85.27134,27.79964,0
85.27133,27.79959,0
85.27131,27.79954,0
85.27127,27.79948,0
85.27123,27.7994,0
85.27115,27.79932,0
85.27106,27.79927,0
85.27104,27.79926,0
85.27094,27.7992,0
85.27087,27.79912,0
85.27081,27.79904,0
85.27074,27.79898,0
85.27068,27.79895,0
85.27062,27.79894,0
85.27054,27.79895,0
85.27048,27.79897,0
85.27046,27.79897,0
85.27042,27.79896,0
85.27039,27.79895,0
85.27035,27.79894,0
85.27029,27.79893,0
85.27023,27.79889,0
85.27015,27.79885,0
85.27007,27.79879,0
85.27,27.79875,0
85.26992,27.79869,0
85.26981,27.79859,0
85.2698,27.79858,0
85.26974,27.79851,0
85.2697,27.79848,0
85.26969,27.79847,0
85.26967,27.79846,0
85.26962,27.79841,0
85.2696,27.79836,0
85.26958,27.79832,0
85.26958,27.79828,0
85.26958,27.79826,0
85.26959,27.79821,0
85.26963,27.79814,0
85.26965,27.79808,0
85.26965,27.79801,0
85.26966,27.79798,0
85.26965,27.79794,0
85.26964,27.79789,0
85.26963,27.79785,0
85.2696,27.79782,0
85.26953,27.79776,0
85.26933,27.79755,0
85.26928,27.79749,0
85.26924,27.79746,0
85.26921,27.79741,0
85.26919,27.79737,0
85.26918,27.79732,0
85.26918,27.79724,0
85.26919,27.79711,0
85.26922,27.79699,0
85.26923,27.79689,0
85.26928,27.79677,0
85.26929,27.79667,0
85.26929,27.79659,0
85.26932,27.79627,0
85.2693,27.79622,0
85.26925,27.79615,0
85.26921,27.79611,0
85.26916,27.79606,0
85.26913,27.79602,0
85.2691,27.79598,0
85.26907,27.79592,0
85.26904,27.79587,0
85.26901,27.79578,0
85.26899,27.7957,0
85.26898,27.79562,0
85.26899,27.79555,0
85.26901,27.79549,0
85.26905,27.79544,0
85.26907,27.79541,0
85.26913,27.79531,0
85.26916,27.79525,0
85.26917,27.79519,0
85.26917,27.7951,0
85.26915,27.79504,0
85.26911,27.79497,0
85.26906,27.7949,0
85.26895,27.79475,0
85.26887,27.79468,0
85.26884,27.79465,0
85.26878,27.79459,0
85.26869,27.79448,0
85.26859,27.79437,0
85.2685,27.79425,0
85.2684,27.79413,0
85.26831,27.79401,0
85.2682,27.79388,0
85.26811,27.79379,0
85.268,27.79368,0
85.26792,27.79357,0
85.26785,27.79348,0
85.26778,27.79338,0
85.26773,27.79331,0
85.2677,27.79325,0
85.26767,27.79318,0
85.26761,27.7931,0
85.26756,27.79305,0
85.26749,27.79301,0
85.2674,27.79298,0
85.26731,27.79298,0
85.26721,27.79298,0
85.26719,27.79298,0
85.26713,27.79298,0
85.26705,27.79298,0
85.26698,27.79296,0
85.26692,27.79293,0
85.26687,27.79289,0
85.26684,27.79283,0
85.2668,27.79271,0
85.26676,27.79259,0
85.26671,27.7925,0
85.26667,27.79246,0
85.26659,27.79242,0
85.2665,27.79239,0
85.26646,27.79235,0
85.26643,27.7923,0
85.26641,27.7922,0
85.26638,27.79212,0
85.26635,27.79207,0
85.26627,27.79202,0
85.2662,27.79199,0
85.26615,27.79195,0
85.26612,27.79191,0
85.26608,27.79187,0
85.26604,27.79177,0
85.26598,27.79166,0
85.26591,27.79156,0
85.26581,27.79144,0
85.26573,27.79133,0
85.2656,27.79117,0
85.26551,27.79108,0
85.2655,27.79108,0
85.26541,27.791,0
85.2654,27.79099,0
85.26536,27.79095,0
85.26532,27.79088,0
85.26528,27.79081,0
85.26525,27.79072,0
85.26524,27.79064,0
85.26526,27.79055,0
85.2653,27.79041,0
85.26534,27.7903,0
85.26538,27.79022,0
85.26544,27.79016,0
85.26551,27.79013,0
85.2656,27.79011,0
85.26571,27.79011,0
85.26582,27.79012,0
85.26593,27.79018,0
85.26601,27.79024,0
85.26612,27.7904,0
85.26616,27.79048,0
85.2662,27.79053,0
85.26622,27.79054,0
85.26625,27.79057,0
85.26631,27.7906,0
85.26641,27.79064,0
85.26652,27.79068,0
85.2666,27.7907,0
85.2667,27.7907,0
85.26679,27.7907,0
85.26686,27.79073,0
85.26694,27.79076,0
85.26704,27.79084,0
85.26712,27.79092,0
85.26718,27.79097,0
85.26728,27.79103,0
85.26736,27.79109,0
85.26743,27.79116,0
85.2675,27.79124,0
85.26759,27.79137,0
85.26762,27.7914,0
85.26766,27.79143,0
85.26769,27.79145,0
85.26774,27.79146,0
85.26778,27.79145,0
85.2678,27.79144,0
85.26785,27.79141,0
85.26791,27.79139,0
85.26796,27.79137,0
85.26801,27.79136,0
85.26802,27.79136,0
85.26804,27.79136,0
85.26811,27.79136,0
85.26813,27.79137,0
85.26818,27.79138,0
85.26823,27.7914,0
85.26831,27.79146,0
85.26845,27.79155,0
85.26853,27.7916,0
85.26862,27.7916,0
85.26868,27.79157,0
85.26874,27.7915,0
85.2688,27.79142,0
85.26887,27.79134,0
85.26894,27.79127,0
85.26903,27.79117,0
85.26911,27.79111,0
85.2692,27.79108,0
85.26931,27.79107,0
85.26939,27.79106,0
85.26942,27.79106,0
85.26952,27.79103,0
85.26962,27.791,0
85.26975,27.79095,0
85.26988,27.7909,0
85.26999,27.7909,0
85.27003,27.79093,0
85.27007,27.79096,0
85.27009,27.79104,0
85.27008,27.79112,0
85.27002,27.79122,0
85.26994,27.79134,0
85.26992,27.79144,0
85.26997,27.79151,0
85.27006,27.79154,0
85.27017,27.79154,0
85.27026,27.79152,0
85.27035,27.79147,0
85.27045,27.7914,0
85.27056,27.79131,0
85.27067,27.79125,0
85.2708,27.7912,0
85.27092,27.79114,0
85.27103,27.79111,0
85.27112,27.79112,0
85.2712,27.79115,0
85.27129,27.79119,0
85.27136,27.79127,0
85.27143,27.79133,0
85.27151,27.79134,0
85.27159,27.79133,0
85.27165,27.79131,0
85.27169,27.79126,0
85.27176,27.79123,0
85.27179,27.79122,0
85.27183,27.79121,0
85.27187,27.79121,0
85.27191,27.79122,0
85.27193,27.79123,0
85.27195,27.79124,0
85.27198,27.79125,0
85.27219,27.79143,0
85.27227,27.79147,0
85.27231,27.79149,0
85.27241,27.79153,0
85.2725,27.79158,0
85.27259,27.79165,0
85.27267,27.79173,0
85.27276,27.79184,0
85.27287,27.79198,0
85.27294,27.79207,0
85.27304,27.79217,0
85.27311,27.79223,0
85.27318,27.79227,0
85.27322,27.79228,0
85.27326,27.79229,0
85.27332,27.79229,0
85.27337,27.79229,0
85.27341,27.79228,0
85.27357,27.79224,0
85.27388,27.79214,0
85.27397,27.79213,0
85.27401,27.79213,0
85.27404,27.79215,0
85.27407,27.79217,0
85.27413,27.79221,0
85.27416,27.79223,0
85.27422,27.79229,0
85.27425,27.79231,0
85.27428,27.79233,0
85.27431,27.79233,0
85.27433,27.79234,0
85.27438,27.79234,0
85.27443,27.79234,0
85.27446,27.79234,0
85.2745,27.79233,0
85.2747,27.79229,0
85.2748,27.79228,0
85.27487,27.79229,0
85.27491,27.7923,0
85.27495,27.79232,0
85.27505,27.79239,0
85.2751,27.79244,0
85.27513,27.79248,0
85.27517,27.79256,0
85.27521,27.79273,0
85.27523,27.79294,0
85.27526,27.79306,0
85.27528,27.7931,0
85.27529,27.79312,0
85.27531,27.79314,0
85.27532,27.79315,0
85.27535,27.79317,0
85.27545,27.79322,0
85.27554,27.79326,0
85.27563,27.79328,0
85.2757,27.79331,0
85.27574,27.79331,0
85.27577,27.79331,0
85.27579,27.79331,0
85.27582,27.79331,0
85.27585,27.7933,0
85.27587,27.7933,0
85.27589,27.79329,0
85.27591,27.79328,0
85.27601,27.79317,0
85.27606,27.79312,0
85.27608,27.79311,0
85.2761,27.79309,0
85.27612,27.79308,0
85.27615,27.79307,0
85.27618,27.79307,0
85.27625,27.79306,0
85.27637,27.79307,0
85.2764,27.79307,0
85.27644,27.79308,0
85.27647,27.79308,0
85.27653,27.7931,0
85.27657,27.79312,0
85.27673,27.7932,0
85.27685,27.79326,0
85.27688,27.79327,0
85.27692,27.79328,0
85.27694,27.79328,0
85.27699,27.79328,0
85.27702,27.79328,0
85.27706,27.79328,0
85.27722,27.79324,0
85.27733,27.79322,0
85.27738,27.79322,0
85.27742,27.79322,0
85.27746,27.79322,0
85.2775,27.79322,0
85.27754,27.79323,0
85.27758,27.79325,0
85.27761,27.79326,0
85.27764,27.7933,0
85.27765,27.79333,0
85.27766,27.79336,0
85.27767,27.79339,0
85.27769,27.79341,0
85.2777,27.79344,0
85.27773,27.79346,0
85.27774,27.79348,0
85.27777,27.79349,0
85.27779,27.79351,0
85.27783,27.79352,0
85.27789,27.79353,0
85.27799,27.79344,0
85.2781,27.79335,0
85.27813,27.79332,0
85.27816,27.7933,0
85.27819,27.79329,0
85.27822,27.79329,0
85.27833,27.79328,0
85.27837,27.79327,0
85.27841,27.79327,0
85.27844,27.79326,0
85.27846,27.79325,0
85.27849,27.79322,0
85.27852,27.7932,0
85.27854,27.79319,0
85.27855,27.79317,0
85.27856,27.79314,0
85.27856,27.79312,0
85.27855,27.79308,0
85.2785,27.79296,0
85.27846,27.79287,0
85.27842,27.79275,0
85.2784,27.79268,0
85.27838,27.79263,0
85.27836,27.79257,0
85.27836,27.79253,0
85.27835,27.79247,0
85.27835,27.79243,0
85.27836,27.79237,0
85.27836,27.79231,0
85.27835,27.79229,0
85.27834,27.79226,0
85.2783,27.79221,0
85.2782,27.79213,0
85.27809,27.79204,0
85.27805,27.792,0
85.27802,27.79196,0
85.27799,27.79193,0
85.27797,27.7919,0
85.27793,27.7918,0
85.27789,27.79172,0
85.27786,27.79165,0
85.27782,27.79159,0
85.27779,27.79155,0
85.27776,27.79152,0
85.27769,27.79146,0
85.27753,27.79133,0
85.2773,27.79107,0
85.277,27.79073,0
85.27691,27.79057,0
85.27687,27.79046,0
85.27687,27.79041,0
85.27686,27.79035,0
85.27686,27.79029,0
85.27686,27.79022,0
85.27687,27.79017,0
85.27688,27.79013,0
85.27694,27.79,0
85.27697,27.78986,0
85.2769,27.78975,0
85.27685,27.78967,0
85.27683,27.78964,0
85.27682,27.7896,0
85.27682,27.78957,0
85.27682,27.78954,0
85.27683,27.78943,0
85.27688,27.78919,0
85.27692,27.78899,0
85.27696,27.78886,0
85.27697,27.78881,0
85.27697,27.78876,0
85.27696,27.78869,0
85.27691,27.78853,0
85.27687,27.78843,0
85.27684,27.78835,0
85.27678,27.78827,0
85.27662,27.78809,0
85.27653,27.788,0
85.27644,27.78789,0
85.27641,27.78786,0
85.2764,27.78783,0
85.27638,27.7878,0
85.27636,27.78762,0
85.27632,27.7874,0
85.27631,27.78733,0
85.2763,27.78728,0
85.27631,27.78725,0
85.27632,27.78716,0
85.27639,27.787,0
85.27645,27.78686,0
85.27645,27.7868,0
85.27645,27.78676,0
85.27645,27.78671,0
85.27644,27.78668,0
85.27641,27.78664,0
85.27639,27.78659,0
85.27636,27.78654,0
85.27636,27.7865,0
85.27636,27.78646,0
85.27637,27.78642,0
85.27639,27.78637,0
85.27641,27.78632,0
85.27647,27.78619,0
85.27651,27.78601,0
85.27655,27.78584,0
85.27658,27.78572,0
85.27658,27.78569,0
85.27659,27.78566,0
85.27659,27.78563,0
85.27659,27.7856,0
85.27657,27.78557,0
85.27655,27.78555,0
85.2765,27.78551,0
85.27647,27.78549,0
85.2763,27.78545,0
85.27598,27.78529,0
85.27575,27.7852,0
85.27529,27.78505,0
85.27513,27.78501,0
85.27494,27.78498,0
85.27484,27.78495,0
85.27479,27.78494,0
85.27474,27.78491,0
85.2747,27.78489,0
85.27469,27.78487,0
85.27467,27.78485,0
85.27465,27.78483,0
85.2746,27.78474,0
85.27452,27.78459,0
85.27451,27.78455,0
85.27446,27.78438,0
85.27446,27.78435,0
85.27446,27.78432,0
85.27448,27.78428,0
85.27448,27.78424,0
85.27449,27.7842,0
85.27449,27.78415,0
85.27447,27.78408,0
85.27446,27.78404,0
85.27438,27.78389,0
85.27431,27.78375,0
85.27425,27.78367,0
85.27419,27.7836,0
85.27398,27.7833,0
85.2739,27.78315,0
85.27387,27.78311,0
85.27384,27.78309,0
85.27382,27.78307,0
85.27377,27.78304,0
85.27373,27.78302,0
85.27368,27.78299,0
85.27365,27.78297,0
85.27361,27.78294,0
85.27358,27.78292,0
85.27357,27.78291,0
85.27355,27.78286,0
85.27354,27.78284,0
85.27354,27.78281,0
85.27354,27.78279,0
85.27355,27.78275,0
85.27362,27.78258,0
85.2737,27.78235,0
85.27374,27.78227,0
85.27377,27.7822,0
85.27378,27.78217,0
85.27377,27.78212,0
85.27377,27.78208,0
85.27375,27.78204,0
85.27373,27.782,0
85.2737,27.78197,0
85.27367,27.78194,0
85.27363,27.7819,0
85.27358,27.78186,0
85.27354,27.78183,0
85.27348,27.78179,0
85.27343,27.78173,0
85.2734,27.78169,0
85.27339,27.78167,0
85.27339,27.78165,0
85.27339,27.78164,0
85.27339,27.78161,0
85.27339,27.78154,0
85.2734,27.7815,0
85.27341,27.78147,0
85.27344,27.78143,0
85.27347,27.78141,0
85.27352,27.78138,0
85.27353,27.78137,0
85.27362,27.78134,0
85.27365,27.78133,0
85.27369,27.78131,0
85.27371,27.7813,0
85.27373,27.78128,0
85.27375,27.78126,0
85.27377,27.78123,0
85.27381,27.78118,0
85.27391,27.78101,0
85.27402,27.7809,0
85.27405,27.78087,0
85.27409,27.78085,0
85.27412,27.78084,0
85.27417,27.78083,0
85.27421,27.78083,0
85.27426,27.78083,0
85.27431,27.78085,0
85.27437,27.78088,0
85.27441,27.78091,0
85.27449,27.78101,0
85.2745,27.78102,0
85.27452,27.78105,0
85.27455,27.78107,0
85.27457,27.78109,0
85.2746,27.78109,0
85.27463,27.7811,0
85.27466,27.7811,0
85.27468,27.78109,0
85.2747,27.78108,0
85.27471,27.78106,0
85.27472,27.78104,0
85.27474,27.78101,0
85.27476,27.78097,0
85.2748,27.78094,0
85.27483,27.78091,0
85.27489,27.78088,0
85.27497,27.78084,0
85.27503,27.7808,0
85.27508,27.78076,0
85.27518,27.78062,0
85.27521,27.78058,0
85.27524,27.78055,0
85.27527,27.78052,0
85.27531,27.7805,0
85.27536,27.78047,0
85.27539,27.78046,0
85.27548,27.78042,0
85.27552,27.7804,0
85.27554,27.78038,0
85.27555,27.78037,0
85.27556,27.78034,0
85.27557,27.78032,0
85.27557,27.7803,0
85.27557,27.78029,0
85.27557,27.78026,0
85.27557,27.78023,0
85.27553,27.78003,0
85.27548,27.77982,0
85.27544,27.77966,0
85.27543,27.77964,0
85.27542,27.7796,0
85.2754,27.77955,0
85.27537,27.7795,0
85.27535,27.77947,0
85.27533,27.77944,0
85.27529,27.77937,0
85.27526,27.7793,0
85.27525,27.77926,0
85.27524,27.77922,0
85.27525,27.77914,0
85.27526,27.77904,0
85.27527,27.779,0
85.27528,27.77897,0
85.27529,27.77894,0
85.27531,27.77891,0
85.27532,27.77889,0
85.27534,27.77887,0
85.27536,27.77884,0
85.27539,27.77883,0
85.27545,27.7788,0
85.2755,27.77879,0
85.2756,27.77877,0
85.27568,27.77876,0
85.27574,27.77875,0
85.2758,27.77874,0
85.27585,27.77874,0
85.2759,27.77873,0
85.27593,27.77873,0
85.27597,27.77874,0
85.27599,27.77874,0
85.27601,27.77875,0
85.27607,27.77877,0
85.27614,27.77883,0
85.27618,27.77886,0
85.27622,27.77889,0
85.27628,27.77892,0
85.27634,27.77893,0
85.27638,27.77895,0
85.27641,27.77895,0
85.27647,27.77895,0
85.27651,27.77894,0
85.27653,27.77892,0
85.27655,27.77891,0
85.27657,27.77888,0
85.27658,27.77885,0
85.27659,27.77882,0
85.2766,27.77868,0
85.2766,27.77864,0
85.2766,27.77862,0
85.27661,27.77858,0
85.27662,27.77853,0
85.27664,27.77849,0
85.27666,27.77846,0
85.27667,27.77843,0
85.27669,27.77842,0
85.27671,27.77841,0
85.27674,27.77839,0
85.27677,27.77838,0
85.27681,27.77838,0
85.27685,27.77838,0
85.27689,27.77837,0
85.27699,27.77838,0
85.27704,27.77837,0
85.27707,27.77836,0
85.2771,27.77834,0
85.27712,27.77831,0
85.27715,27.77825,0
85.27717,27.77818,0
85.27719,27.77812,0
85.27722,27.77806,0
85.27726,27.77802,0
85.27729,27.77799,0
85.27735,27.77797,0
85.2774,27.77796,0
85.27748,27.77797,0
85.27754,27.77799,0
85.27763,27.77802,0
85.27768,27.77804,0
85.27773,27.77805,0
85.27778,27.77804,0
85.27781,27.77804,0
85.27783,27.77802,0
85.27785,27.77801,0
85.27786,27.77799,0
85.27787,27.77797,0
85.27787,27.77794,0
85.27787,27.77791,0
85.27784,27.77757,0
85.27783,27.77737,0
85.27791,27.77729,0
85.27799,27.77724,0
85.27804,27.77721,0
85.27809,27.77719,0
85.27812,27.77717,0
85.27815,27.77714,0
85.27817,27.77713,0
85.2782,27.7771,0
85.27821,27.77707,0
85.27822,27.77706,0
85.27822,27.777,0
85.2782,27.77689,0
85.27817,27.77676,0
85.27816,27.77674,0
85.27815,27.77671,0
85.27813,27.77669,0
85.27811,27.77667,0
85.278074,27.776649,0
85.27807,27.77665,0
85.27811,27.77661,0
85.278174,27.776569,0
</coordinates>
</LineString>
</Placemark>
<Placemark>
<name/>
<styleUrl>#line-F0F000-2000-nodesc</styleUrl>
<LineString>
<tessellate>1</tessellate>
<coordinates>
85.239554,27.832243,0
85.239648,27.832253,0
85.239779,27.832274,0
85.239921,27.832266,0
85.240067,27.832314,0
85.240182,27.832352,0
85.240287,27.832373,0
85.240408,27.832434,0
85.240518,27.83238,0
85.240643,27.832361,0
85.240773,27.83235,0
85.240896,27.832313,0
85.240998,27.832292,0
85.241065,27.832183,0
85.24106,27.832071,0
85.2411,27.831986,0
85.241191,27.831878,0
85.241262,27.831807,0
85.241344,27.831749,0
85.241441,27.831692,0
85.241549,27.831625,0
85.241647,27.831521,0
85.241701,27.831368,0
85.241758,27.831197,0
85.241825,27.831059,0
85.241936,27.830958,0
85.242035,27.830859,0
85.24208,27.830729,0
85.242129,27.830601,0
85.242206,27.830471,0
85.242283,27.830346,0
85.242347,27.830253,0
85.242397,27.830139,0
85.242446,27.830018,0
85.242485,27.82988,0
85.242503,27.829743,0
85.242487,27.829592,0
85.242461,27.829454,0
85.242354,27.829336,0
85.242255,27.829228,0
85.24216,27.829149,0
85.242146,27.829047,0
85.242163,27.828928,0
85.242191,27.828791,0
85.242197,27.828673,0
85.24224,27.828569,0
85.24232,27.828508,0
85.242427,27.828496,0
85.242571,27.828515,0
85.24273,27.828525,0
85.242891,27.828537,0
85.243028,27.82853,0
85.243148,27.828473,0
85.243266,27.828378,0
85.243354,27.828264,0
85.243413,27.828134,0
85.243429,27.827993,0
85.243414,27.827862,0
85.243393,27.827756,0
85.243385,27.827645,0
85.243368,27.82752,0
85.243304,27.827401,0
85.24331,27.827302,0
85.243347,27.827215,0
85.243452,27.827135,0
85.243561,27.827098,0
85.243693,27.827042,0
85.24368,27.826919,0
85.243558,27.826847,0
85.243433,27.82678,0
85.243317,27.826695,0
85.243208,27.826621,0
85.243135,27.826533,0
85.243097,27.826426,0
85.243078,27.826294,0
85.24314,27.826203,0
85.243263,27.82615,0
85.243311,27.826032,0
85.243408,27.825985,0
85.243543,27.825882,0
85.243658,27.825843,0
85.243772,27.825829,0
85.24384,27.825748,0
85.243861,27.825659,0
85.243821,27.825533,0
85.243758,27.825442,0
85.243695,27.825367,0
85.243605,27.825294,0
85.243522,27.825223,0
85.243404,27.825136,0
85.243335,27.825066,0
85.24328,27.824985,0
85.243322,27.824889,0
85.243315,27.824773,0
85.243283,27.824662,0
85.24324,27.824544,0
85.243203,27.824416,0
85.243151,27.824323,0
85.243092,27.824226,0
85.243116,27.824133,0
85.243135,27.824034,0
85.243199,27.82396,0
85.243316,27.823949,0
85.243397,27.823848,0
85.243473,27.823773,0
85.243567,27.823709,0
85.243676,27.82366,0
85.243756,27.823596,0
85.243908,27.823606,0
85.244032,27.823582,0
85.244135,27.823505,0
85.244198,27.823431,0
85.24426,27.823326,0
85.244237,27.823205,0
85.244216,27.823091,0
85.244212,27.822996,0
85.244202,27.822851,0
85.244209,27.822731,0
85.244231,27.82263,0
85.244214,27.822506,0
85.244202,27.822385,0
85.24418,27.822289,0
85.244176,27.822196,0
85.244126,27.822113,0
85.244099,27.822005,0
85.244073,27.8219,0
85.244071,27.8218,0
85.244075,27.821681,0
85.244099,27.82156,0
85.244138,27.821456,0
85.244117,27.8213,0
85.244098,27.821155,0
85.244058,27.821022,0
85.244093,27.820926,0
85.244122,27.820803,0
85.244202,27.820671,0
85.244279,27.820569,0
85.244328,27.820438,0
85.244374,27.820301,0
85.244387,27.820202,0
85.244422,27.820072,0
85.244432,27.819959,0
85.244427,27.819847,0
85.244461,27.819708,0
85.244455,27.8196,0
85.244435,27.819478,0
85.244382,27.819378,0
85.244301,27.819252,0
85.244182,27.819151,0
85.244123,27.819034,0
85.244056,27.818964,0
85.243981,27.818821,0
85.243957,27.818724,0
85.24387,27.818623,0
85.243958,27.818551,0
85.244066,27.818503,0
85.244243,27.818485,0
85.244301,27.818406,0
85.244358,27.8183,0
85.244378,27.818196,0
85.244449,27.818106,0
85.244537,27.818021,0
85.244616,27.817962,0
85.244697,27.817854,0
85.244759,27.817766,0
85.244826,27.817586,0
85.244728,27.817473,0
85.244634,27.817521,0
85.244683,27.817466,0
85.244795,27.817463,0
85.244908,27.817439,0
85.245057,27.817387,0
85.245195,27.817328,0
85.245289,27.817278,0
85.245403,27.81726,0
85.24553,27.817231,0
85.245607,27.817125,0
85.245586,27.817014,0
85.245515,27.81694,0
85.245486,27.816816,0
85.24555,27.816709,0
85.245661,27.816606,0
85.245758,27.81653,0
85.245833,27.816466,0
85.245873,27.816361,0
85.245904,27.816246,0
85.246059,27.816203,0
85.246148,27.816148,0
85.246225,27.816023,0
85.246288,27.815938,0
85.246431,27.815876,0
85.246562,27.815668,0
85.246588,27.815572,0
85.24666,27.815452,0
85.246716,27.81534,0
85.246785,27.815242,0
85.246897,27.815216,0
85.246986,27.815141,0
85.24709,27.815032,0
85.24715,27.814953,0
85.247189,27.815048,0
85.247311,27.814992,0
85.247497,27.815043,0
85.247383,27.815027,0
85.247525,27.815024,0
85.24758,27.814977,0
</coordinates>
</LineString>
</Placemark>
</Folder>
</Document>
</kml>
