<?xml version="1.0" encoding="UTF-8"?>
<kml xmlns="http://www.opengis.net/kml/2.2">
<Document>
<name>WNW_5.Jhyampal fall</name>
<description/>
<Style id="icon-1899-DB4436-normal">
<IconStyle>
<color>ff3644db</color>
<scale>1</scale>
<Icon>
<href>https://www.gstatic.com/mapspro/images/stock/503-wht-blank_maps.png</href>
</Icon>
<hotSpot x="32" xunits="pixels" y="64" yunits="insetPixels"/>
</IconStyle>
<LabelStyle>
<scale>0</scale>
</LabelStyle>
</Style>
<Style id="icon-1899-DB4436-highlight">
<IconStyle>
<color>ff3644db</color>
<scale>1</scale>
<Icon>
<href>https://www.gstatic.com/mapspro/images/stock/503-wht-blank_maps.png</href>
</Icon>
<hotSpot x="32" xunits="pixels" y="64" yunits="insetPixels"/>
</IconStyle>
<LabelStyle>
<scale>1</scale>
</LabelStyle>
</Style>
<StyleMap id="icon-1899-DB4436">
<Pair>
<key>normal</key>
<styleUrl>#icon-1899-DB4436-normal</styleUrl>
</Pair>
<Pair>
<key>highlight</key>
<styleUrl>#icon-1899-DB4436-highlight</styleUrl>
</Pair>
</StyleMap>
<Style id="icon-1899-DB4436-nodesc-normal">
<IconStyle>
<color>ff3644db</color>
<scale>1</scale>
<Icon>
<href>https://www.gstatic.com/mapspro/images/stock/503-wht-blank_maps.png</href>
</Icon>
<hotSpot x="32" xunits="pixels" y="64" yunits="insetPixels"/>
</IconStyle>
<LabelStyle>
<scale>0</scale>
</LabelStyle>
<BalloonStyle>
<text><![CDATA[<h3>$[name]</h3>]]></text>
</BalloonStyle>
</Style>
<Style id="icon-1899-DB4436-nodesc-highlight">
<IconStyle>
<color>ff3644db</color>
<scale>1</scale>
<Icon>
<href>https://www.gstatic.com/mapspro/images/stock/503-wht-blank_maps.png</href>
</Icon>
<hotSpot x="32" xunits="pixels" y="64" yunits="insetPixels"/>
</IconStyle>
<LabelStyle>
<scale>1</scale>
</LabelStyle>
<BalloonStyle>
<text><![CDATA[<h3>$[name]</h3>]]></text>
</BalloonStyle>
</Style>
<StyleMap id="icon-1899-DB4436-nodesc">
<Pair>
<key>normal</key>
<styleUrl>#icon-1899-DB4436-nodesc-normal</styleUrl>
</Pair>
<Pair>
<key>highlight</key>
<styleUrl>#icon-1899-DB4436-nodesc-highlight</styleUrl>
</Pair>
</StyleMap>
<Style id="line-FF0000-2000-nodesc-normal">
<LineStyle>
<color>ff0000ff</color>
<width>2</width>
</LineStyle>
<BalloonStyle>
<text><![CDATA[<h3>$[name]</h3>]]></text>
</BalloonStyle>
</Style>
<Style id="line-FF0000-2000-nodesc-highlight">
<LineStyle>
<color>ff0000ff</color>
<width>3</width>
</LineStyle>
<BalloonStyle>
<text><![CDATA[<h3>$[name]</h3>]]></text>
</BalloonStyle>
</Style>
<StyleMap id="line-FF0000-2000-nodesc">
<Pair>
<key>normal</key>
<styleUrl>#line-FF0000-2000-nodesc-normal</styleUrl>
</Pair>
<Pair>
<key>highlight</key>
<styleUrl>#line-FF0000-2000-nodesc-highlight</styleUrl>
</Pair>
</StyleMap>
<Folder>
<name>Jhyampal waterfall</name>
<Placemark>
<name>Swana Gaun</name>
<description>Swana Gaun Restaurant, Q68X+FP, Chhatre Deurali 45100, Nepal</description>
<styleUrl>#icon-1899-DB4436</styleUrl>
<Point>
<coordinates>
85.249291,27.766144,0
</coordinates>
</Point>
</Placemark>
<Placemark>
<name>Q66R 5Q6 Jhyampal falls</name>
<description>Jhyampal falls, Q66R+5Q6, Chhatre Deurali 45100, Nepal</description>
<styleUrl>#icon-1899-DB4436</styleUrl>
<Point>
<coordinates>
85.241881,27.76042,0
</coordinates>
</Point>
</Placemark>
<Placemark>
<name>Bypass</name>
<description>Bypass, P8P2+MV7, Kathmandu 44600, Nepal</description>
<styleUrl>#icon-1899-DB4436</styleUrl>
<Point>
<coordinates>
85.30216,27.736656,0
</coordinates>
</Point>
</Placemark>
<Placemark>
<name>Q75C C4J Police Check Post</name>
<description>Police Check Post, Q75C+C4J, Trishuli Hwy, Tarakeshwar 44600, Nepal</description>
<styleUrl>#icon-1899-DB4436</styleUrl>
<Point>
<coordinates>
85.270278,27.758577,0
</coordinates>
</Point>
</Placemark>
<Placemark>
<name>00</name>
<styleUrl>#icon-1899-DB4436-nodesc</styleUrl>
<Point>
<coordinates>
85.302151,27.736616,0
</coordinates>
</Point>
</Placemark>
<Placemark>
<name>01</name>
<styleUrl>#icon-1899-DB4436-nodesc</styleUrl>
<Point>
<coordinates>
85.29556,27.742895,0
</coordinates>
</Point>
</Placemark>
<Placemark>
<name>02</name>
<styleUrl>#icon-1899-DB4436-nodesc</styleUrl>
<Point>
<coordinates>
85.289248,27.749236,0
</coordinates>
</Point>
</Placemark>
<Placemark>
<name>03</name>
<styleUrl>#icon-1899-DB4436-nodesc</styleUrl>
<Point>
<coordinates>
85.2813,27.753929,0
</coordinates>
</Point>
</Placemark>
<Placemark>
<name>04</name>
<styleUrl>#icon-1899-DB4436-nodesc</styleUrl>
<Point>
<coordinates>
85.273219,27.757991,0
</coordinates>
</Point>
</Placemark>
<Placemark>
<name>05</name>
<styleUrl>#icon-1899-DB4436-nodesc</styleUrl>
<Point>
<coordinates>
85.265059,27.759565,0
</coordinates>
</Point>
</Placemark>
<Placemark>
<name>06</name>
<styleUrl>#icon-1899-DB4436-nodesc</styleUrl>
<Point>
<coordinates>
85.262377,27.757847,0
</coordinates>
</Point>
</Placemark>
<Placemark>
<name>08</name>
<styleUrl>#icon-1899-DB4436-nodesc</styleUrl>
<Point>
<coordinates>
85.253311,27.762976,0
</coordinates>
</Point>
</Placemark>
<Placemark>
<name>07</name>
<styleUrl>#icon-1899-DB4436-nodesc</styleUrl>
<Point>
<coordinates>
85.257852,27.757813,0
</coordinates>
</Point>
</Placemark>
<Placemark>
<name>09</name>
<styleUrl>#icon-1899-DB4436-nodesc</styleUrl>
<Point>
<coordinates>
85.247685,27.766874,0
</coordinates>
</Point>
</Placemark>
<Placemark>
<name>11</name>
<styleUrl>#icon-1899-DB4436-nodesc</styleUrl>
<Point>
<coordinates>
85.242109,27.761159,0
</coordinates>
</Point>
</Placemark>
<Placemark>
<name>10</name>
<styleUrl>#icon-1899-DB4436-nodesc</styleUrl>
<Point>
<coordinates>
85.245425,27.76299,0
</coordinates>
</Point>
</Placemark>
</Folder>
<Folder>
<name>LineStrings</name>
<Placemark>
<name>Bypass to Q75C C4J Police Check Post</name>
<styleUrl>#line-FF0000-2000-nodesc</styleUrl>
<LineString>
<tessellate>1</tessellate>
<coordinates>
85.3021866,27.7367795,0
85.30179,27.73668,0
85.30179,27.736682,0
85.30178,27.73672,0
85.30176,27.73675,0
85.30172,27.73678,0
85.30169,27.73681,0
85.30166,27.73685,0
85.30164,27.73689,0
85.30156,27.73713,0
85.30149,27.73734,0
85.3014,27.7375,0
85.30131,27.73764,0
85.30114,27.73784,0
85.30098,27.73808,0
85.30086,27.73829,0
85.30066,27.73872,0
85.30064,27.73874,0
85.30055,27.73887,0
85.30037,27.73913,0
85.30008,27.73949,0
85.30008,27.7395,0
85.29987,27.73985,0
85.29966,27.74015,0
85.29956,27.74027,0
85.29944,27.74041,0
85.29906,27.74083,0
85.29887,27.74105,0
85.29856,27.74128,0
85.29833,27.74145,0
85.29826,27.7415,0
85.29825,27.74151,0
85.29798,27.74162,0
85.29795,27.74164,0
85.29788,27.74165,0
85.29765,27.74171,0
85.29722,27.74187,0
85.29712,27.74191,0
85.29684,27.74201,0
85.2967,27.74206,0
85.29655,27.74211,0
85.2965,27.74213,0
85.29635,27.74219,0
85.29621,27.74227,0
85.29616,27.74231,0
85.29604,27.7424,0
85.29601,27.74243,0
85.29597,27.74246,0
85.29594,27.74248,0
85.29585,27.74254,0
85.29581,27.74258,0
85.29572,27.74268,0
85.29569,27.74271,0
85.29568,27.74272,0
85.29567,27.74273,0
85.29561,27.74283,0
85.29557,27.74288,0
85.2955,27.74298,0
85.2955,27.74299,0
85.29549,27.74302,0
85.29546,27.74308,0
85.29544,27.7432,0
85.29542,27.74331,0
85.29542,27.74342,0
85.29543,27.7435,0
85.29545,27.74361,0
85.29545,27.74372,0
85.29543,27.74378,0
85.29543,27.7438,0
85.2954,27.74387,0
85.29537,27.74394,0
85.29531,27.744,0
85.29525,27.74405,0
85.29519,27.7441,0
85.29517,27.74413,0
85.29515,27.74418,0
85.29514,27.74423,0
85.29511,27.74432,0
85.2951,27.74441,0
85.29508,27.74449,0
85.29505,27.74464,0
85.295,27.74473,0
85.29496,27.74482,0
85.29476,27.74516,0
85.29465,27.74538,0
85.29459,27.74547,0
85.29455,27.74553,0
85.29451,27.74559,0
85.2944,27.74572,0
85.29431,27.74582,0
85.29414,27.74601,0
85.29403,27.74613,0
85.29378,27.74636,0
85.29365,27.74644,0
85.29343,27.74653,0
85.29322,27.74663,0
85.29292,27.74671,0
85.29286,27.74672,0
85.29266,27.74677,0
85.29248,27.74681,0
85.29228,27.74689,0
85.29216,27.74697,0
85.29207,27.74705,0
85.29198,27.74713,0
85.29187,27.74723,0
85.29185,27.74724,0
85.29173,27.74731,0
85.29155,27.74742,0
85.29134,27.74753,0
85.2911,27.74768,0
85.29099,27.74776,0
85.29093,27.7478,0
85.29089,27.74783,0
85.29086,27.74785,0
85.29084,27.74788,0
85.29082,27.74789,0
85.29079,27.74793,0
85.29075,27.74798,0
85.29072,27.74802,0
85.29068,27.74808,0
85.29063,27.74816,0
85.29053,27.74825,0
85.29025,27.7485,0
85.29024,27.74851,0
85.29019,27.74857,0
85.28998,27.74879,0
85.28989,27.74887,0
85.28976,27.74896,0
85.28965,27.74901,0
85.28945,27.74913,0
85.28931,27.74921,0
85.28926,27.74923,0
85.2892,27.74926,0
85.28885,27.74942,0
85.2887,27.7495,0
85.2886,27.74955,0
85.28851,27.74959,0
85.28836,27.7497,0
85.28834,27.74972,0
85.28832,27.74974,0
85.2883,27.74976,0
85.28828,27.74979,0
85.28826,27.74982,0
85.28824,27.74985,0
85.28821,27.74988,0
85.28818,27.74992,0
85.28816,27.74994,0
85.2881,27.75,0
85.28807,27.75002,0
85.28798,27.75009,0
85.28789,27.75016,0
85.2877,27.75028,0
85.28756,27.7504,0
85.28747,27.75045,0
85.28742,27.75048,0
85.28734,27.75052,0
85.28716,27.75059,0
85.28711,27.75062,0
85.28688,27.75078,0
85.28683,27.75081,0
85.28677,27.75087,0
85.28662,27.751,0
85.28659,27.75103,0
85.28652,27.75109,0
85.28642,27.75117,0
85.28629,27.75127,0
85.28619,27.75136,0
85.28605,27.75147,0
85.28594,27.75155,0
85.28587,27.75161,0
85.28579,27.75167,0
85.28567,27.75175,0
85.28562,27.75179,0
85.28548,27.75187,0
85.28533,27.75195,0
85.28523,27.75199,0
85.28514,27.75202,0
85.2851,27.75203,0
85.28505,27.75203,0
85.28498,27.75203,0
85.28494,27.75203,0
85.28488,27.75202,0
85.28484,27.75202,0
85.28474,27.752,0
85.28467,27.75199,0
85.28464,27.75198,0
85.28452,27.75198,0
85.28424,27.75199,0
85.28421,27.75199,0
85.28418,27.75199,0
85.28412,27.75199,0
85.28406,27.75199,0
85.28393,27.75198,0
85.28387,27.75199,0
85.28381,27.75201,0
85.2838,27.75202,0
85.28377,27.75204,0
85.2837,27.75211,0
85.28369,27.75215,0
85.28363,27.75231,0
85.28363,27.75233,0
85.28357,27.75248,0
85.28353,27.75258,0
85.28348,27.75266,0
85.28344,27.75274,0
85.28342,27.75276,0
85.28339,27.75279,0
85.28336,27.75281,0
85.28326,27.75287,0
85.2831,27.75297,0
85.28291,27.75305,0
85.28285,27.75308,0
85.28282,27.75309,0
85.2828,27.75309,0
85.28278,27.75309,0
85.28275,27.75309,0
85.28273,27.75309,0
85.28266,27.75309,0
85.28261,27.75309,0
85.28255,27.75309,0
85.2825,27.75311,0
85.28245,27.75313,0
85.28241,27.75317,0
85.28237,27.75323,0
85.28235,27.75327,0
85.28233,27.75331,0
85.28229,27.75336,0
85.28224,27.75339,0
85.28221,27.75341,0
85.28219,27.75342,0
85.28213,27.75345,0
85.28195,27.75353,0
85.28171,27.75362,0
85.28163,27.75365,0
85.28156,27.75367,0
85.2815,27.75368,0
85.28145,27.75371,0
85.2814,27.75374,0
85.28137,27.75378,0
85.28135,27.75381,0
85.2813,27.75393,0
85.28129,27.75394,0
85.28127,27.75397,0
85.28125,27.754,0
85.28123,27.75404,0
85.28121,27.75407,0
85.28118,27.75411,0
85.28115,27.75415,0
85.28112,27.75418,0
85.28104,27.75424,0
85.28088,27.75435,0
85.28073,27.75447,0
85.28052,27.7547,0
85.28036,27.75485,0
85.2803,27.7549,0
85.28022,27.75494,0
85.28013,27.75499,0
85.27997,27.75505,0
85.27972,27.75517,0
85.27966,27.75519,0
85.27963,27.75519,0
85.27961,27.75519,0
85.27957,27.75518,0
85.27946,27.75516,0
85.27944,27.75515,0
85.27941,27.75514,0
85.27938,27.75512,0
85.27925,27.75499,0
85.27922,27.75498,0
85.27919,27.75497,0
85.27918,27.75496,0
85.27915,27.75496,0
85.27913,27.75496,0
85.27911,27.75497,0
85.27908,27.75497,0
85.27906,27.75498,0
85.27902,27.75499,0
85.27887,27.75506,0
85.2788,27.75511,0
85.27876,27.75514,0
85.2787,27.75521,0
85.27864,27.75528,0
85.27862,27.7553,0
85.27855,27.75538,0
85.27852,27.75542,0
85.2785,27.75543,0
85.27848,27.75544,0
85.27846,27.75545,0
85.27844,27.75545,0
85.2784,27.75545,0
85.27836,27.75545,0
85.27832,27.75544,0
85.27829,27.75543,0
85.27826,27.75542,0
85.27824,27.75542,0
85.2782,27.75542,0
85.27815,27.75543,0
85.27807,27.7555,0
85.27794,27.75565,0
85.27791,27.75568,0
85.27772,27.75589,0
85.2776,27.75596,0
85.27756,27.75598,0
85.27753,27.75599,0
85.27749,27.75599,0
85.27746,27.75599,0
85.27743,27.75598,0
85.2774,27.75597,0
85.27736,27.75594,0
85.27732,27.75592,0
85.27729,27.7559,0
85.27723,27.75588,0
85.27719,27.75587,0
85.27715,27.75587,0
85.27711,27.75587,0
85.27708,27.75588,0
85.27704,27.75589,0
85.27696,27.75594,0
85.27667,27.7561,0
85.2764,27.75624,0
85.2763,27.75629,0
85.27595,27.75649,0
85.27578,27.75658,0
85.27572,27.75661,0
85.27569,27.75662,0
85.27563,27.75665,0
85.27559,27.75666,0
85.27555,27.75666,0
85.27545,27.75667,0
85.27541,27.75667,0
85.27535,27.75667,0
85.27529,27.75666,0
85.2752,27.75665,0
85.27514,27.75664,0
85.27507,27.75664,0
85.27499,27.75664,0
85.27491,27.75665,0
85.27485,27.75667,0
85.27479,27.7567,0
85.27474,27.75674,0
85.2747,27.75678,0
85.27465,27.75682,0
85.27453,27.75694,0
85.27437,27.75708,0
85.2743,27.75715,0
85.27415,27.75725,0
85.27411,27.75728,0
85.27406,27.75732,0
85.27399,27.75736,0
85.2738,27.75746,0
85.27364,27.75757,0
85.2736,27.7576,0
85.27351,27.75767,0
85.27341,27.75775,0
85.27331,27.75788,0
85.27328,27.75792,0
85.27322,27.75799,0
85.27319,27.75802,0
85.27317,27.75804,0
85.27309,27.75809,0
85.27305,27.75811,0
85.27302,27.75813,0
85.27298,27.75814,0
85.27291,27.75816,0
85.27287,27.75817,0
85.27283,27.75818,0
85.27279,27.75819,0
85.27276,27.75821,0
85.27274,27.75824,0
85.27272,27.75826,0
85.27269,27.75829,0
85.27263,27.75839,0
85.27262,27.75841,0
85.2726,27.75843,0
85.27258,27.75844,0
85.27256,27.75846,0
85.27253,27.75847,0
85.2724,27.75854,0
85.27221,27.75859,0
85.27213,27.7586,0
85.27208,27.75861,0
85.272,27.75861,0
85.27194,27.75861,0
85.27151,27.75861,0
85.27147,27.75861,0
85.27132,27.7586,0
85.27106,27.7586,0
85.27101,27.7586,0
85.27069,27.75857,0
85.27058,27.75857,0
85.27049,27.75856,0
85.27039,27.75855,0
85.27038,27.75856,0
85.27036,27.75856,0
85.27033,27.75857,0
85.27031,27.75859,0
85.2703,27.75859,0
85.270301,27.758594,0
85.270116,27.758671,0
85.270115,27.758674,0
85.270113,27.758685,0
85.270111,27.758696,0
85.270108,27.758707,0
85.270106,27.758717,0
85.270104,27.758728,0
85.270101,27.758739,0
85.270099,27.75875,0
85.270097,27.758761,0
85.270094,27.758771,0
85.270092,27.758782,0
85.270089,27.758793,0
85.270087,27.758804,0
85.270085,27.758815,0
85.270082,27.758826,0
85.27008,27.758836,0
85.270078,27.758847,0
85.270075,27.758858,0
85.270073,27.758869,0
85.270071,27.75888,0
85.270068,27.758891,0
85.270066,27.758901,0
85.270064,27.758912,0
85.270061,27.758923,0
85.270059,27.758934,0
85.270056,27.758945,0
85.270054,27.758956,0
85.270052,27.758966,0
85.270049,27.758977,0
85.270047,27.758988,0
85.270045,27.758999,0
85.270042,27.75901,0
85.27004,27.759021,0
85.270038,27.759031,0
85.270035,27.759042,0
85.270033,27.759053,0
85.270031,27.759064,0
85.270025,27.75908,0
85.27002,27.759084,0
85.270016,27.759087,0
85.270012,27.759091,0
85.270007,27.759095,0
85.270003,27.759099,0
85.269999,27.759102,0
85.269994,27.759106,0
85.26999,27.75911,0
85.269986,27.759114,0
85.269981,27.759117,0
85.269977,27.759121,0
85.269973,27.759125,0
85.269969,27.759129,0
85.269964,27.759132,0
85.269955,27.75914,0
85.269949,27.759148,0
85.269943,27.759156,0
85.269937,27.759163,0
85.26993,27.759171,0
85.269924,27.759178,0
85.269918,27.759186,0
85.269912,27.759194,0
85.269906,27.759201,0
85.2699,27.759209,0
85.269893,27.759216,0
85.269887,27.759224,0
85.269881,27.759232,0
85.269875,27.759239,0
85.269869,27.759247,0
85.269863,27.759254,0
85.269857,27.759262,0
85.26985,27.75927,0
85.269844,27.759277,0
85.269838,27.759285,0
85.269832,27.759292,0
85.269826,27.7593,0
85.26982,27.759308,0
85.269814,27.759315,0
85.269807,27.759323,0
85.269801,27.75933,0
85.269795,27.759338,0
85.269789,27.759346,0
85.269783,27.759353,0
85.269777,27.759361,0
85.269771,27.759368,0
85.269764,27.759376,0
85.269758,27.759384,0
85.269752,27.759391,0
85.269746,27.759399,0
85.26974,27.759407,0
85.269734,27.759414,0
85.269728,27.759422,0
85.269721,27.759429,0
85.269715,27.759437,0
85.269709,27.759445,0
85.269703,27.759452,0
85.269697,27.75946,0
85.269691,27.759467,0
85.269685,27.759475,0
85.269678,27.759483,0
85.269672,27.75949,0
85.269666,27.759498,0
85.26966,27.759505,0
85.269654,27.759513,0
85.269648,27.759521,0
85.269642,27.759528,0
85.269635,27.759536,0
85.269629,27.759543,0
85.269623,27.759551,0
85.269617,27.759559,0
85.269611,27.759566,0
85.269605,27.759574,0
85.269588,27.759586,0
85.269582,27.759578,0
85.269576,27.75957,0
85.26957,27.759561,0
85.269564,27.759553,0
85.269557,27.759545,0
85.269551,27.759537,0
85.269545,27.759528,0
85.269539,27.75952,0
85.269533,27.759512,0
85.269527,27.759504,0
85.26952,27.759496,0
85.269514,27.759487,0
85.269508,27.759479,0
85.269502,27.759471,0
85.269496,27.759463,0
85.26949,27.759454,0
85.269484,27.759446,0
85.269477,27.759438,0
85.269471,27.75943,0
85.269465,27.759422,0
85.269459,27.759413,0
85.269453,27.759405,0
85.269447,27.759397,0
85.26944,27.759389,0
85.269434,27.75938,0
85.269428,27.759372,0
85.269422,27.759364,0
85.269416,27.759356,0
85.26941,27.759347,0
85.269403,27.759339,0
85.269397,27.759331,0
85.269391,27.759323,0
85.269385,27.759315,0
85.269379,27.759306,0
85.269373,27.759298,0
85.269367,27.75929,0
85.26936,27.759282,0
85.269354,27.759273,0
85.269348,27.759265,0
85.269342,27.759257,0
85.269336,27.759249,0
85.26933,27.75924,0
85.269323,27.759232,0
85.269317,27.759224,0
85.269311,27.759216,0
85.269305,27.759208,0
85.269299,27.759199,0
85.269293,27.759191,0
85.269286,27.759183,0
85.26928,27.759175,0
85.269274,27.759166,0
85.269268,27.759158,0
85.269262,27.75915,0
85.269256,27.759142,0
85.26925,27.759133,0
85.269243,27.759125,0
85.269237,27.759117,0
85.269231,27.759109,0
85.269225,27.759101,0
85.269209,27.759086,0
85.269199,27.759081,0
85.26919,27.759076,0
85.26918,27.759071,0
85.26917,27.759067,0
85.269161,27.759062,0
85.269151,27.759057,0
85.269141,27.759052,0
85.269132,27.759047,0
85.269122,27.759042,0
85.269112,27.759038,0
85.269103,27.759033,0
85.269093,27.759028,0
85.269083,27.759023,0
85.269074,27.759018,0
85.269064,27.759013,0
85.269054,27.759008,0
85.269045,27.759004,0
85.269035,27.758999,0
85.269026,27.758994,0
85.269016,27.758989,0
85.269006,27.758984,0
85.268997,27.758979,0
85.268987,27.758974,0
85.268977,27.75897,0
85.268968,27.758965,0
85.268958,27.75896,0
85.268948,27.758955,0
85.268939,27.75895,0
85.268929,27.758945,0
85.268919,27.758941,0
85.26891,27.758936,0
85.2689,27.758931,0
85.26889,27.758926,0
85.268881,27.758921,0
85.268871,27.758916,0
85.268861,27.758911,0
85.268852,27.758907,0
85.268842,27.758902,0
85.268832,27.758897,0
85.268823,27.758892,0
85.268813,27.758887,0
85.268803,27.758882,0
85.268794,27.758877,0
85.268784,27.758873,0
85.268774,27.758868,0
85.268765,27.758863,0
85.268755,27.758858,0
85.268745,27.758853,0
85.268736,27.758848,0
85.268712,27.758837,0
85.2687,27.758832,0
85.268688,27.758827,0
85.268676,27.758823,0
85.268668,27.75882,0
85.268659,27.758818,0
85.268651,27.758815,0
85.268642,27.758812,0
85.268632,27.758809,0
85.268619,27.758805,0
85.268606,27.758801,0
85.268594,27.758796,0
85.268581,27.758792,0
85.268567,27.758791,0
85.268555,27.758789,0
85.268543,27.758787,0
85.268531,27.758786,0
85.268521,27.758786,0
85.26851,27.758786,0
85.268499,27.758784,0
85.268487,27.758784,0
85.268473,27.758784,0
85.26846,27.758785,0
85.268449,27.758785,0
85.268436,27.758788,0
85.268425,27.758794,0
85.268415,27.7588,0
85.268405,27.758805,0
85.268395,27.75881,0
85.268384,27.758815,0
85.268372,27.75882,0
85.268359,27.758823,0
85.268347,27.758824,0
85.268333,27.758825,0
85.26832,27.758825,0
85.268308,27.758825,0
85.268294,27.758824,0
85.268279,27.758822,0
85.268262,27.758823,0
85.268245,27.758824,0
85.268228,27.758824,0
85.268211,27.758826,0
85.268194,27.758826,0
85.268177,27.758827,0
85.268163,27.75883,0
85.26815,27.758832,0
85.268136,27.758836,0
85.268122,27.758836,0
85.26811,27.758836,0
85.268097,27.758836,0
85.268085,27.758836,0
85.268073,27.758838,0
85.26806,27.758838,0
85.268045,27.758837,0
85.26803,27.758837,0
85.268016,27.758838,0
85.268002,27.758839,0
85.267988,27.758839,0
85.267975,27.758838,0
85.267962,27.758837,0
85.267949,27.758839,0
85.267934,27.758841,0
85.267922,27.758842,0
85.267909,27.758839,0
85.267896,27.758838,0
85.267882,27.758837,0
85.26787,27.758834,0
85.267859,27.758831,0
85.267848,27.758828,0
85.267836,27.758824,0
85.267825,27.758821,0
85.267814,27.758818,0
85.267802,27.758815,0
85.267791,27.758811,0
85.26778,27.758808,0
85.267768,27.758805,0
85.267757,27.758802,0
85.267745,27.758799,0
85.267734,27.758795,0
85.267723,27.758792,0
85.267711,27.758789,0
85.2677,27.758786,0
85.267689,27.758783,0
85.267677,27.758779,0
85.267666,27.758776,0
85.267655,27.758773,0
85.267633,27.758757,0
85.26762,27.758743,0
85.267606,27.75873,0
85.267594,27.758718,0
85.267583,27.758707,0
85.267572,27.758696,0
85.267561,27.758686,0
85.267551,27.758679,0
85.267541,27.758676,0
85.267532,27.758673,0
85.267521,27.758672,0
85.267508,27.75867,0
85.267495,27.758669,0
85.267484,27.758666,0
85.26747,27.758662,0
85.267457,27.758658,0
85.267446,27.758656,0
85.267435,27.758655,0
85.267426,27.758655,0
85.267417,27.758656,0
85.267408,27.758656,0
85.267397,27.758657,0
85.267386,27.758656,0
85.267374,27.758654,0
85.267361,27.758652,0
85.267346,27.75865,0
85.26733,27.75865,0
85.267314,27.75865,0
85.267298,27.758652,0
85.267282,27.758653,0
85.267265,27.758654,0
85.26725,27.758656,0
85.267234,27.758658,0
85.267219,27.75866,0
85.267206,27.758663,0
85.267193,27.758666,0
85.26718,27.758668,0
85.267165,27.758669,0
85.26715,27.75867,0
85.267136,27.758671,0
85.267123,27.758671,0
85.26711,27.758673,0
85.267097,27.758676,0
85.267086,27.758677,0
85.267078,27.758675,0
85.267071,27.758672,0
85.267063,27.75867,0
85.267055,27.758668,0
85.267048,27.758665,0
85.26704,27.758663,0
85.267032,27.758661,0
85.267025,27.758658,0
85.267017,27.758656,0
85.26701,27.758654,0
85.267002,27.758651,0
85.266994,27.758649,0
85.266987,27.758647,0
85.266979,27.758645,0
85.266971,27.758642,0
85.266964,27.75864,0
85.266956,27.758638,0
85.266948,27.758635,0
85.266941,27.758633,0
85.266933,27.758631,0
85.266926,27.758628,0
85.266918,27.758626,0
85.26691,27.758624,0
85.266903,27.758621,0
85.266895,27.758619,0
85.266887,27.758617,0
85.26688,27.758614,0
85.266872,27.758612,0
85.266864,27.75861,0
85.266857,27.758607,0
85.266849,27.758605,0
85.266841,27.758603,0
85.266834,27.7586,0
85.266826,27.758598,0
85.266819,27.758596,0
85.266811,27.758593,0
85.266803,27.758591,0
85.266796,27.758589,0
85.266788,27.758587,0
85.26678,27.758584,0
85.266773,27.758582,0
85.266765,27.75858,0
85.266757,27.758577,0
85.26675,27.758575,0
85.266742,27.758573,0
85.266735,27.75857,0
85.266727,27.758568,0
85.266719,27.758566,0
85.266712,27.758563,0
85.266704,27.758561,0
85.266696,27.758559,0
85.266689,27.758556,0
85.266681,27.758554,0
85.266673,27.758552,0
85.266666,27.758549,0
85.266658,27.758547,0
85.26665,27.758545,0
85.266643,27.758542,0
85.266627,27.758539,0
85.266622,27.758547,0
85.266616,27.758554,0
85.266611,27.758562,0
85.266605,27.75857,0
85.2666,27.758577,0
85.266594,27.758585,0
85.266589,27.758592,0
85.266584,27.7586,0
85.266578,27.758608,0
85.266573,27.758615,0
85.266567,27.758623,0
85.266562,27.75863,0
85.266556,27.758638,0
85.266551,27.758646,0
85.266545,27.758653,0
85.26654,27.758661,0
85.266534,27.758668,0
85.266529,27.758676,0
85.266523,27.758683,0
85.266518,27.758691,0
85.266512,27.758699,0
85.266507,27.758706,0
85.266502,27.758714,0
85.266496,27.758721,0
85.266491,27.758729,0
85.266485,27.758737,0
85.26648,27.758744,0
85.266474,27.758752,0
85.266469,27.758759,0
85.266463,27.758767,0
85.266458,27.758775,0
85.266452,27.758782,0
85.266447,27.75879,0
85.266441,27.758797,0
85.266436,27.758805,0
85.266431,27.758813,0
85.266425,27.75882,0
85.26642,27.758828,0
85.266414,27.758835,0
85.266409,27.758843,0
85.266403,27.758851,0
85.266398,27.758858,0
85.266392,27.758866,0
85.266387,27.758873,0
85.266381,27.758881,0
85.266376,27.758889,0
85.26637,27.758896,0
85.266365,27.758904,0
85.266359,27.758911,0
85.266354,27.758919,0
85.266349,27.758927,0
85.266343,27.758934,0
85.266338,27.758942,0
85.266332,27.758949,0
85.266327,27.758957,0
85.266321,27.758965,0
85.266316,27.758972,0
85.26631,27.75898,0
85.266305,27.758987,0
85.266299,27.758995,0
85.266294,27.759003,0
85.266288,27.75901,0
85.266283,27.759018,0
85.266277,27.759025,0
85.266272,27.759033,0
85.266267,27.759041,0
85.266261,27.759048,0
85.266256,27.759056,0
85.26625,27.759063,0
85.266245,27.759071,0
85.266239,27.759079,0
85.266232,27.759088,0
85.26619,27.759136,0
85.266183,27.759147,0
85.266177,27.759157,0
85.26617,27.759168,0
85.266164,27.759179,0
85.266157,27.75919,0
85.266151,27.759201,0
85.266144,27.759212,0
85.266138,27.759222,0
85.266131,27.759233,0
85.266125,27.759244,0
85.266112,27.759265,0
85.266103,27.759269,0
85.266094,27.759273,0
85.266084,27.759276,0
85.266075,27.75928,0
85.266066,27.759284,0
85.266057,27.759287,0
85.266048,27.759291,0
85.266038,27.759295,0
85.266029,27.759298,0
85.26602,27.759302,0
85.266011,27.759306,0
85.266002,27.759309,0
85.265992,27.759313,0
85.265983,27.759317,0
85.265974,27.759321,0
85.265965,27.759324,0
85.265955,27.759328,0
85.265946,27.759332,0
85.265937,27.759335,0
85.265928,27.759339,0
85.265919,27.759343,0
85.265909,27.759346,0
85.2659,27.75935,0
85.265891,27.759354,0
85.265882,27.759357,0
85.265872,27.759361,0
85.265863,27.759365,0
85.265854,27.759368,0
85.265845,27.759372,0
85.265836,27.759376,0
85.265826,27.75938,0
85.265817,27.759383,0
85.265808,27.759387,0
85.265799,27.759391,0
85.265789,27.759394,0
85.26578,27.759398,0
85.265771,27.759402,0
85.265762,27.759405,0
85.265753,27.759409,0
85.265743,27.759413,0
85.265734,27.759416,0
85.265725,27.75942,0
85.265716,27.759424,0
85.265706,27.759428,0
85.265697,27.759431,0
85.265688,27.759435,0
85.265679,27.759439,0
85.26567,27.759442,0
85.26566,27.759446,0
85.265651,27.75945,0
85.265642,27.759453,0
85.265633,27.759457,0
85.265623,27.759461,0
85.265614,27.759464,0
85.265605,27.759468,0
85.265596,27.759472,0
85.265587,27.759476,0
85.265577,27.759479,0
85.265568,27.759483,0
85.265559,27.759487,0
85.26555,27.75949,0
85.265526,27.759491,0
85.265511,27.759488,0
85.2655,27.759486,0
85.265486,27.759484,0
85.265472,27.759481,0
85.265458,27.759479,0
85.265444,27.759477,0
85.265429,27.759476,0
85.265414,27.759478,0
85.265399,27.759481,0
85.265383,27.759485,0
85.265369,27.75949,0
85.265354,27.759496,0
85.265337,27.7595,0
85.265321,27.759504,0
85.265308,27.759506,0
85.265295,27.759508,0
85.26528,27.75951,0
85.265266,27.75951,0
85.265252,27.759511,0
85.265238,27.759512,0
85.265224,27.759514,0
85.265211,27.759515,0
85.265196,27.759517,0
85.265181,27.759519,0
85.265166,27.759524,0
85.26515,27.759529,0
85.265135,27.759534,0
85.265119,27.75954,0
85.265104,27.759545,0
85.265092,27.759551,0
85.26508,27.759556,0
85.265067,27.759561,0
85.265052,27.759568,0
85.265036,27.759576,0
85.26502,27.759583,0
85.265005,27.759589,0
85.264989,27.759594,0
85.264973,27.759596,0
85.264956,27.759598,0
85.264941,27.7596,0
85.264929,27.759603,0
85.264918,27.759607,0
85.264906,27.75961,0
85.264894,27.759612,0
85.26488,27.759615,0
85.264868,27.759619,0
85.264854,27.759622,0
85.26484,27.759625,0
85.264826,27.759628,0
85.264814,27.75963,0
85.264801,27.759631,0
85.264787,27.759633,0
85.264771,27.759635,0
85.264756,27.759635,0
85.264741,27.759635,0
85.264724,27.759632,0
85.264708,27.759625,0
85.26469,27.759617,0
85.26467,27.759609,0
85.264652,27.7596,0
85.264633,27.759591,0
85.264614,27.759582,0
85.264593,27.759571,0
85.264572,27.759562,0
85.264551,27.759551,0
85.264533,27.75954,0
85.264519,27.759532,0
85.264505,27.759522,0
85.264492,27.759512,0
85.26448,27.759502,0
85.264467,27.759491,0
85.264456,27.759479,0
85.264446,27.759465,0
85.264437,27.759451,0
85.264428,27.759436,0
85.264418,27.75942,0
85.264408,27.759403,0
85.264395,27.759387,0
85.264378,27.75937,0
85.264365,27.759353,0
85.264353,27.759336,0
85.264338,27.75932,0
85.264322,27.759303,0
85.264306,27.759286,0
85.264291,27.75927,0
85.264278,27.759256,0
85.264267,27.759244,0
85.26426,27.759236,0
85.264258,27.759232,0
85.264254,27.759229,0
85.264255,27.759229,0
85.264257,27.759229,0
85.264259,27.759229,0
85.26426,27.759229,0
85.264261,27.759231,0
85.264262,27.759233,0
85.264261,27.759237,0
85.264259,27.759238,0
85.264259,27.759236,0
85.264259,27.759234,0
85.264259,27.759233,0
85.264259,27.759232,0
85.264264,27.759235,0
85.264264,27.759236,0
85.264278,27.75923,0
85.264281,27.759228,0
85.264284,27.759227,0
85.264287,27.759226,0
85.264291,27.759225,0
85.264294,27.759225,0
85.264295,27.759225,0
85.264296,27.759226,0
85.264292,27.759205,0
85.264292,27.759195,0
85.264294,27.759186,0
85.264296,27.759179,0
85.264297,27.759172,0
85.264299,27.759167,0
85.264298,27.759164,0
85.264295,27.759161,0
85.264288,27.759157,0
85.26428,27.759153,0
85.264269,27.759146,0
85.264262,27.759139,0
85.264259,27.75913,0
85.264255,27.759122,0
85.264249,27.759113,0
85.26424,27.759105,0
85.264232,27.759096,0
85.264227,27.759088,0
85.264225,27.759079,0
85.264222,27.759068,0
85.264216,27.759055,0
85.264207,27.759042,0
85.264199,27.759031,0
85.264195,27.759019,0
85.264191,27.759007,0
85.264185,27.758998,0
85.264179,27.758988,0
85.264175,27.758978,0
85.264171,27.758967,0
85.264168,27.758955,0
85.264165,27.758943,0
85.264162,27.75893,0
85.264158,27.758917,0
85.264155,27.758903,0
85.264152,27.758891,0
85.264148,27.758879,0
85.264146,27.758869,0
85.264145,27.758856,0
85.264143,27.758844,0
85.26414,27.758832,0
85.264136,27.758822,0
85.264133,27.758811,0
85.264131,27.758799,0
85.264128,27.758786,0
85.264127,27.758773,0
85.264125,27.75876,0
85.264123,27.758745,0
85.264121,27.75873,0
85.264116,27.758716,0
85.264112,27.758704,0
85.264106,27.758691,0
85.264099,27.758681,0
85.264096,27.75867,0
85.26409,27.75866,0
85.264082,27.758649,0
85.264073,27.758637,0
85.264068,27.758625,0
85.264062,27.758614,0
85.264056,27.758603,0
85.26405,27.758592,0
85.264045,27.758581,0
85.264039,27.75857,0
85.264033,27.758559,0
85.264028,27.758548,0
85.264022,27.758537,0
85.264016,27.758525,0
85.26401,27.758514,0
85.264005,27.758503,0
85.263999,27.758492,0
85.263993,27.758481,0
85.263988,27.75847,0
85.263982,27.758459,0
85.263976,27.758448,0
85.26397,27.758437,0
85.263965,27.758425,0
85.263959,27.758414,0
85.263953,27.758403,0
85.263947,27.758392,0
85.263942,27.758381,0
85.263936,27.75837,0
85.26393,27.758359,0
85.263925,27.758348,0
85.263919,27.758337,0
85.263913,27.758326,0
85.263907,27.758314,0
85.263902,27.758303,0
85.263896,27.758292,0
85.263886,27.758267,0
85.263886,27.758256,0
85.263886,27.758245,0
85.263886,27.758234,0
85.263886,27.758224,0
85.263891,27.758196,0
85.263899,27.758178,0
85.263903,27.758165,0
85.26391,27.758152,0
85.263915,27.758139,0
85.263921,27.758127,0
85.263928,27.758116,0
85.263937,27.758105,0
85.263948,27.758095,0
85.263956,27.758084,0
85.26396,27.758074,0
85.263963,27.758066,0
85.263967,27.758057,0
85.263971,27.758048,0
85.263975,27.758039,0
85.263976,27.75803,0
85.263979,27.758021,0
85.263981,27.758011,0
85.263982,27.757997,0
85.263981,27.757984,0
85.263979,27.757971,0
85.263978,27.757958,0
85.263977,27.757944,0
85.263975,27.757931,0
85.263971,27.757916,0
85.263965,27.7579,0
85.263961,27.757884,0
85.263959,27.757868,0
85.263958,27.757853,0
85.263957,27.757839,0
85.263956,27.757826,0
85.263954,27.757814,0
85.26395,27.757803,0
85.263944,27.757792,0
85.263937,27.757782,0
85.263932,27.757771,0
85.26393,27.757762,0
85.263931,27.757751,0
85.263933,27.75774,0
85.263936,27.757727,0
85.263937,27.757712,0
85.263937,27.757697,0
85.263937,27.757682,0
85.263936,27.757671,0
85.263935,27.757666,0
85.263935,27.757638,0
85.263935,27.757626,0
85.263937,27.757611,0
85.263939,27.757594,0
85.263942,27.757578,0
85.263945,27.757562,0
85.263948,27.757548,0
85.263951,27.757531,0
85.263956,27.757512,0
85.263963,27.757491,0
85.263969,27.757472,0
85.263975,27.757467,0
85.26398,27.757461,0
85.263986,27.757455,0
85.263992,27.757449,0
85.263998,27.757443,0
85.264004,27.757438,0
85.264009,27.757432,0
85.264015,27.757426,0
85.264021,27.75742,0
85.264027,27.757414,0
85.264033,27.757409,0
85.264038,27.757403,0
85.264044,27.757397,0
85.26405,27.757391,0
85.264056,27.757385,0
85.264062,27.75738,0
85.264067,27.757374,0
85.264073,27.757368,0
85.264079,27.757362,0
85.264085,27.757356,0
85.264091,27.757351,0
85.264096,27.757345,0
85.264102,27.757339,0
85.264108,27.757333,0
85.264114,27.757327,0
85.26412,27.757322,0
85.264125,27.757316,0
85.264131,27.75731,0
85.264137,27.757304,0
85.264143,27.757298,0
85.264149,27.757293,0
85.264154,27.757287,0
85.26416,27.757281,0
85.264166,27.757275,0
85.264172,27.757269,0
85.264178,27.757264,0
85.264183,27.757258,0
85.264189,27.757252,0
85.264195,27.757246,0
85.264201,27.75724,0
85.264207,27.757235,0
85.264212,27.757229,0
85.264218,27.757223,0
85.264224,27.757217,0
85.26423,27.757211,0
85.264236,27.757206,0
85.264241,27.7572,0
85.264247,27.757194,0
85.264253,27.757188,0
85.264259,27.757182,0
85.264265,27.757177,0
85.26427,27.757171,0
85.264276,27.757165,0
85.264282,27.757159,0
85.264288,27.757153,0
85.264294,27.757148,0
85.264299,27.757142,0
85.264305,27.757136,0
85.264311,27.75713,0
85.264324,27.757116,0
85.264323,27.757111,0
85.264323,27.757105,0
85.264322,27.7571,0
85.264321,27.757095,0
85.264321,27.757089,0
85.26432,27.757084,0
85.264319,27.757079,0
85.264318,27.757073,0
85.264318,27.757068,0
85.264317,27.757063,0
85.264316,27.757057,0
85.264316,27.757052,0
85.264315,27.757047,0
85.264314,27.757041,0
85.264313,27.757036,0
85.264313,27.757031,0
85.264312,27.757025,0
85.264311,27.75702,0
85.264311,27.757015,0
85.26431,27.757009,0
85.264309,27.757004,0
85.264308,27.756999,0
85.264308,27.756993,0
85.264307,27.756988,0
85.264306,27.756983,0
85.264305,27.756977,0
85.264305,27.756972,0
85.264304,27.756967,0
85.264303,27.756961,0
85.264303,27.756956,0
85.264302,27.756951,0
85.264301,27.756945,0
85.2643,27.75694,0
85.2643,27.756935,0
85.264299,27.756929,0
85.264298,27.756924,0
85.264298,27.756919,0
85.264297,27.756913,0
85.264278,27.7569,0
85.264259,27.75689,0
85.26424,27.75688,0
85.264219,27.756871,0
85.264196,27.756858,0
85.264174,27.756843,0
85.264153,27.756829,0
85.264134,27.756813,0
85.264117,27.756796,0
85.264102,27.756778,0
85.264088,27.756758,0
85.264074,27.75674,0
85.26406,27.756721,0
85.264047,27.756702,0
85.264036,27.756683,0
85.264027,27.756664,0
85.264022,27.756648,0
85.264019,27.756634,0
85.264016,27.756621,0
85.264014,27.756609,0
85.264014,27.756597,0
85.264014,27.756585,0
85.264022,27.75658,0
85.264031,27.756576,0
85.264039,27.756572,0
85.264047,27.756568,0
85.264055,27.756563,0
85.264064,27.756559,0
85.264072,27.756555,0
85.26408,27.756551,0
85.264089,27.756546,0
85.264097,27.756542,0
85.264105,27.756538,0
85.264114,27.756533,0
85.264122,27.756529,0
85.26413,27.756525,0
85.264138,27.756521,0
85.264147,27.756516,0
85.264155,27.756512,0
85.264163,27.756508,0
85.264172,27.756504,0
85.26418,27.756499,0
85.264188,27.756495,0
85.264197,27.756491,0
85.264205,27.756486,0
85.264213,27.756482,0
85.264222,27.756478,0
85.26423,27.756474,0
85.264238,27.756469,0
85.264246,27.756465,0
85.264255,27.756461,0
85.264263,27.756457,0
85.264271,27.756452,0
85.26428,27.756448,0
85.264288,27.756444,0
85.264296,27.75644,0
85.264305,27.756435,0
85.264313,27.756431,0
85.264321,27.756427,0
85.264329,27.756422,0
85.264338,27.756418,0
85.264346,27.756414,0
85.264354,27.75641,0
85.264363,27.756405,0
85.264375,27.756405,0
85.264368,27.756407,0
85.264361,27.756409,0
85.264353,27.756412,0
85.264346,27.756414,0
85.264339,27.756416,0
85.264332,27.756419,0
85.264325,27.756421,0
85.264318,27.756423,0
85.264311,27.756426,0
85.264304,27.756428,0
85.264297,27.75643,0
85.26429,27.756433,0
85.264283,27.756435,0
85.264275,27.756437,0
85.264268,27.756439,0
85.264261,27.756442,0
85.264254,27.756444,0
85.264247,27.756446,0
85.26424,27.756449,0
85.264233,27.756451,0
85.264226,27.756453,0
85.264219,27.756456,0
85.264212,27.756458,0
85.264205,27.75646,0
85.264198,27.756463,0
85.26419,27.756465,0
85.264183,27.756467,0
85.264176,27.756469,0
85.264169,27.756472,0
85.264162,27.756474,0
85.264155,27.756476,0
85.264148,27.756479,0
85.264132,27.756488,0
85.264123,27.756494,0
85.264111,27.7565,0
85.264098,27.756504,0
85.264085,27.756508,0
85.264074,27.75651,0
85.264063,27.756513,0
85.264051,27.756516,0
85.264041,27.75652,0
85.264029,27.756524,0
85.264017,27.756526,0
85.264005,27.756527,0
85.263995,27.756533,0
85.263985,27.756539,0
85.263975,27.756545,0
85.263965,27.756552,0
85.263954,27.756554,0
85.263942,27.756555,0
85.263928,27.756555,0
85.263914,27.756556,0
85.2639,27.756558,0
85.263887,27.756558,0
85.263874,27.756557,0
85.263862,27.756556,0
85.263849,27.756555,0
85.263835,27.756555,0
85.263821,27.756555,0
85.26381,27.756559,0
85.263798,27.756563,0
85.263786,27.756566,0
85.263772,27.756568,0
85.263761,27.756574,0
85.26375,27.756577,0
85.263738,27.756579,0
85.263726,27.75658,0
85.263714,27.756584,0
85.263702,27.756587,0
85.26369,27.756592,0
85.263677,27.756594,0
85.263665,27.756595,0
85.263652,27.756594,0
85.263639,27.756591,0
85.263624,27.756588,0
85.26361,27.756585,0
85.263596,27.756584,0
85.263581,27.756583,0
85.263565,27.75658,0
85.263548,27.756576,0
85.263532,27.756567,0
85.263517,27.756558,0
85.263504,27.75655,0
85.263489,27.756545,0
85.263471,27.756539,0
85.263454,27.756536,0
85.263437,27.75653,0
85.263423,27.756522,0
85.263412,27.756511,0
85.263405,27.756501,0
85.263397,27.75649,0
85.263391,27.756481,0
85.263384,27.756473,0
85.263378,27.756466,0
85.263376,27.756459,0
85.263376,27.75645,0
85.263377,27.756443,0
85.263377,27.756436,0
85.263377,27.756429,0
85.263375,27.756422,0
85.263375,27.756415,0
85.263375,27.756408,0
85.263376,27.756401,0
85.263376,27.756395,0
85.263374,27.75639,0
85.263371,27.756384,0
85.263367,27.756379,0
85.263361,27.756373,0
85.263353,27.756367,0
85.263342,27.756358,0
85.263329,27.756348,0
85.263313,27.756338,0
85.263293,27.756327,0
85.263267,27.756311,0
85.263238,27.756297,0
85.263211,27.756281,0
85.263183,27.756266,0
85.263155,27.756251,0
85.263128,27.756235,0
85.263106,27.756221,0
85.263087,27.75621,0
85.263068,27.7562,0
85.263048,27.756189,0
85.26303,27.756178,0
85.263012,27.756167,0
85.262997,27.756156,0
85.262985,27.756147,0
85.262975,27.756138,0
85.262966,27.75613,0
85.262957,27.756119,0
85.262949,27.756108,0
85.262942,27.756095,0
85.262935,27.756081,0
85.262931,27.756067,0
85.262926,27.756052,0
85.262921,27.756036,0
85.262917,27.756021,0
85.262913,27.756008,0
85.262909,27.755996,0
85.262905,27.755984,0
85.262903,27.755972,0
85.262902,27.755962,0
85.262902,27.755953,0
85.262903,27.755946,0
85.262904,27.755939,0
85.262905,27.755931,0
85.262907,27.755923,0
85.262909,27.755914,0
85.262911,27.755906,0
85.262915,27.755899,0
85.262918,27.75589,0
85.262921,27.755883,0
85.262926,27.755878,0
85.26293,27.755875,0
85.262935,27.755874,0
85.262939,27.755871,0
85.262944,27.755866,0
85.26295,27.755858,0
85.262956,27.755849,0
85.26296,27.755839,0
85.262962,27.755825,0
85.262963,27.755813,0
85.262967,27.755805,0
85.262973,27.755797,0
85.262981,27.75579,0
85.26299,27.755785,0
85.262999,27.755779,0
85.263008,27.755774,0
85.263016,27.755768,0
85.263022,27.755761,0
85.263028,27.755752,0
85.263035,27.755741,0
85.263044,27.755731,0
85.263052,27.755726,0
85.263063,27.75572,0
85.263072,27.755712,0
85.263077,27.755703,0
85.263081,27.755694,0
85.263086,27.755685,0
85.263089,27.755674,0
85.263094,27.755664,0
85.263102,27.755656,0
85.263109,27.755648,0
85.263119,27.755643,0
85.263132,27.755641,0
85.263146,27.755641,0
85.263159,27.75564,0
85.263168,27.755637,0
85.263171,27.755631,0
85.263173,27.755623,0
85.263173,27.755616,0
85.263173,27.755611,0
85.263184,27.755603,0
85.263189,27.755605,0
85.263192,27.755612,0
85.263195,27.755619,0
85.263198,27.755626,0
85.2632,27.755633,0
85.263203,27.75564,0
85.263206,27.755647,0
85.263211,27.755671,0
85.263211,27.75569,0
85.263212,27.755708,0
85.263212,27.755726,0
85.26321,27.755744,0
85.26321,27.755763,0
85.263209,27.755783,0
85.263209,27.755802,0
85.263209,27.755821,0
85.263207,27.755841,0
85.263207,27.755863,0
85.263207,27.755883,0
85.263206,27.755904,0
85.263205,27.755924,0
85.263203,27.755944,0
85.2632,27.755962,0
85.263195,27.755978,0
85.263191,27.755991,0
85.263186,27.756003,0
85.26318,27.756013,0
85.263175,27.756023,0
85.263172,27.756032,0
85.263169,27.75604,0
85.263167,27.756048,0
85.263165,27.756057,0
85.263162,27.756065,0
85.263161,27.756073,0
85.263159,27.756082,0
85.263158,27.756089,0
85.263154,27.756098,0
85.263149,27.756108,0
85.263141,27.756119,0
85.263133,27.756128,0
85.263127,27.756136,0
85.26312,27.756144,0
85.263114,27.756149,0
85.263109,27.756153,0
85.263102,27.756159,0
85.263097,27.756164,0
85.263091,27.756169,0
85.263086,27.756174,0
85.263081,27.756178,0
85.263074,27.75618,0
85.263066,27.756181,0
85.263058,27.756184,0
85.263049,27.756188,0
85.263042,27.756193,0
85.263035,27.756199,0
85.263029,27.756209,0
85.263024,27.756217,0
85.263022,27.756227,0
85.263021,27.756237,0
85.263019,27.756247,0
85.263017,27.756261,0
85.263017,27.756274,0
85.263011,27.756285,0
85.263006,27.756295,0
85.263001,27.756306,0
85.262995,27.756317,0
85.26299,27.756327,0
85.262985,27.756338,0
85.262979,27.756348,0
85.262974,27.756359,0
85.262969,27.75637,0
85.262963,27.75638,0
85.262958,27.756391,0
85.262953,27.756401,0
85.262947,27.756412,0
85.262942,27.756423,0
85.262937,27.756433,0
85.262931,27.756444,0
85.262926,27.756454,0
85.262921,27.756465,0
85.262915,27.756476,0
85.26291,27.756486,0
85.262905,27.756497,0
85.262899,27.756507,0
85.262894,27.756518,0
85.262889,27.756529,0
85.262883,27.756539,0
85.262878,27.75655,0
85.262873,27.75656,0
85.262867,27.756571,0
85.262862,27.756582,0
85.262857,27.756592,0
85.262851,27.756603,0
85.262846,27.756613,0
85.262841,27.756624,0
85.262835,27.756635,0
85.26283,27.756645,0
85.262825,27.756656,0
85.262819,27.756666,0
85.262814,27.756677,0
85.262809,27.756688,0
85.262803,27.756698,0
85.262798,27.756709,0
85.262793,27.756719,0
85.262787,27.75673,0
85.262782,27.756741,0
85.262777,27.756751,0
85.262771,27.756762,0
85.262766,27.756772,0
85.262761,27.756783,0
85.262755,27.756794,0
85.26275,27.756804,0
85.262745,27.756815,0
85.262739,27.756825,0
85.262734,27.756836,0
85.262729,27.756847,0
85.262723,27.756857,0
85.262718,27.756868,0
85.262713,27.756878,0
85.262707,27.756889,0
85.262702,27.7569,0
85.262692,27.756922,0
85.26269,27.756932,0
85.262687,27.756942,0
85.262685,27.756952,0
85.262683,27.756961,0
85.262681,27.756971,0
85.262679,27.756981,0
85.262677,27.756991,0
85.262675,27.757001,0
85.262673,27.757011,0
85.262671,27.757021,0
85.262669,27.757031,0
85.262667,27.75704,0
85.262664,27.75705,0
85.262662,27.757073,0
85.262666,27.757085,0
85.262669,27.757093,0
85.262671,27.757102,0
85.26267,27.757113,0
85.26267,27.757123,0
85.262668,27.757134,0
85.262665,27.757145,0
85.262662,27.757157,0
85.262659,27.757167,0
85.262657,27.757179,0
85.262654,27.757192,0
85.262653,27.757205,0
85.262653,27.757219,0
85.262652,27.75723,0
85.262649,27.75724,0
85.262645,27.75725,0
85.262642,27.757261,0
85.26264,27.757272,0
85.262638,27.757284,0
85.262635,27.757296,0
85.262633,27.75731,0
85.262632,27.757324,0
85.262632,27.75734,0
85.262632,27.757356,0
85.262633,27.75737,0
85.262632,27.757383,0
85.262628,27.757394,0
85.262622,27.757404,0
85.262614,27.757415,0
85.262605,27.757426,0
85.262596,27.757439,0
85.262587,27.757451,0
85.262576,27.757461,0
85.262564,27.75747,0
85.262553,27.757481,0
85.262541,27.757492,0
85.262529,27.757501,0
85.262517,27.757506,0
85.262503,27.757507,0
85.262489,27.757504,0
85.262478,27.757504,0
85.26247,27.757506,0
85.262461,27.757509,0
85.262451,27.757512,0
85.262441,27.757516,0
85.26243,27.75752,0
85.26242,27.757525,0
85.262409,27.757531,0
85.262398,27.757537,0
85.262389,27.757543,0
85.26238,27.757548,0
85.262372,27.757554,0
85.262366,27.757561,0
85.262362,27.757568,0
85.262359,27.757574,0
85.262357,27.75758,0
85.262356,27.757586,0
85.262353,27.757594,0
85.262348,27.757605,0
85.262343,27.757617,0
85.262343,27.757629,0
85.262345,27.757641,0
85.262348,27.757653,0
85.262351,27.757661,0
85.262355,27.75767,0
85.26236,27.757682,0
85.262366,27.757695,0
85.262372,27.757708,0
85.262375,27.75772,0
85.262376,27.757731,0
85.262375,27.757741,0
85.262375,27.757754,0
85.262375,27.757772,0
85.262374,27.757791,0
85.262376,27.757813,0
85.262377,27.757834,0
85.262377,27.757851,0
85.262379,27.757867,0
85.262377,27.757876,0
85.262374,27.757886,0
85.262371,27.757896,0
85.262369,27.757905,0
85.262365,27.757914,0
85.262361,27.757922,0
85.262355,27.75793,0
85.262348,27.757938,0
85.26234,27.757948,0
85.262333,27.757957,0
85.262326,27.757967,0
85.262316,27.757979,0
85.262306,27.757991,0
85.262297,27.758005,0
85.262287,27.758018,0
85.262276,27.758032,0
85.262266,27.758044,0
85.262256,27.758054,0
85.262247,27.758064,0
85.262238,27.758073,0
85.26223,27.75808,0
85.262221,27.758086,0
85.262212,27.758093,0
85.262203,27.758102,0
85.262193,27.758112,0
85.262186,27.758126,0
85.262179,27.758143,0
85.262174,27.75816,0
85.262171,27.758174,0
85.26217,27.758183,0
85.262172,27.758192,0
85.262173,27.758205,0
85.262176,27.758218,0
85.262179,27.758232,0
85.262182,27.758247,0
85.262185,27.758262,0
85.262188,27.758277,0
85.262191,27.758291,0
85.262192,27.758304,0
85.262192,27.758317,0
85.262191,27.75833,0
85.262189,27.758343,0
85.262186,27.758358,0
85.262184,27.758371,0
85.262181,27.758384,0
85.26218,27.758396,0
85.262179,27.758409,0
85.262178,27.758422,0
85.262175,27.758436,0
85.262172,27.758449,0
85.26217,27.758463,0
85.262167,27.758476,0
85.262163,27.758488,0
85.262157,27.758501,0
85.262149,27.758513,0
85.262141,27.758526,0
85.262132,27.758538,0
85.262122,27.758549,0
85.262112,27.758558,0
85.262101,27.758567,0
85.26209,27.758573,0
85.262079,27.758581,0
85.262069,27.758587,0
85.262058,27.758593,0
85.262047,27.758599,0
85.262035,27.758605,0
85.262024,27.758612,0
85.262013,27.75862,0
85.262004,27.758628,0
85.261996,27.758637,0
85.261986,27.758643,0
85.261974,27.758648,0
85.26196,27.758653,0
85.261946,27.758658,0
85.261933,27.75866,0
85.26192,27.758665,0
85.261907,27.758671,0
85.261894,27.758678,0
85.261881,27.758683,0
85.26187,27.758684,0
85.261858,27.758686,0
85.261846,27.758687,0
85.261834,27.758688,0
85.261822,27.758687,0
85.261811,27.758685,0
85.261799,27.758681,0
85.261787,27.758677,0
85.261774,27.758674,0
85.261759,27.758671,0
85.261743,27.758671,0
85.261727,27.75867,0
85.261712,27.758667,0
85.261697,27.758665,0
85.261683,27.758661,0
85.261667,27.758655,0
85.261654,27.75865,0
85.261642,27.758648,0
85.26163,27.758648,0
85.261617,27.75865,0
85.261603,27.758651,0
85.261589,27.75865,0
85.261576,27.758649,0
85.261564,27.75865,0
85.26156,27.758657,0
85.261555,27.758665,0
85.26155,27.758672,0
85.261546,27.75868,0
85.261541,27.758687,0
85.261536,27.758695,0
85.261532,27.758703,0
85.261527,27.75871,0
85.261522,27.758718,0
85.261518,27.758725,0
85.261513,27.758733,0
85.261509,27.758741,0
85.261504,27.758748,0
85.261499,27.758756,0
85.261495,27.758763,0
85.26149,27.758771,0
85.261485,27.758779,0
85.261481,27.758786,0
85.261476,27.758794,0
85.261471,27.758801,0
85.261467,27.758809,0
85.261462,27.758817,0
85.261457,27.758824,0
85.261454,27.758844,0
85.261454,27.758859,0
85.261455,27.758874,0
85.261456,27.758889,0
85.261457,27.758902,0
85.261457,27.758916,0
85.261456,27.758929,0
85.261456,27.758942,0
85.261455,27.758956,0
85.261452,27.758969,0
85.261448,27.758981,0
85.261444,27.758993,0
85.261439,27.759005,0
85.261433,27.759018,0
85.261426,27.75903,0
85.261418,27.759041,0
85.261411,27.75905,0
85.261403,27.759059,0
85.261395,27.759069,0
85.261387,27.759077,0
85.26138,27.759085,0
85.261372,27.759093,0
85.261365,27.7591,0
85.261358,27.759109,0
85.261349,27.759115,0
85.261338,27.759121,0
85.261328,27.759128,0
85.261317,27.759136,0
85.261307,27.759144,0
85.261298,27.759152,0
85.261289,27.759161,0
85.261281,27.75917,0
85.261271,27.759178,0
85.26126,27.759183,0
85.261246,27.759188,0
85.261232,27.759193,0
85.261218,27.759199,0
85.261205,27.759204,0
85.261191,27.759211,0
85.261178,27.759217,0
85.261165,27.759225,0
85.261154,27.759233,0
85.261142,27.75924,0
85.261131,27.759245,0
85.261121,27.759249,0
85.261112,27.759254,0
85.261105,27.759261,0
85.261097,27.759269,0
85.26109,27.759277,0
85.261082,27.759286,0
85.261072,27.759296,0
85.261063,27.759308,0
85.261054,27.75932,0
85.261044,27.759332,0
85.261033,27.759345,0
85.261024,27.759356,0
85.261014,27.759368,0
85.261005,27.759379,0
85.260995,27.759389,0
85.260984,27.759398,0
85.260972,27.759406,0
85.260958,27.759414,0
85.26094,27.75942,0
85.26092,27.759426,0
85.260903,27.759434,0
85.260888,27.759442,0
85.260874,27.759447,0
85.260861,27.759449,0
85.260848,27.759452,0
85.260837,27.759455,0
85.260823,27.759457,0
85.260808,27.759458,0
85.260792,27.759458,0
85.260776,27.759459,0
85.260762,27.759461,0
85.260749,27.759464,0
85.260738,27.759466,0
85.260729,27.759469,0
85.260721,27.759472,0
85.260714,27.759474,0
85.260707,27.759477,0
85.2607,27.759482,0
85.260691,27.759489,0
85.260681,27.759497,0
85.260672,27.759505,0
85.260664,27.759513,0
85.260656,27.759521,0
85.260648,27.759532,0
85.260637,27.759541,0
85.260626,27.75955,0
85.260613,27.759557,0
85.260596,27.759564,0
85.260582,27.75957,0
85.260568,27.759582,0
85.260556,27.759592,0
85.260545,27.759601,0
85.260532,27.759607,0
85.260519,27.759614,0
85.260506,27.759621,0
85.260493,27.759627,0
85.26048,27.759632,0
85.260467,27.759636,0
85.260454,27.759638,0
85.260441,27.759638,0
85.260427,27.759637,0
85.260411,27.759634,0
85.260395,27.759628,0
85.260379,27.759618,0
85.260364,27.75961,0
85.260349,27.759603,0
85.260337,27.759598,0
85.260325,27.759595,0
85.260312,27.759593,0
85.260299,27.75959,0
85.260286,27.759587,0
85.260271,27.759582,0
85.260256,27.759575,0
85.260241,27.759568,0
85.260227,27.75956,0
85.260213,27.75955,0
85.260201,27.759539,0
85.260191,27.759528,0
85.260179,27.759516,0
85.260167,27.759505,0
85.260156,27.759496,0
85.260147,27.759488,0
85.260138,27.759479,0
85.260129,27.75947,0
85.260121,27.759459,0
85.260112,27.759448,0
85.260104,27.759436,0
85.260095,27.759424,0
85.260086,27.759413,0
85.260076,27.7594,0
85.260065,27.759386,0
85.260055,27.759371,0
85.260043,27.759358,0
85.26003,27.759345,0
85.260017,27.759331,0
85.260007,27.759313,0
85.26,27.759295,0
85.259993,27.759279,0
85.259991,27.759264,0
85.25999,27.75925,0
85.259989,27.759235,0
85.259988,27.759221,0
85.259987,27.759207,0
85.259985,27.759192,0
85.259984,27.759178,0
85.259983,27.759163,0
85.259982,27.759149,0
85.25998,27.759135,0
85.259979,27.75912,0
85.259978,27.759106,0
85.259977,27.759091,0
85.259975,27.759077,0
85.259974,27.759063,0
85.259972,27.759031,0
85.259971,27.759012,0
85.259972,27.758995,0
85.259973,27.758979,0
85.25997,27.758966,0
85.259969,27.758957,0
85.259968,27.758946,0
85.259967,27.758932,0
85.259967,27.75892,0
85.25997,27.75891,0
85.259973,27.758901,0
85.259977,27.758891,0
85.259982,27.758882,0
85.259989,27.758872,0
85.259996,27.758863,0
85.260003,27.758854,0
85.26001,27.758843,0
85.260015,27.758833,0
85.260019,27.758821,0
85.260021,27.75881,0
85.260022,27.758797,0
85.260022,27.758785,0
85.260019,27.758773,0
85.260017,27.758759,0
85.260013,27.758746,0
85.260009,27.758733,0
85.260005,27.758718,0
85.260002,27.758705,0
85.260003,27.758692,0
85.260004,27.758679,0
85.260008,27.758668,0
85.260015,27.758657,0
85.260026,27.758646,0
85.260033,27.758637,0
85.260039,27.758629,0
85.260044,27.758622,0
85.260049,27.758614,0
85.260055,27.758605,0
85.26006,27.758592,0
85.260064,27.758579,0
85.260069,27.758566,0
85.260077,27.758557,0
85.260081,27.758549,0
85.260082,27.758544,0
85.260083,27.758538,0
85.260084,27.758532,0
85.260085,27.758526,0
85.260088,27.75852,0
85.260095,27.758513,0
85.2601,27.758505,0
85.260105,27.758496,0
85.260111,27.758488,0
85.260119,27.758478,0
85.260124,27.758467,0
85.260129,27.758455,0
85.260132,27.758444,0
85.260134,27.758433,0
85.260138,27.758424,0
85.260143,27.758416,0
85.260149,27.75841,0
85.260159,27.758403,0
85.260168,27.758395,0
85.260177,27.758389,0
85.260184,27.758383,0
85.260191,27.758376,0
85.260198,27.75837,0
85.260207,27.758364,0
85.260214,27.75836,0
85.260219,27.758356,0
85.260225,27.758353,0
85.26023,27.758349,0
85.260233,27.758341,0
85.260234,27.758332,0
85.260231,27.758326,0
85.260226,27.75832,0
85.260216,27.758314,0
85.260204,27.758309,0
85.260191,27.758305,0
85.260179,27.758301,0
85.260167,27.758297,0
85.260154,27.758293,0
85.260142,27.758288,0
85.260129,27.758284,0
85.260117,27.75828,0
85.260105,27.758276,0
85.260092,27.758272,0
85.26008,27.758267,0
85.260068,27.758263,0
85.260055,27.758259,0
85.260043,27.758255,0
85.260031,27.75825,0
85.260018,27.758246,0
85.260006,27.758242,0
85.259993,27.758238,0
85.259981,27.758234,0
85.259969,27.758229,0
85.259956,27.758225,0
85.259944,27.758221,0
85.259932,27.758217,0
85.259919,27.758213,0
85.259907,27.758208,0
85.259894,27.758204,0
85.259882,27.7582,0
85.25987,27.758196,0
85.259857,27.758191,0
85.259845,27.758187,0
85.259833,27.758183,0
85.25982,27.758179,0
85.259808,27.758175,0
85.259795,27.75817,0
85.259783,27.758166,0
85.259771,27.758162,0
85.259758,27.758158,0
85.259746,27.758154,0
85.259734,27.758149,0
85.259721,27.758145,0
85.259709,27.758141,0
85.259696,27.758137,0
85.259684,27.758133,0
85.259672,27.758128,0
85.259659,27.758124,0
85.259647,27.75812,0
85.259635,27.758116,0
85.259604,27.758104,0
85.259587,27.758094,0
85.259571,27.758084,0
85.259558,27.758072,0
85.259545,27.758056,0
85.259534,27.758039,0
85.259524,27.758022,0
85.259511,27.758005,0
85.259499,27.757989,0
85.259487,27.757974,0
85.259476,27.757958,0
85.259469,27.757943,0
85.259467,27.757927,0
85.259466,27.757912,0
85.259466,27.757896,0
85.259468,27.757882,0
85.25947,27.75787,0
85.259472,27.757856,0
85.259475,27.757841,0
85.25948,27.757829,0
85.259487,27.757817,0
85.259496,27.757805,0
85.259503,27.757791,0
85.25951,27.757777,0
85.259514,27.757761,0
85.259517,27.757745,0
85.259517,27.757731,0
85.259516,27.757718,0
85.259518,27.757711,0
85.259519,27.757705,0
85.259519,27.757699,0
85.259518,27.757693,0
85.259517,27.757689,0
85.259515,27.757684,0
85.259512,27.757678,0
85.259507,27.757671,0
85.2595,27.757662,0
85.259493,27.757654,0
85.259485,27.757646,0
85.259478,27.757637,0
85.25947,27.757626,0
85.259461,27.757612,0
85.259451,27.757599,0
85.259443,27.757585,0
85.259438,27.757572,0
85.259431,27.757555,0
85.259423,27.757538,0
85.259416,27.757524,0
85.25941,27.757511,0
85.259406,27.757499,0
85.259401,27.757487,0
85.259395,27.757476,0
85.259388,27.757463,0
85.259382,27.75745,0
85.259376,27.757438,0
85.259371,27.757427,0
85.259367,27.757415,0
85.259364,27.757403,0
85.259362,27.757389,0
85.25936,27.757377,0
85.25936,27.757365,0
85.259361,27.757352,0
85.259361,27.757341,0
85.25936,27.757329,0
85.259356,27.757318,0
85.259352,27.757307,0
85.259345,27.757296,0
85.259338,27.757286,0
85.259332,27.757277,0
85.259325,27.757264,0
85.259317,27.757249,0
85.25931,27.757234,0
85.259304,27.75722,0
85.259297,27.757208,0
85.259292,27.757198,0
85.259286,27.757187,0
85.259282,27.757176,0
85.259276,27.757166,0
85.259269,27.757157,0
85.259264,27.757148,0
85.259259,27.757137,0
85.259257,27.757124,0
85.259253,27.757111,0
85.25925,27.757098,0
85.259247,27.757086,0
85.259245,27.757075,0
85.259243,27.757064,0
85.259241,27.757055,0
85.259239,27.757045,0
85.259236,27.757034,0
85.259233,27.757024,0
85.25923,27.757014,0
85.259226,27.757005,0
85.259222,27.756996,0
85.259217,27.756986,0
85.259213,27.756975,0
85.259209,27.756965,0
85.259205,27.756952,0
85.259203,27.756942,0
85.259201,27.756931,0
85.259201,27.75692,0
85.259201,27.75691,0
85.259201,27.756899,0
85.259198,27.756888,0
85.259197,27.756878,0
85.259194,27.756867,0
85.25919,27.756856,0
85.259188,27.756846,0
85.259185,27.756835,0
85.259182,27.756827,0
85.259177,27.756818,0
85.259172,27.756809,0
85.259167,27.756798,0
85.259164,27.756787,0
85.259159,27.75678,0
85.259155,27.756775,0
85.259154,27.756768,0
85.25915,27.756759,0
85.259146,27.756749,0
85.259141,27.75674,0
85.259135,27.756732,0
85.259127,27.756722,0
85.25912,27.756715,0
85.259112,27.756708,0
85.259107,27.7567,0
85.259101,27.756691,0
85.259095,27.756682,0
85.259087,27.756676,0
85.25908,27.756673,0
85.259076,27.75667,0
85.259074,27.756665,0
85.259072,27.756662,0
85.259072,27.756661,0
85.259072,27.75666,0
85.259074,27.756658,0
85.259074,27.75665,0
85.259072,27.756639,0
85.25907,27.756625,0
85.259068,27.75661,0
85.259067,27.756596,0
85.259063,27.756584,0
85.25906,27.756575,0
85.259058,27.756568,0
85.259054,27.756564,0
85.259052,27.756565,0
85.259049,27.756565,0
85.259047,27.756562,0
85.259043,27.756561,0
85.259038,27.756562,0
85.259032,27.756562,0
85.259028,27.756565,0
85.259024,27.756572,0
85.25902,27.756582,0
85.259015,27.756589,0
85.259009,27.756595,0
85.259004,27.756601,0
85.258997,27.756603,0
85.25899,27.756603,0
85.258982,27.756602,0
85.258974,27.756606,0
85.258964,27.756612,0
85.258952,27.756618,0
85.258939,27.75662,0
85.258926,27.756622,0
85.258915,27.756622,0
85.258905,27.756622,0
85.258895,27.756622,0
85.258884,27.756619,0
85.258873,27.756616,0
85.258863,27.756612,0
85.258854,27.756607,0
85.258846,27.756601,0
85.258839,27.756594,0
85.258833,27.756585,0
85.258827,27.756577,0
85.258822,27.75657,0
85.258814,27.756565,0
85.258805,27.75656,0
85.258795,27.756553,0
85.258785,27.756548,0
85.258774,27.756543,0
85.258764,27.756538,0
85.258754,27.756535,0
85.258745,27.756533,0
85.258736,27.75653,0
85.258726,27.756525,0
85.25872,27.756518,0
85.258715,27.756514,0
85.258712,27.75651,0
85.258714,27.756509,0
85.258703,27.756499,0
85.258694,27.756496,0
85.258685,27.756496,0
85.258677,27.756497,0
85.258668,27.756503,0
85.258661,27.756511,0
85.258654,27.75652,0
85.258645,27.75653,0
85.258634,27.75654,0
85.258622,27.756551,0
85.258611,27.75656,0
85.258599,27.756567,0
85.258591,27.756577,0
85.258583,27.756589,0
85.258574,27.756603,0
85.258565,27.756617,0
85.258555,27.75663,0
85.258545,27.756643,0
85.258538,27.756645,0
85.25853,27.756646,0
85.258522,27.756648,0
85.258515,27.756649,0
85.258507,27.756651,0
85.2585,27.756652,0
85.258492,27.756653,0
85.258485,27.756655,0
85.258477,27.756656,0
85.25847,27.756658,0
85.258462,27.756659,0
85.258455,27.756661,0
85.258447,27.756662,0
85.258439,27.756664,0
85.258432,27.756665,0
85.258424,27.756667,0
85.258417,27.756668,0
85.258409,27.75667,0
85.258402,27.756671,0
85.258394,27.756673,0
85.258387,27.756674,0
85.258379,27.756675,0
85.258372,27.756677,0
85.258364,27.756678,0
85.258357,27.75668,0
85.258349,27.756681,0
85.258341,27.756683,0
85.258334,27.756684,0
85.258326,27.756686,0
85.258319,27.756687,0
85.258311,27.756689,0
85.258304,27.75669,0
85.258296,27.756692,0
85.258289,27.756693,0
85.258281,27.756695,0
85.258274,27.756696,0
85.258266,27.756697,0
85.258259,27.756699,0
85.258251,27.7567,0
85.258243,27.756702,0
85.258236,27.756703,0
85.258228,27.756705,0
85.258221,27.756706,0
85.258213,27.756708,0
85.258206,27.756709,0
85.258198,27.756711,0
85.258191,27.756712,0
85.258183,27.756714,0
85.258176,27.756715,0
85.258168,27.756717,0
85.258161,27.756718,0
85.258153,27.75672,0
85.258145,27.756721,0
85.258138,27.756722,0
85.25813,27.756724,0
85.258123,27.756725,0
85.258115,27.756727,0
85.258108,27.756728,0
85.2581,27.75673,0
85.258093,27.756731,0
85.258085,27.756733,0
85.258078,27.756734,0
85.25807,27.756736,0
85.258063,27.756737,0
85.258055,27.756739,0
85.258047,27.75674,0
85.25804,27.756742,0
85.258032,27.756743,0
85.258025,27.756744,0
85.258017,27.756746,0
85.25801,27.756747,0
85.258008,27.756758,0
85.258012,27.756766,0
85.258017,27.756775,0
85.258022,27.756783,0
85.258035,27.756802,0
85.258043,27.756817,0
85.258051,27.756833,0
85.258058,27.756847,0
85.258065,27.756863,0
85.258072,27.756879,0
85.25808,27.756894,0
85.258086,27.75691,0
85.258094,27.756925,0
85.258101,27.75694,0
85.258108,27.756954,0
85.258111,27.756968,0
85.258113,27.756979,0
85.258115,27.75699,0
85.258115,27.757,0
85.258118,27.757012,0
85.258118,27.757023,0
85.258118,27.757034,0
85.258119,27.757043,0
85.25812,27.757053,0
85.25812,27.757063,0
85.258121,27.757073,0
85.258123,27.757085,0
85.258124,27.7571,0
85.258126,27.757116,0
85.258129,27.757129,0
85.258133,27.757141,0
85.258138,27.757154,0
85.258143,27.757167,0
85.258147,27.757181,0
85.258152,27.757195,0
85.258153,27.757208,0
85.258154,27.757221,0
85.258157,27.757237,0
85.258161,27.757254,0
85.258166,27.757271,0
85.25817,27.757287,0
85.258171,27.757302,0
85.258172,27.757316,0
85.258172,27.757325,0
85.258171,27.757334,0
85.25817,27.757343,0
85.258168,27.757352,0
85.258166,27.757362,0
85.258163,27.757373,0
85.258161,27.757384,0
85.258159,27.757397,0
85.25816,27.757413,0
85.25816,27.757425,0
85.258158,27.757437,0
85.258156,27.757449,0
85.258152,27.757461,0
85.258148,27.757474,0
85.258143,27.757487,0
85.258137,27.757499,0
85.25813,27.757509,0
85.258122,27.757518,0
85.258115,27.757527,0
85.258108,27.757534,0
85.258101,27.757542,0
85.258094,27.757549,0
85.258088,27.757557,0
85.258081,27.757564,0
85.258074,27.757571,0
85.258067,27.757579,0
85.25806,27.757586,0
85.258054,27.757594,0
85.258047,27.757601,0
85.25804,27.757609,0
85.258033,27.757616,0
85.258026,27.757624,0
85.25802,27.757631,0
85.258013,27.757638,0
85.258006,27.757646,0
85.257999,27.757653,0
85.257992,27.757661,0
85.257985,27.757668,0
85.257979,27.757676,0
85.257972,27.757683,0
85.257965,27.75769,0
85.257958,27.757698,0
85.257951,27.757705,0
85.257945,27.757713,0
85.257938,27.75772,0
85.257931,27.757728,0
85.257924,27.757735,0
85.257917,27.757742,0
85.257911,27.75775,0
85.257904,27.757757,0
85.257897,27.757765,0
85.25789,27.757772,0
85.257883,27.75778,0
85.257877,27.757787,0
85.25787,27.757795,0
85.257863,27.757802,0
85.257856,27.757809,0
85.257849,27.757817,0
85.257843,27.757824,0
85.257836,27.757832,0
85.257829,27.757839,0
85.257822,27.757847,0
85.257815,27.757854,0
85.257809,27.757861,0
85.257802,27.757869,0
85.257795,27.757876,0
85.257788,27.757884,0
85.257781,27.757891,0
85.257775,27.757899,0
85.257768,27.757906,0
85.257761,27.757913,0
85.257754,27.757921,0
85.257747,27.757928,0
85.25774,27.757936,0
85.257734,27.757943,0
85.257727,27.757951,0
85.25772,27.757958,0
85.257713,27.757966,0
85.257702,27.757989,0
85.257698,27.757996,0
85.257695,27.758002,0
85.257692,27.758009,0
85.257688,27.758016,0
85.257685,27.758022,0
85.257682,27.758029,0
85.257678,27.758036,0
85.257675,27.758042,0
85.257672,27.758049,0
85.257668,27.758055,0
85.257665,27.758062,0
85.257662,27.758069,0
85.257658,27.758075,0
85.257655,27.758082,0
85.257652,27.758088,0
85.257648,27.758095,0
85.257645,27.758102,0
85.257642,27.758108,0
85.257638,27.758115,0
85.257635,27.758121,0
85.257632,27.758128,0
85.257628,27.758135,0
85.257625,27.758141,0
85.257622,27.758148,0
85.257618,27.758155,0
85.257615,27.758161,0
85.257611,27.758168,0
85.257608,27.758174,0
85.257605,27.758181,0
85.257601,27.758188,0
85.257598,27.758194,0
85.257595,27.758201,0
85.257591,27.758207,0
85.257588,27.758214,0
85.257585,27.758221,0
85.257581,27.758227,0
85.257578,27.758234,0
85.257575,27.75824,0
85.257571,27.758247,0
85.257568,27.758254,0
85.257565,27.75826,0
85.257561,27.758267,0
85.257558,27.758273,0
85.257555,27.75828,0
85.257551,27.758287,0
85.257548,27.758293,0
85.257545,27.7583,0
85.257541,27.758307,0
85.257538,27.758313,0
85.257535,27.75832,0
85.257531,27.758326,0
85.257528,27.758333,0
85.257525,27.75834,0
85.257521,27.758346,0
85.257518,27.758353,0
85.257515,27.758359,0
85.257511,27.758366,0
85.257508,27.758373,0
85.257504,27.758379,0
85.257501,27.758386,0
85.257498,27.758392,0
85.257494,27.758399,0
85.257491,27.758406,0
85.257488,27.758412,0
85.257484,27.758419,0
85.257481,27.758426,0
85.257478,27.758432,0
85.257474,27.758439,0
85.257471,27.758445,0
85.257468,27.758452,0
85.257464,27.758459,0
85.257461,27.758465,0
85.257458,27.758472,0
85.257454,27.758478,0
85.257451,27.758485,0
85.257448,27.758492,0
85.257444,27.758498,0
85.257441,27.758505,0
85.257438,27.758511,0
85.257434,27.758518,0
85.257431,27.758525,0
85.257428,27.758531,0
85.257424,27.758538,0
85.257421,27.758545,0
85.257418,27.758551,0
85.257414,27.758558,0
85.257411,27.758564,0
85.257407,27.758571,0
85.257404,27.758578,0
85.257401,27.758584,0
85.257397,27.758591,0
85.257394,27.758597,0
85.257391,27.758604,0
85.257387,27.758611,0
85.257379,27.758623,0
85.257375,27.758629,0
85.257375,27.758636,0
85.257377,27.758644,0
85.25738,27.758649,0
85.257381,27.758651,0
85.257372,27.758671,0
85.25737,27.75868,0
85.257369,27.758691,0
85.257368,27.758704,0
85.257367,27.75872,0
85.257367,27.758735,0
85.257367,27.758751,0
85.257368,27.758767,0
85.257371,27.758783,0
85.257373,27.7588,0
85.257374,27.758813,0
85.257373,27.758826,0
85.257372,27.758837,0
85.257371,27.758846,0
85.257371,27.758855,0
85.257372,27.758863,0
85.257372,27.758872,0
85.257373,27.758882,0
85.257375,27.758892,0
85.257377,27.758903,0
85.257379,27.758915,0
85.257382,27.758926,0
85.257383,27.758937,0
85.257386,27.758948,0
85.25739,27.758961,0
85.257395,27.758974,0
85.257397,27.758987,0
85.257397,27.759,0
85.257395,27.759012,0
85.257394,27.759026,0
85.257392,27.75904,0
85.257391,27.759054,0
85.25739,27.759067,0
85.257388,27.759079,0
85.257387,27.75909,0
85.257386,27.759102,0
85.257386,27.759114,0
85.257386,27.759126,0
85.257388,27.759138,0
85.257388,27.759149,0
85.257389,27.759161,0
85.257388,27.759173,0
85.257386,27.759184,0
85.257384,27.759196,0
85.257381,27.759209,0
85.257376,27.759221,0
85.257373,27.759234,0
85.257369,27.759246,0
85.257364,27.759258,0
85.25736,27.759269,0
85.257357,27.75928,0
85.257353,27.75929,0
85.257348,27.759299,0
85.257343,27.759309,0
85.257335,27.759319,0
85.257328,27.759327,0
85.25732,27.759335,0
85.257313,27.759343,0
85.257304,27.759353,0
85.257296,27.759362,0
85.257288,27.759372,0
85.257279,27.759382,0
85.257271,27.759392,0
85.257263,27.759402,0
85.257254,27.759411,0
85.257246,27.759421,0
85.257238,27.759431,0
85.25723,27.759441,0
85.257221,27.75945,0
85.257213,27.75946,0
85.257205,27.75947,0
85.257197,27.75948,0
85.257188,27.75949,0
85.25718,27.759499,0
85.257172,27.759509,0
85.257163,27.759519,0
85.257155,27.759529,0
85.257139,27.759546,0
85.257131,27.75955,0
85.257123,27.759555,0
85.257116,27.75956,0
85.257108,27.759564,0
85.2571,27.759569,0
85.257093,27.759573,0
85.257085,27.759578,0
85.257077,27.759582,0
85.257069,27.759587,0
85.257062,27.759592,0
85.257054,27.759596,0
85.257046,27.759601,0
85.257039,27.759605,0
85.257031,27.75961,0
85.257023,27.759615,0
85.257015,27.759619,0
85.257008,27.759624,0
85.257,27.759628,0
85.256992,27.759633,0
85.256985,27.759637,0
85.256977,27.759642,0
85.256969,27.759647,0
85.256961,27.759651,0
85.256954,27.759656,0
85.256946,27.75966,0
85.256938,27.759665,0
85.25693,27.75967,0
85.256923,27.759674,0
85.256915,27.759679,0
85.256907,27.759683,0
85.2569,27.759688,0
85.256892,27.759692,0
85.256884,27.759697,0
85.256876,27.759702,0
85.256869,27.759706,0
85.256861,27.759711,0
85.256853,27.759715,0
85.256846,27.75972,0
85.256838,27.759725,0
85.25683,27.759729,0
85.25682,27.759746,0
85.256817,27.759755,0
85.256813,27.759764,0
85.25681,27.759773,0
85.256807,27.759782,0
85.256804,27.759791,0
85.256801,27.7598,0
85.256797,27.759809,0
85.256794,27.759818,0
85.256791,27.759827,0
85.256788,27.759836,0
85.256785,27.759845,0
85.256781,27.759854,0
85.256778,27.759863,0
85.256775,27.759872,0
85.256772,27.759881,0
85.256769,27.75989,0
85.256765,27.759899,0
85.256762,27.759909,0
85.256759,27.759918,0
85.256756,27.759927,0
85.256753,27.759936,0
85.256749,27.759945,0
85.256746,27.759954,0
85.256743,27.759963,0
85.25674,27.759972,0
85.256737,27.759981,0
85.256733,27.75999,0
85.25673,27.759999,0
85.256727,27.760008,0
85.256724,27.760017,0
85.256721,27.760026,0
85.256717,27.760035,0
85.256714,27.760044,0
85.256711,27.760053,0
85.256708,27.760062,0
85.256705,27.760071,0
85.256701,27.76008,0
85.256698,27.760089,0
85.256695,27.760098,0
85.256692,27.760108,0
85.256689,27.760117,0
85.256686,27.760126,0
85.256682,27.760135,0
85.256679,27.760144,0
85.256676,27.760153,0
85.256673,27.760162,0
85.25667,27.760171,0
85.256666,27.76018,0
85.256663,27.760189,0
85.25666,27.760198,0
85.256657,27.760207,0
85.256654,27.760216,0
85.25665,27.760225,0
85.256647,27.760234,0
85.256644,27.760243,0
85.256641,27.760252,0
85.256638,27.760261,0
85.256634,27.76027,0
85.256631,27.760279,0
85.256628,27.760288,0
85.256625,27.760298,0
85.256622,27.760307,0
85.256618,27.760316,0
85.256615,27.760325,0
85.256619,27.760341,0
85.256625,27.760348,0
85.256631,27.760354,0
85.256638,27.760361,0
85.256645,27.760369,0
85.256651,27.760378,0
85.256658,27.760384,0
85.256664,27.760391,0
85.25667,27.760397,0
85.256675,27.760402,0
85.256679,27.760409,0
85.256685,27.760416,0
85.256691,27.760424,0
85.256698,27.760433,0
85.256709,27.760442,0
85.256718,27.76045,0
85.256729,27.760459,0
85.25674,27.760467,0
85.256749,27.760476,0
85.256757,27.760485,0
85.256764,27.760495,0
85.256771,27.760503,0
85.256778,27.760512,0
85.256785,27.760519,0
85.256792,27.760527,0
85.256797,27.760534,0
85.256803,27.760542,0
85.256809,27.760549,0
85.256816,27.760554,0
85.256824,27.76056,0
85.256832,27.760565,0
85.256838,27.760571,0
85.256844,27.760579,0
85.256847,27.760589,0
85.256846,27.760602,0
85.256842,27.760615,0
85.256839,27.760626,0
85.256839,27.760636,0
85.256842,27.760643,0
85.256847,27.760647,0
85.256855,27.760651,0
85.256865,27.760655,0
85.256876,27.760659,0
85.256886,27.760662,0
85.256894,27.760666,0
85.256903,27.760671,0
85.256914,27.760675,0
85.256924,27.760679,0
85.256936,27.760685,0
85.256948,27.760691,0
85.256962,27.760695,0
85.256977,27.7607,0
85.256991,27.760706,0
85.257005,27.760713,0
85.257019,27.760722,0
85.25703,27.760732,0
85.25704,27.760738,0
85.25705,27.760745,0
85.25706,27.760752,0
85.25707,27.76076,0
85.257079,27.760767,0
85.257087,27.760773,0
85.257092,27.760779,0
85.257096,27.760787,0
85.257099,27.760797,0
85.257104,27.760808,0
85.25711,27.760818,0
85.257114,27.76083,0
85.257117,27.760842,0
85.257118,27.760853,0
85.257118,27.760864,0
85.257116,27.760876,0
85.257111,27.760886,0
85.257101,27.760895,0
85.257091,27.760905,0
85.25708,27.760915,0
85.25707,27.760928,0
85.257061,27.760938,0
85.257052,27.760948,0
85.257045,27.760958,0
85.257038,27.760968,0
85.257031,27.760977,0
85.257024,27.760986,0
85.257018,27.760994,0
85.257011,27.761003,0
85.257001,27.761011,0
85.256992,27.761021,0
85.256982,27.761031,0
85.256972,27.761043,0
85.256963,27.761055,0
85.256956,27.761068,0
85.25695,27.761081,0
85.256943,27.761093,0
85.256938,27.761104,0
85.256933,27.761115,0
85.256929,27.761128,0
85.256925,27.761142,0
85.256921,27.761155,0
85.256915,27.761168,0
85.25691,27.761181,0
85.256905,27.761193,0
85.256899,27.761203,0
85.25689,27.761212,0
85.256879,27.761219,0
85.256865,27.761225,0
85.256852,27.761231,0
85.256838,27.761237,0
85.256825,27.761242,0
85.256811,27.761247,0
85.256797,27.761251,0
85.256784,27.761254,0
85.256772,27.761258,0
85.25676,27.76126,0
85.256748,27.761258,0
85.256736,27.761254,0
85.256725,27.761251,0
85.256713,27.761249,0
85.256703,27.761248,0
85.256693,27.761247,0
85.256682,27.761247,0
85.256672,27.761246,0
85.256661,27.761246,0
85.25665,27.761244,0
85.256637,27.761243,0
85.256623,27.761243,0
85.25661,27.761243,0
85.256598,27.761243,0
85.256587,27.761242,0
85.256576,27.76124,0
85.256566,27.761238,0
85.256555,27.761236,0
85.256543,27.761235,0
85.256531,27.761234,0
85.256517,27.761233,0
85.256502,27.761233,0
85.256487,27.761236,0
85.256473,27.76124,0
85.256458,27.761242,0
85.256442,27.761244,0
85.256425,27.761246,0
85.256409,27.761247,0
85.256395,27.761247,0
85.256383,27.761248,0
85.25637,27.76125,0
85.256358,27.761253,0
85.256345,27.761257,0
85.256333,27.761261,0
85.256322,27.761266,0
85.256311,27.76127,0
85.256299,27.761274,0
85.256287,27.761281,0
85.256277,27.761284,0
85.256266,27.761287,0
85.256256,27.76129,0
85.256246,27.761293,0
85.256236,27.761296,0
85.256225,27.761299,0
85.256215,27.761302,0
85.256205,27.761305,0
85.256181,27.76131,0
85.256168,27.761313,0
85.256156,27.761315,0
85.256145,27.761314,0
85.256133,27.761313,0
85.256121,27.761315,0
85.25611,27.761318,0
85.2561,27.761322,0
85.256089,27.761327,0
85.256077,27.761333,0
85.256064,27.761337,0
85.256052,27.761339,0
85.256041,27.761341,0
85.256029,27.761344,0
85.256018,27.761346,0
85.256007,27.761348,0
85.255995,27.761352,0
85.255984,27.761358,0
85.255973,27.761364,0
85.255964,27.761372,0
85.255955,27.761378,0
85.255946,27.761381,0
85.255935,27.761382,0
85.255924,27.761383,0
85.255911,27.761383,0
85.255899,27.761385,0
85.255886,27.761389,0
85.255873,27.761393,0
85.255861,27.761397,0
85.255851,27.761401,0
85.25584,27.761407,0
85.255832,27.761413,0
85.255825,27.761421,0
85.255817,27.761431,0
85.255809,27.76144,0
85.255801,27.761448,0
85.255795,27.761455,0
85.25579,27.761464,0
85.255782,27.761472,0
85.255773,27.761479,0
85.255762,27.761485,0
85.255753,27.761492,0
85.255744,27.761497,0
85.255736,27.761507,0
85.255725,27.761513,0
85.255713,27.761517,0
85.2557,27.76152,0
85.255688,27.761523,0
85.255677,27.761525,0
85.255667,27.761529,0
85.255658,27.761531,0
85.255649,27.761532,0
85.255641,27.76153,0
85.255632,27.761528,0
85.255623,27.761523,0
85.255614,27.76152,0
85.255605,27.761514,0
85.255595,27.761508,0
85.255584,27.761503,0
85.255572,27.761498,0
85.255559,27.761492,0
85.255545,27.761486,0
85.255531,27.761478,0
85.255515,27.761471,0
85.255499,27.761466,0
85.255484,27.76146,0
85.25547,27.761456,0
85.255455,27.761452,0
85.255441,27.76145,0
85.255429,27.761451,0
85.255421,27.761453,0
85.255413,27.761454,0
85.255406,27.761457,0
85.255396,27.761463,0
85.255387,27.761467,0
85.255378,27.761469,0
85.25537,27.761473,0
85.255371,27.761483,0
85.255372,27.761492,0
85.255373,27.761502,0
85.255374,27.761511,0
85.255375,27.761521,0
85.255376,27.76153,0
85.255377,27.76154,0
85.255378,27.76155,0
85.255379,27.761559,0
85.25538,27.761569,0
85.255381,27.761578,0
85.255382,27.761588,0
85.255383,27.761597,0
85.255384,27.761607,0
85.255385,27.761617,0
85.255386,27.761626,0
85.255387,27.761636,0
85.255388,27.761645,0
85.255389,27.761655,0
85.25539,27.761664,0
85.255391,27.761674,0
85.255392,27.761684,0
85.255393,27.761693,0
85.255394,27.761703,0
85.255395,27.761712,0
85.255396,27.761722,0
85.255397,27.761731,0
85.255398,27.761741,0
85.255399,27.761751,0
85.2554,27.76176,0
85.255401,27.76177,0
85.255402,27.761779,0
85.255403,27.761789,0
85.255404,27.761798,0
85.255405,27.761808,0
85.255406,27.761818,0
85.255407,27.761827,0
85.255408,27.761837,0
85.255409,27.761846,0
85.25541,27.761856,0
85.255411,27.761865,0
85.255412,27.761875,0
85.255413,27.761885,0
85.255414,27.761894,0
85.255415,27.761904,0
85.255416,27.761913,0
85.255417,27.761923,0
85.255418,27.761932,0
85.255419,27.761942,0
85.25542,27.761952,0
85.255421,27.761961,0
85.255422,27.761971,0
85.255423,27.76198,0
85.255424,27.76199,0
85.255425,27.761999,0
85.255426,27.762009,0
85.255427,27.762019,0
85.255428,27.762028,0
85.255429,27.762038,0
85.25542,27.762057,0
85.255415,27.762067,0
85.25541,27.762078,0
85.255405,27.762089,0
85.2554,27.7621,0
85.255394,27.76211,0
85.255389,27.762121,0
85.255384,27.762132,0
85.255379,27.762142,0
85.255373,27.762153,0
85.255368,27.762164,0
85.255363,27.762175,0
85.255358,27.762185,0
85.255352,27.762196,0
85.255347,27.762207,0
85.255342,27.762218,0
85.255337,27.762228,0
85.255332,27.762239,0
85.255326,27.76225,0
85.255321,27.76226,0
85.255316,27.762271,0
85.255311,27.762282,0
85.255305,27.762293,0
85.2553,27.762303,0
85.255295,27.762314,0
85.25529,27.762325,0
85.255285,27.762336,0
85.255279,27.762346,0
85.255274,27.762357,0
85.255269,27.762368,0
85.255264,27.762379,0
85.255258,27.762389,0
85.255253,27.7624,0
85.255248,27.762411,0
85.255243,27.762421,0
85.255238,27.762432,0
85.255232,27.762443,0
85.255227,27.762454,0
85.255222,27.762464,0
85.255217,27.762475,0
85.255211,27.762486,0
85.255206,27.762497,0
85.255201,27.762507,0
85.255196,27.762518,0
85.255191,27.762529,0
85.255185,27.762539,0
85.25518,27.76255,0
85.255175,27.762561,0
85.25517,27.762572,0
85.255164,27.762582,0
85.255159,27.762593,0
85.255154,27.762604,0
85.255149,27.762615,0
85.255144,27.762625,0
85.255138,27.762636,0
85.255133,27.762647,0
85.255128,27.762657,0
85.255123,27.762668,0
85.255117,27.762679,0
85.255112,27.76269,0
85.255106,27.762713,0
85.255102,27.762725,0
85.255098,27.762737,0
85.255094,27.762748,0
85.25509,27.76276,0
85.255086,27.762772,0
85.255082,27.762783,0
85.255078,27.762795,0
85.255074,27.762807,0
85.25507,27.762818,0
85.255066,27.76283,0
85.255062,27.762842,0
85.255058,27.762853,0
85.255054,27.762865,0
85.25505,27.762877,0
85.255046,27.762889,0
85.255042,27.7629,0
85.255039,27.762912,0
85.255035,27.762924,0
85.255031,27.762935,0
85.255027,27.762947,0
85.255023,27.762959,0
85.255019,27.76297,0
85.255015,27.762982,0
85.255011,27.762994,0
85.254996,27.76302,0
85.254986,27.763036,0
85.254977,27.763049,0
85.254966,27.763063,0
85.254953,27.763071,0
85.254943,27.76308,0
85.254931,27.763087,0
85.254919,27.763093,0
85.254907,27.763099,0
85.254894,27.763102,0
85.254883,27.763104,0
85.25487,27.763104,0
85.254859,27.763106,0
85.254846,27.76311,0
85.254834,27.763112,0
85.254822,27.763114,0
85.254812,27.763117,0
85.254802,27.763122,0
85.254793,27.763129,0
85.254783,27.763137,0
85.254774,27.763148,0
85.254766,27.763163,0
85.254756,27.763172,0
85.254746,27.76318,0
85.254737,27.763188,0
85.254728,27.763195,0
85.254717,27.763203,0
85.254708,27.763209,0
85.254699,27.763214,0
85.25469,27.763219,0
85.254682,27.763224,0
85.254673,27.763229,0
85.254664,27.763234,0
85.254655,27.763239,0
85.254646,27.763244,0
85.254638,27.763249,0
85.254629,27.763254,0
85.25462,27.763259,0
85.254611,27.763264,0
85.254603,27.76327,0
85.254594,27.763275,0
85.254585,27.76328,0
85.254576,27.763285,0
85.254568,27.76329,0
85.254559,27.763295,0
85.25455,27.7633,0
85.254541,27.763305,0
85.254532,27.76331,0
85.254524,27.763315,0
85.254515,27.76332,0
85.254506,27.763325,0
85.254497,27.76333,0
85.254489,27.763336,0
85.25448,27.763341,0
85.254471,27.763346,0
85.254462,27.763351,0
85.254454,27.763356,0
85.254445,27.763361,0
85.254436,27.763366,0
85.254427,27.763371,0
85.254419,27.763376,0
85.25441,27.763381,0
85.254401,27.763386,0
85.254392,27.763391,0
85.254383,27.763397,0
85.254375,27.763402,0
85.254366,27.763407,0
85.254357,27.763412,0
85.254348,27.763417,0
85.25434,27.763422,0
85.254331,27.763427,0
85.254322,27.763432,0
85.254313,27.763437,0
85.254305,27.763442,0
85.254281,27.763436,0
85.254268,27.763422,0
85.254257,27.763408,0
85.254248,27.763394,0
85.254239,27.763384,0
85.25423,27.763376,0
85.254221,27.763366,0
85.254212,27.763354,0
85.254202,27.763343,0
85.254192,27.763334,0
85.254182,27.763326,0
85.254171,27.76332,0
85.254161,27.763314,0
85.25415,27.763308,0
85.254139,27.763301,0
85.254127,27.763294,0
85.254115,27.763288,0
85.254103,27.763286,0
85.254092,27.763282,0
85.254082,27.763276,0
85.254074,27.763271,0
85.254066,27.763265,0
85.25406,27.763258,0
85.254053,27.763256,0
85.254043,27.763254,0
85.254031,27.763252,0
85.254016,27.763249,0
85.254001,27.763247,0
85.253985,27.763246,0
85.253971,27.763247,0
85.253958,27.763247,0
85.253946,27.763247,0
85.253935,27.763247,0
85.253926,27.76325,0
85.253916,27.763254,0
85.253907,27.76326,0
85.253897,27.763263,0
85.253887,27.763262,0
85.253876,27.763257,0
85.253867,27.763251,0
85.253857,27.763243,0
85.253845,27.763235,0
85.253832,27.763227,0
85.253819,27.763221,0
85.253805,27.763216,0
85.253791,27.763215,0
85.253777,27.763215,0
85.253763,27.763215,0
85.25375,27.763215,0
85.253737,27.763215,0
85.253725,27.76321,0
85.253714,27.763205,0
85.253704,27.763201,0
85.253694,27.763198,0
85.253684,27.763197,0
85.253673,27.763197,0
85.253662,27.763197,0
85.253651,27.763196,0
85.253639,27.763194,0
85.253627,27.76319,0
85.253614,27.763182,0
85.253602,27.763175,0
85.25359,27.763166,0
85.25358,27.763154,0
85.253572,27.763141,0
85.253564,27.763124,0
85.253556,27.763105,0
85.253548,27.763085,0
85.253542,27.763065,0
85.253539,27.763051,0
85.253536,27.763042,0
85.253533,27.763035,0
85.25353,27.763028,0
85.253527,27.763023,0
85.253524,27.763017,0
85.25352,27.763011,0
85.253515,27.763002,0
85.253508,27.762996,0
85.253498,27.762988,0
85.253488,27.762984,0
85.253479,27.762979,0
85.253467,27.762979,0
85.253455,27.762979,0
85.253443,27.762979,0
85.253431,27.762979,0
85.253418,27.762978,0
85.253406,27.762978,0
85.253394,27.762978,0
85.253382,27.762978,0
85.25337,27.762978,0
85.253358,27.762977,0
85.253346,27.762977,0
85.253334,27.762977,0
85.253322,27.762977,0
85.25331,27.762976,0
85.253298,27.762976,0
85.253286,27.762976,0
85.253274,27.762976,0
85.253261,27.762976,0
85.253249,27.762975,0
85.253237,27.762975,0
85.253225,27.762975,0
85.253213,27.762975,0
85.253201,27.762975,0
85.253189,27.762974,0
85.253177,27.762974,0
85.253165,27.762974,0
85.253153,27.762974,0
85.253141,27.762974,0
85.253129,27.762973,0
85.253117,27.762973,0
85.253104,27.762973,0
85.253092,27.762973,0
85.25308,27.762973,0
85.253068,27.762972,0
85.253056,27.762972,0
85.253026,27.762969,0
85.253006,27.762966,0
85.252986,27.762963,0
85.252968,27.762959,0
85.252954,27.762957,0
85.252941,27.762955,0
85.252929,27.762952,0
85.252917,27.762951,0
85.252905,27.762951,0
85.252892,27.762951,0
85.25288,27.762949,0
85.252867,27.762946,0
85.252855,27.762944,0
85.252843,27.762943,0
85.252833,27.762943,0
85.252822,27.762942,0
85.252813,27.762942,0
85.252803,27.762943,0
85.252793,27.762945,0
85.252782,27.762943,0
85.252771,27.762941,0
85.252759,27.762939,0
85.252748,27.762938,0
85.252738,27.762933,0
85.252728,27.762928,0
85.25272,27.762924,0
85.252712,27.762919,0
85.252704,27.762914,0
85.252696,27.762909,0
85.252688,27.762904,0
85.25268,27.762899,0
85.252672,27.762894,0
85.252665,27.76289,0
85.252657,27.762885,0
85.252649,27.76288,0
85.252641,27.762875,0
85.252633,27.76287,0
85.252625,27.762865,0
85.252617,27.76286,0
85.252609,27.762856,0
85.252601,27.762851,0
85.252593,27.762846,0
85.252585,27.762841,0
85.252577,27.762836,0
85.25257,27.762831,0
85.252562,27.762826,0
85.252554,27.762822,0
85.252546,27.762817,0
85.252538,27.762812,0
85.25253,27.762807,0
85.252522,27.762802,0
85.252514,27.762797,0
85.252506,27.762792,0
85.252498,27.762787,0
85.25249,27.762783,0
85.252482,27.762778,0
85.252475,27.762773,0
85.252467,27.762768,0
85.252459,27.762763,0
85.252451,27.762758,0
85.252443,27.762753,0
85.252435,27.762749,0
85.252427,27.762744,0
85.252419,27.762739,0
85.252411,27.762734,0
85.252403,27.762729,0
85.252395,27.762724,0
85.252387,27.762719,0
85.25238,27.762715,0
85.252372,27.76271,0
85.252364,27.762705,0
85.252356,27.7627,0
85.252348,27.762695,0
85.25234,27.76269,0
85.252332,27.762685,0
85.252324,27.762681,0
85.252316,27.762676,0
85.252308,27.762671,0
85.2523,27.762666,0
85.252292,27.762661,0
85.252285,27.762656,0
85.252277,27.762651,0
85.252269,27.762647,0
85.252251,27.762635,0
85.252243,27.762629,0
85.252235,27.762623,0
85.252229,27.762621,0
85.252222,27.762618,0
85.252216,27.762616,0
85.252209,27.762614,0
85.252203,27.762612,0
85.252196,27.76261,0
85.252183,27.762613,0
85.252174,27.762623,0
85.252165,27.762632,0
85.252156,27.762641,0
85.252148,27.76265,0
85.252139,27.76266,0
85.25213,27.762669,0
85.252122,27.762678,0
85.252113,27.762687,0
85.252104,27.762697,0
85.252096,27.762706,0
85.252087,27.762715,0
85.252078,27.762725,0
85.252069,27.762734,0
85.252061,27.762743,0
85.252052,27.762752,0
85.252043,27.762762,0
85.252035,27.762771,0
85.252026,27.76278,0
85.252017,27.762789,0
85.252009,27.762799,0
85.252,27.762808,0
85.251991,27.762817,0
85.251982,27.762826,0
85.251974,27.762836,0
85.251965,27.762845,0
85.251956,27.762854,0
85.251948,27.762864,0
85.251939,27.762873,0
85.25193,27.762882,0
85.251922,27.762891,0
85.251913,27.762901,0
85.251904,27.76291,0
85.251895,27.762919,0
85.251887,27.762928,0
85.251878,27.762938,0
85.251869,27.762947,0
85.251861,27.762956,0
85.251852,27.762965,0
85.251843,27.762975,0
85.251835,27.762984,0
85.251826,27.762993,0
85.251817,27.763003,0
85.251808,27.763012,0
85.2518,27.763021,0
85.251791,27.76303,0
85.251782,27.76304,0
85.251774,27.763049,0
85.251765,27.763058,0
85.251756,27.763067,0
85.251748,27.763077,0
85.251739,27.763086,0
85.25173,27.763095,0
85.251714,27.763117,0
85.251704,27.763125,0
85.251694,27.763132,0
85.251685,27.76314,0
85.251675,27.763148,0
85.251666,27.763155,0
85.251656,27.763163,0
85.251646,27.763171,0
85.251637,27.763179,0
85.251627,27.763186,0
85.251617,27.763194,0
85.251608,27.763202,0
85.251598,27.763209,0
85.251588,27.763217,0
85.251579,27.763225,0
85.251569,27.763233,0
85.251559,27.76324,0
85.25155,27.763248,0
85.25154,27.763256,0
85.25153,27.763263,0
85.251521,27.763271,0
85.251511,27.763279,0
85.251501,27.763287,0
85.251492,27.763294,0
85.251482,27.763302,0
85.251473,27.76331,0
85.251463,27.763317,0
85.251453,27.763325,0
85.251444,27.763333,0
85.251434,27.763341,0
85.251424,27.763348,0
85.251415,27.763356,0
85.251405,27.763364,0
85.251395,27.763371,0
85.251386,27.763379,0
85.251376,27.763387,0
85.251366,27.763395,0
85.251357,27.763402,0
85.251347,27.76341,0
85.251337,27.763418,0
85.251328,27.763425,0
85.251318,27.763433,0
85.251308,27.763441,0
85.251299,27.763449,0
85.251289,27.763456,0
85.25128,27.763464,0
85.25127,27.763472,0
85.25126,27.76348,0
85.251251,27.763487,0
85.251241,27.763495,0
85.251231,27.763503,0
85.251222,27.76351,0
85.251212,27.763518,0
85.251202,27.763526,0
85.251193,27.763534,0
85.251183,27.763541,0
85.251173,27.763549,0
85.251164,27.763557,0
85.251154,27.763564,0
85.251144,27.763572,0
85.251123,27.763584,0
85.251115,27.763593,0
85.251108,27.763601,0
85.2511,27.763609,0
85.251092,27.763617,0
85.251085,27.763625,0
85.251077,27.763633,0
85.25107,27.763642,0
85.251062,27.76365,0
85.251054,27.763658,0
85.251047,27.763666,0
85.251039,27.763674,0
85.251032,27.763682,0
85.251024,27.763691,0
85.251017,27.763699,0
85.251009,27.763707,0
85.251001,27.763715,0
85.250994,27.763723,0
85.250986,27.763731,0
85.250979,27.76374,0
85.250971,27.763748,0
85.250963,27.763756,0
85.250956,27.763764,0
85.250948,27.763772,0
85.250941,27.76378,0
85.250933,27.763789,0
85.250925,27.763797,0
85.250918,27.763805,0
85.25091,27.763813,0
85.250903,27.763821,0
85.250895,27.763829,0
85.250887,27.763838,0
85.25088,27.763846,0
85.250872,27.763854,0
85.250865,27.763862,0
85.250857,27.76387,0
85.25085,27.763878,0
85.250842,27.763886,0
85.250834,27.763895,0
85.250827,27.763903,0
85.250819,27.763911,0
85.250812,27.763919,0
85.250804,27.763927,0
85.250796,27.763935,0
85.250789,27.763944,0
85.250781,27.763952,0
85.250774,27.76396,0
85.250766,27.763968,0
85.250758,27.763976,0
85.250751,27.763984,0
85.250743,27.763993,0
85.250736,27.764001,0
85.250728,27.764009,0
85.25072,27.764017,0
85.250713,27.764025,0
85.250705,27.764033,0
85.250698,27.764042,0
85.25069,27.76405,0
85.250683,27.764058,0
85.250675,27.764066,0
85.250667,27.764082,0
85.250665,27.764093,0
85.250664,27.764105,0
85.250662,27.764116,0
85.250661,27.764128,0
85.250659,27.764139,0
85.250657,27.764151,0
85.250656,27.764162,0
85.250654,27.764174,0
85.250653,27.764186,0
85.250651,27.764197,0
85.250649,27.764209,0
85.250648,27.76422,0
85.250646,27.764232,0
85.250645,27.764243,0
85.250643,27.764255,0
85.250641,27.764266,0
85.25064,27.764278,0
85.250638,27.764289,0
85.250637,27.764301,0
85.250635,27.764312,0
85.250633,27.764324,0
85.250632,27.764335,0
85.25063,27.764347,0
85.250629,27.764358,0
85.250619,27.764386,0
85.250609,27.764403,0
85.250601,27.76442,0
85.250591,27.764433,0
85.250579,27.764445,0
85.250567,27.764455,0
85.250556,27.764466,0
85.250546,27.764477,0
85.250536,27.764489,0
85.250527,27.764502,0
85.250517,27.764515,0
85.250509,27.76453,0
85.250499,27.764546,0
85.250489,27.764561,0
85.250481,27.764578,0
85.250474,27.764593,0
85.250469,27.764608,0
85.250464,27.764621,0
85.250459,27.764634,0
85.250454,27.764647,0
85.250447,27.764659,0
85.250439,27.764669,0
85.250431,27.76468,0
85.250423,27.764691,0
85.250413,27.764701,0
85.250404,27.764712,0
85.250398,27.764726,0
85.250392,27.764743,0
85.250385,27.764756,0
85.250377,27.764765,0
85.250369,27.764772,0
85.250359,27.764779,0
85.250351,27.764785,0
85.250346,27.764792,0
85.25034,27.7648,0
85.250334,27.764809,0
85.250327,27.764818,0
85.25032,27.764829,0
85.250312,27.76484,0
85.250305,27.764851,0
85.250298,27.764862,0
85.250295,27.764873,0
85.250291,27.764883,0
85.250287,27.764894,0
85.250284,27.764906,0
85.250281,27.764918,0
85.250278,27.76493,0
85.250274,27.764943,0
85.250269,27.764955,0
85.250266,27.764969,0
85.250261,27.764982,0
85.250255,27.764995,0
85.250247,27.765008,0
85.250243,27.765022,0
85.250238,27.765035,0
85.250234,27.765046,0
85.25023,27.765057,0
85.250227,27.765067,0
85.250224,27.765077,0
85.250221,27.765084,0
85.250217,27.76509,0
85.250214,27.765097,0
85.25021,27.765103,0
85.250206,27.76511,0
85.250192,27.765125,0
85.25018,27.765135,0
85.250168,27.765146,0
85.250158,27.765156,0
85.250147,27.765167,0
85.250136,27.765179,0
85.250123,27.765188,0
85.250109,27.765196,0
85.250093,27.765202,0
85.250077,27.765206,0
85.250061,27.765211,0
85.250045,27.765216,0
85.250027,27.765223,0
85.25001,27.76523,0
85.249993,27.765236,0
85.249981,27.765238,0
85.24997,27.765241,0
85.24996,27.765245,0
85.24995,27.765248,0
85.249941,27.765252,0
85.249936,27.765254,0
85.249307,27.766161,0
85.24929,27.76617,0
85.24927,27.76618,0
85.24926,27.76618,0
85.24922,27.76618,0
85.2492,27.76616,0
85.24917,27.76614,0
85.24914,27.7661,0
85.24909,27.766,0
85.24906,27.76594,0
85.24902,27.7659,0
85.24897,27.76585,0
85.24889,27.76583,0
85.24881,27.76582,0
85.2488,27.76583,0
85.24877,27.76583,0
85.24873,27.76584,0
85.24868,27.76587,0
85.24863,27.76589,0
85.2486,27.76593,0
85.24856,27.76598,0
85.24853,27.76602,0
85.24845,27.7661,0
85.24832,27.7662,0
85.2483,27.76623,0
85.24828,27.76626,0
85.24825,27.76629,0
85.24823,27.76632,0
85.24817,27.76641,0
85.2481,27.7665,0
85.24805,27.76656,0
85.24802,27.76661,0
85.24801,27.76662,0
85.248,27.76664,0
85.24801,27.76667,0
85.24802,27.76672,0
85.24805,27.76688,0
85.24807,27.76697,0
85.24808,27.76704,0
85.24809,27.76712,0
85.24809,27.76717,0
85.24807,27.76726,0
85.24805,27.7673,0
85.24803,27.76735,0
85.24798,27.76744,0
85.24791,27.76753,0
85.247912,27.767535,0
85.2479,27.76734,0
85.24789,27.76722,0
85.24786,27.76713,0
85.24785,27.76711,0
85.2478,27.76701,0
85.2477,27.76689,0
85.24753,27.76671,0
85.2475,27.76666,0
85.24749,27.7666,0
85.24748,27.76654,0
85.24749,27.76651,0
85.24751,27.76648,0
85.24757,27.76636,0
85.24757,27.76635,0
85.24762,27.76623,0
85.24764,27.76616,0
85.24765,27.76606,0
85.24767,27.766,0
85.24768,27.76597,0
85.24773,27.76588,0
85.24777,27.76582,0
85.24779,27.76577,0
85.2478,27.76567,0
85.24781,27.76562,0
85.24781,27.76549,0
85.2478,27.76547,0
85.24779,27.76546,0
85.24778,27.76545,0
85.24777,27.76544,0
85.24775,27.76545,0
85.24773,27.76546,0
85.24771,27.76548,0
85.24769,27.7655,0
85.24767,27.76552,0
85.24767,27.76553,0
85.24764,27.76558,0
85.2476,27.76565,0
85.24754,27.76577,0
85.24747,27.76583,0
85.24731,27.76598,0
85.24724,27.76605,0
85.24719,27.76609,0
85.24714,27.76614,0
85.2471,27.76621,0
85.24704,27.76632,0
85.24699,27.7664,0
85.24694,27.76649,0
85.24692,27.76653,0
85.24688,27.76658,0
85.24685,27.76664,0
85.24683,27.76668,0
85.24682,27.7667,0
85.24681,27.76671,0
85.24679,27.76672,0
85.24678,27.76672,0
85.24676,27.76672,0
85.24675,27.76672,0
85.24673,27.76672,0
85.24671,27.76671,0
85.24668,27.76668,0
85.24663,27.76663,0
85.24657,27.76655,0
85.24655,27.76652,0
85.24651,27.7665,0
85.24649,27.76649,0
85.24645,27.76647,0
85.24638,27.76646,0
85.24629,27.76646,0
85.24621,27.76646,0
85.24612,27.76646,0
85.24608,27.76648,0
85.24593,27.76654,0
85.24574,27.76661,0
85.24572,27.76662,0
85.24569,27.76663,0
85.24567,27.76663,0
85.24566,27.76663,0
85.24565,27.76663,0
85.24564,27.76662,0
85.24563,27.7666,0
85.245626,27.766603,0
85.24562,27.76653,0
85.24561,27.76648,0
85.24562,27.76645,0
85.24563,27.7664,0
85.24564,27.76638,0
85.24566,27.76632,0
85.24572,27.76624,0
85.24579,27.76607,0
85.24581,27.76603,0
85.24583,27.76597,0
85.24585,27.76592,0
85.24588,27.76588,0
85.2459,27.76587,0
85.24593,27.76585,0
85.24595,27.76584,0
85.24596,27.76584,0
85.24598,27.76583,0
85.246,27.76583,0
85.24602,27.76584,0
85.24605,27.76585,0
85.24607,27.76586,0
85.24608,27.76586,0
85.24611,27.76589,0
85.24614,27.76592,0
85.24615,27.76593,0
85.24617,27.76593,0
85.24618,27.76594,0
85.2462,27.76594,0
85.24622,27.76593,0
85.24623,27.76592,0
85.24624,27.76592,0
85.24626,27.76589,0
85.24626,27.76586,0
85.24627,27.76579,0
85.24627,27.76574,0
85.24628,27.7657,0
85.24628,27.76565,0
85.24628,27.76559,0
85.24625,27.76549,0
85.24623,27.76544,0
85.24622,27.76539,0
85.24621,27.76535,0
85.24616,27.76526,0
85.24612,27.76516,0
85.2461,27.76507,0
85.24608,27.76498,0
85.24607,27.76487,0
85.24607,27.76485,0
85.24607,27.76482,0
85.24606,27.7648,0
85.24605,27.76478,0
85.24602,27.76477,0
85.24597,27.76474,0
85.24594,27.76472,0
85.24591,27.7647,0
85.2459,27.76468,0
85.24589,27.76466,0
85.24588,27.76463,0
85.24586,27.76451,0
85.24585,27.76442,0
85.24584,27.7644,0
85.24582,27.76435,0
85.24579,27.76434,0
85.24577,27.76433,0
85.24575,27.76432,0
85.24571,27.76433,0
85.24565,27.76434,0
85.24551,27.76438,0
85.245513,27.764378,0
85.24549,27.76419,0
85.24548,27.76414,0
85.24546,27.76407,0
85.24542,27.76392,0
85.2454,27.76387,0
85.2454,27.76379,0
85.2454,27.76373,0
85.24542,27.76367,0
85.24548,27.76353,0
85.24552,27.76343,0
85.24553,27.76338,0
85.24554,27.76331,0
85.24557,27.76318,0
85.24557,27.76311,0
85.24556,27.76306,0
85.24555,27.76303,0
85.24554,27.76301,0
85.24551,27.76299,0
85.24549,27.76299,0
85.24544,27.76299,0
85.24536,27.76299,0
85.24533,27.763,0
85.24527,27.76301,0
85.24517,27.76301,0
85.24515,27.763,0
85.24512,27.76299,0
85.24511,27.76299,0
85.24507,27.76297,0
85.24504,27.76296,0
85.24501,27.76295,0
85.24498,27.76294,0
85.24488,27.76293,0
85.24484,27.76293,0
85.24477,27.76295,0
85.24469,27.76297,0
85.24454,27.76301,0
85.24449,27.76302,0
85.24432,27.76302,0
85.24428,27.76303,0
85.24423,27.76303,0
85.24421,27.76303,0
85.24419,27.76302,0
85.24416,27.763,0
85.24414,27.76298,0
85.24412,27.76294,0
85.24412,27.76292,0
85.24412,27.7629,0
85.24413,27.76288,0
85.2442,27.76276,0
85.2443,27.76264,0
85.24439,27.76253,0
85.24443,27.7625,0
85.24452,27.76244,0
85.24466,27.76236,0
85.24471,27.76233,0
85.24479,27.76226,0
85.24481,27.76223,0
85.24481,27.76222,0
85.24481,27.7622,0
85.2448,27.76208,0
85.2448,27.76204,0
85.2448,27.76201,0
85.24481,27.76198,0
85.24481,27.76197,0
85.24483,27.76194,0
85.24492,27.76184,0
85.24495,27.76179,0
85.24497,27.76175,0
85.24498,27.76173,0
85.24499,27.76171,0
85.245,27.76167,0
85.245,27.76164,0
85.24498,27.76162,0
85.24493,27.7616,0
85.24489,27.7616,0
85.24486,27.7616,0
85.24481,27.7616,0
85.24475,27.76163,0
85.24456,27.7617,0
85.24446,27.76173,0
85.24433,27.76177,0
85.24426,27.76179,0
85.24414,27.76181,0
85.2441,27.76184,0
85.24395,27.762,0
85.24389,27.76209,0
85.24378,27.76217,0
85.24373,27.76218,0
85.2437,27.76219,0
85.24367,27.76219,0
85.24365,27.76219,0
85.24359,27.76217,0
85.24357,27.76216,0
85.24353,27.76216,0
85.24351,27.76216,0
85.24348,27.76216,0
85.24337,27.76218,0
85.2433,27.76219,0
85.24328,27.76219,0
85.24323,27.7622,0
85.24321,27.76221,0
85.24319,27.76223,0
85.24317,27.76225,0
85.24309,27.7623,0
85.24306,27.76231,0
85.24303,27.76232,0
85.24298,27.76233,0
85.24293,27.76234,0
85.2429,27.76233,0
85.24287,27.76233,0
85.24279,27.76231,0
85.24276,27.7623,0
85.24268,27.76226,0
85.24267,27.76225,0
85.24266,27.76224,0
85.24265,27.76222,0
85.24263,27.76215,0
85.24262,27.76212,0
85.2426,27.76203,0
85.24259,27.76196,0
85.24254,27.76179,0
85.24251,27.76175,0
85.24248,27.76169,0
85.24244,27.76159,0
85.24234,27.76134,0
85.24231,27.7613,0
85.24229,27.76127,0
85.24228,27.76125,0
85.24224,27.76122,0
85.2422,27.76118,0
85.2422,27.76117,0
85.24219,27.76116,0
85.24216,27.76116,0
85.24215,27.76116,0
85.24214,27.76116,0
85.24211,27.76116,0
85.242109,27.761159,0
</coordinates>
</LineString>
</Placemark>
</Folder>
</Document>
</kml>
