<?xml version="1.0" encoding="UTF-8"?>
<kml xmlns="http://www.opengis.net/kml/2.2">
<Document>
<name>WNW_6.Sisneri</name>
<description/>
<Style id="icon-1899-DB4436-nodesc-normal">
<IconStyle>
<color>ff3644db</color>
<scale>1</scale>
<Icon>
<href>https://www.gstatic.com/mapspro/images/stock/503-wht-blank_maps.png</href>
</Icon>
<hotSpot x="32" xunits="pixels" y="64" yunits="insetPixels"/>
</IconStyle>
<LabelStyle>
<scale>0</scale>
</LabelStyle>
<BalloonStyle>
<text><![CDATA[<h3>$[name]</h3>]]></text>
</BalloonStyle>
</Style>
<Style id="icon-1899-DB4436-nodesc-highlight">
<IconStyle>
<color>ff3644db</color>
<scale>1</scale>
<Icon>
<href>https://www.gstatic.com/mapspro/images/stock/503-wht-blank_maps.png</href>
</Icon>
<hotSpot x="32" xunits="pixels" y="64" yunits="insetPixels"/>
</IconStyle>
<LabelStyle>
<scale>1</scale>
</LabelStyle>
<BalloonStyle>
<text><![CDATA[<h3>$[name]</h3>]]></text>
</BalloonStyle>
</Style>
<StyleMap id="icon-1899-DB4436-nodesc">
<Pair>
<key>normal</key>
<styleUrl>#icon-1899-DB4436-nodesc-normal</styleUrl>
</Pair>
<Pair>
<key>highlight</key>
<styleUrl>#icon-1899-DB4436-nodesc-highlight</styleUrl>
</Pair>
</StyleMap>
<Style id="line-FF0000-2000-nodesc-normal">
<LineStyle>
<color>ff0000ff</color>
<width>2</width>
</LineStyle>
<BalloonStyle>
<text><![CDATA[<h3>$[name]</h3>]]></text>
</BalloonStyle>
</Style>
<Style id="line-FF0000-2000-nodesc-highlight">
<LineStyle>
<color>ff0000ff</color>
<width>3</width>
</LineStyle>
<BalloonStyle>
<text><![CDATA[<h3>$[name]</h3>]]></text>
</BalloonStyle>
</Style>
<StyleMap id="line-FF0000-2000-nodesc">
<Pair>
<key>normal</key>
<styleUrl>#line-FF0000-2000-nodesc-normal</styleUrl>
</Pair>
<Pair>
<key>highlight</key>
<styleUrl>#line-FF0000-2000-nodesc-highlight</styleUrl>
</Pair>
</StyleMap>
<Folder>
<name>Sisneri</name>
<Placemark>
<name>00</name>
<styleUrl>#icon-1899-DB4436-nodesc</styleUrl>
<Point>
<coordinates>
85.265139,27.612832,0
</coordinates>
</Point>
</Placemark>
<Placemark>
<name>01</name>
<styleUrl>#icon-1899-DB4436-nodesc</styleUrl>
<Point>
<coordinates>
85.266623,27.607815,0
</coordinates>
</Point>
</Placemark>
<Placemark>
<name>02</name>
<styleUrl>#icon-1899-DB4436-nodesc</styleUrl>
<Point>
<coordinates>
85.262938,27.604683,0
</coordinates>
</Point>
</Placemark>
<Placemark>
<name>03</name>
<styleUrl>#icon-1899-DB4436-nodesc</styleUrl>
<Point>
<coordinates>
85.262913,27.599039,0
</coordinates>
</Point>
</Placemark>
<Placemark>
<name>04</name>
<styleUrl>#icon-1899-DB4436-nodesc</styleUrl>
<Point>
<coordinates>
85.259476,27.594815,0
</coordinates>
</Point>
</Placemark>
<Placemark>
<name>05</name>
<styleUrl>#icon-1899-DB4436-nodesc</styleUrl>
<Point>
<coordinates>
85.25775,27.589741,0
</coordinates>
</Point>
</Placemark>
<Placemark>
<name>06</name>
<styleUrl>#icon-1899-DB4436-nodesc</styleUrl>
<Point>
<coordinates>
85.256471,27.584886,0
</coordinates>
</Point>
</Placemark>
<Placemark>
<name>07</name>
<styleUrl>#icon-1899-DB4436-nodesc</styleUrl>
<Point>
<coordinates>
85.255378,27.583376,0
</coordinates>
</Point>
</Placemark>
<Placemark>
<name>08</name>
<styleUrl>#icon-1899-DB4436-nodesc</styleUrl>
<Point>
<coordinates>
85.257595,27.578698,0
</coordinates>
</Point>
</Placemark>
<Placemark>
<name>09</name>
<styleUrl>#icon-1899-DB4436-nodesc</styleUrl>
<Point>
<coordinates>
85.250218,27.575171,0
</coordinates>
</Point>
</Placemark>
<Placemark>
<name>10</name>
<styleUrl>#icon-1899-DB4436-nodesc</styleUrl>
<Point>
<coordinates>
85.241384,27.572228,0
</coordinates>
</Point>
</Placemark>
<Placemark>
<name>11</name>
<styleUrl>#icon-1899-DB4436-nodesc</styleUrl>
<Point>
<coordinates>
85.235353,27.56878,0
</coordinates>
</Point>
</Placemark>
<Placemark>
<name>12</name>
<styleUrl>#icon-1899-DB4436-nodesc</styleUrl>
<Point>
<coordinates>
85.235356,27.565682,0
</coordinates>
</Point>
</Placemark>
<Placemark>
<name>13</name>
<styleUrl>#icon-1899-DB4436-nodesc</styleUrl>
<Point>
<coordinates>
85.228033,27.563859,0
</coordinates>
</Point>
</Placemark>
<Placemark>
<name>14</name>
<styleUrl>#icon-1899-DB4436-nodesc</styleUrl>
<Point>
<coordinates>
85.229147,27.561769,0
</coordinates>
</Point>
</Placemark>
<Placemark>
<name>15</name>
<styleUrl>#icon-1899-DB4436-nodesc</styleUrl>
<Point>
<coordinates>
85.222894,27.561422,0
</coordinates>
</Point>
</Placemark>
<Placemark>
<name>16</name>
<styleUrl>#icon-1899-DB4436-nodesc</styleUrl>
<Point>
<coordinates>
85.218459,27.558489,0
</coordinates>
</Point>
</Placemark>
<Placemark>
<name>17</name>
<styleUrl>#icon-1899-DB4436-nodesc</styleUrl>
<Point>
<coordinates>
85.215056,27.559588,0
</coordinates>
</Point>
</Placemark>
<Placemark>
<name>18</name>
<styleUrl>#icon-1899-DB4436-nodesc</styleUrl>
<Point>
<coordinates>
85.212488,27.556632,0
</coordinates>
</Point>
</Placemark>
<Placemark>
<name>19</name>
<styleUrl>#icon-1899-DB4436-nodesc</styleUrl>
<Point>
<coordinates>
85.220672,27.552435,0
</coordinates>
</Point>
</Placemark>
<Placemark>
<name>20</name>
<styleUrl>#icon-1899-DB4436-nodesc</styleUrl>
<Point>
<coordinates>
85.228438,27.548491,0
</coordinates>
</Point>
</Placemark>
<Placemark>
<name>21</name>
<styleUrl>#icon-1899-DB4436-nodesc</styleUrl>
<Point>
<coordinates>
85.226833,27.542245,0
</coordinates>
</Point>
</Placemark>
</Folder>
<Folder>
<name>LineStrings</name>
<Placemark>
<name/>
<styleUrl>#line-FF0000-2000-nodesc</styleUrl>
<LineString>
<tessellate>1</tessellate>
<coordinates>
85.2651468,27.6128413,0
85.265218,27.612808,0
85.265356,27.612759,0
85.265482,27.612711,0
85.265595,27.612656,0
85.265702,27.612607,0
85.265811,27.612583,0
85.26593,27.61256,0
85.266071,27.612587,0
85.266174,27.612639,0
85.266281,27.612711,0
85.266399,27.612797,0
85.266516,27.612871,0
85.266648,27.612889,0
85.26679,27.61285,0
85.266918,27.612799,0
85.26705,27.612761,0
85.267174,27.612734,0
85.267279,27.612658,0
85.267348,27.612566,0
85.26737,27.612455,0
85.267353,27.612357,0
85.267255,27.612262,0
85.267159,27.612188,0
85.267042,27.61209,0
85.266938,27.612012,0
85.266834,27.611944,0
85.26672,27.611899,0
85.266575,27.611861,0
85.266435,27.611788,0
85.266425,27.611674,0
85.266506,27.611602,0
85.266615,27.611557,0
85.266725,27.611507,0
85.266882,27.611493,0
85.267043,27.611455,0
85.267184,27.611404,0
85.267332,27.611384,0
85.267508,27.611374,0
85.267681,27.611365,0
85.267844,27.611356,0
85.267988,27.611312,0
85.268077,27.611221,0
85.268139,27.611079,0
85.268151,27.610936,0
85.268096,27.610807,0
85.267983,27.610699,0
85.267849,27.610596,0
85.267707,27.610484,0
85.267585,27.61037,0
85.267475,27.610253,0
85.267382,27.610136,0
85.26728,27.61001,0
85.267165,27.609889,0
85.267087,27.609769,0
85.266999,27.609662,0
85.266926,27.609548,0
85.26684,27.609412,0
85.266779,27.609273,0
85.26674,27.609141,0
85.266733,27.609008,0
85.266733,27.608878,0
85.266747,27.608729,0
85.266711,27.608597,0
85.266677,27.608462,0
85.266663,27.608331,0
85.26664,27.608195,0
85.266611,27.608043,0
85.266609,27.607907,0
85.266629,27.60778,0
85.266664,27.607664,0
85.266726,27.607567,0
85.266805,27.607458,0
85.266885,27.607347,0
85.266902,27.607251,0
85.266831,27.60717,0
85.266696,27.607152,0
85.26657,27.607175,0
85.266431,27.607187,0
85.266284,27.607181,0
85.266128,27.607144,0
85.265993,27.607102,0
85.265859,27.607062,0
85.265767,27.607002,0
85.265657,27.606941,0
85.265517,27.606868,0
85.265387,27.606774,0
85.265269,27.606671,0
85.265167,27.606567,0
85.265059,27.606478,0
85.264961,27.606389,0
85.26505,27.606337,0
85.265175,27.60638,0
85.265303,27.606449,0
85.265443,27.606496,0
85.265547,27.606485,0
85.265497,27.606379,0
85.265368,27.606321,0
85.265228,27.606261,0
85.26512,27.606189,0
85.264993,27.606128,0
85.264903,27.606049,0
85.264824,27.605948,0
85.264773,27.605822,0
85.26468,27.605712,0
85.264557,27.605706,0
85.264425,27.605739,0
85.264284,27.60581,0
85.264148,27.605861,0
85.263996,27.605879,0
85.263837,27.605873,0
85.263702,27.605844,0
85.263583,27.605802,0
85.26346,27.605777,0
85.263335,27.605779,0
85.263206,27.605811,0
85.263117,27.605864,0
85.263013,27.605899,0
85.262891,27.605899,0
85.262898,27.605794,0
85.262982,27.605738,0
85.263065,27.605656,0
85.26303,27.605568,0
85.262922,27.605605,0
85.262813,27.60567,0
85.262728,27.605755,0
85.262663,27.605864,0
85.262588,27.605967,0
85.262495,27.606052,0
85.2624,27.606091,0
85.262285,27.606044,0
85.262249,27.605926,0
85.262245,27.605823,0
85.262251,27.605718,0
85.262256,27.605614,0
85.262273,27.605517,0
85.262331,27.60544,0
85.262407,27.605377,0
85.262488,27.605321,0
85.262592,27.605227,0
85.262681,27.60516,0
85.262796,27.605106,0
85.262912,27.605016,0
85.262917,27.604922,0
85.262884,27.604819,0
85.262896,27.60471,0
85.262986,27.604651,0
85.263112,27.604641,0
85.263216,27.604659,0
85.263346,27.604618,0
85.263454,27.60453,0
85.263522,27.604453,0
85.263592,27.604381,0
85.263667,27.604305,0
85.263745,27.604223,0
85.263822,27.604149,0
85.263942,27.604061,0
85.264043,27.603998,0
85.264172,27.603932,0
85.264275,27.603894,0
85.264411,27.603865,0
85.264544,27.603832,0
85.264668,27.603799,0
85.264784,27.603772,0
85.264932,27.603759,0
85.265064,27.603738,0
85.265196,27.603711,0
85.265311,27.603665,0
85.265413,27.603586,0
85.2655,27.603502,0
85.265578,27.603419,0
85.265675,27.603347,0
85.265772,27.603259,0
85.265824,27.603168,0
85.265855,27.60305,0
85.265853,27.602932,0
85.265902,27.602825,0
85.266001,27.602742,0
85.266109,27.602654,0
85.266194,27.602599,0
85.266301,27.602507,0
85.266357,27.602392,0
85.266368,27.602271,0
85.266348,27.602147,0
85.266337,27.60203,0
85.266301,27.601945,0
85.266232,27.601835,0
85.266131,27.601741,0
85.266042,27.601693,0
85.265935,27.601661,0
85.265815,27.601626,0
85.265691,27.601575,0
85.26557,27.601524,0
85.26545,27.601472,0
85.265332,27.601418,0
85.265225,27.601361,0
85.265123,27.601318,0
85.265037,27.601259,0
85.264972,27.601168,0
85.2649,27.601081,0
85.264816,27.600999,0
85.264693,27.600917,0
85.26458,27.600841,0
85.264489,27.600784,0
85.264383,27.600727,0
85.264285,27.600691,0
85.264183,27.60066,0
85.264084,27.600627,0
85.263947,27.600637,0
85.263823,27.600618,0
85.263736,27.600522,0
85.263681,27.600413,0
85.263614,27.60034,0
85.263538,27.600261,0
85.263487,27.600171,0
85.263462,27.600059,0
85.263424,27.599964,0
85.26338,27.599866,0
85.263331,27.599775,0
85.263303,27.599685,0
85.263243,27.599562,0
85.263163,27.599483,0
85.263096,27.599398,0
85.263054,27.599307,0
85.263013,27.599199,0
85.262959,27.599103,0
85.262894,27.599012,0
85.262801,27.598924,0
85.262712,27.598872,0
85.262596,27.598817,0
85.26248,27.598756,0
85.262381,27.598727,0
85.262262,27.598756,0
85.262161,27.598805,0
85.262026,27.598814,0
85.261884,27.598813,0
85.261764,27.598774,0
85.261646,27.598703,0
85.261555,27.598645,0
85.261426,27.598601,0
85.261362,27.598499,0
85.261334,27.598399,0
85.261359,27.598307,0
85.261468,27.598233,0
85.261564,27.598194,0
85.261662,27.598152,0
85.26176,27.598108,0
85.261857,27.59807,0
85.261949,27.598032,0
85.262049,27.597973,0
85.26218,27.597899,0
85.262291,27.597813,0
85.262344,27.597699,0
85.262304,27.597593,0
85.262189,27.597561,0
85.262068,27.597535,0
85.261954,27.597463,0
85.261845,27.597376,0
85.261717,27.597327,0
85.261572,27.597307,0
85.261438,27.597287,0
85.261299,27.597289,0
85.261163,27.597262,0
85.261083,27.597191,0
85.260986,27.597127,0
85.260884,27.597081,0
85.260776,27.597051,0
85.260673,27.597035,0
85.260521,27.597022,0
85.260424,27.596966,0
85.260341,27.59686,0
85.260308,27.596753,0
85.260346,27.596656,0
85.260437,27.596592,0
85.26047,27.596474,0
85.260486,27.59638,0
85.260527,27.596284,0
85.260609,27.596207,0
85.260702,27.596163,0
85.260796,27.59611,0
85.260917,27.596094,0
85.261031,27.596083,0
85.261107,27.595991,0
85.261118,27.595868,0
85.26109,27.595738,0
85.261085,27.595619,0
85.261089,27.595495,0
85.261118,27.595383,0
85.261153,27.595273,0
85.261199,27.595183,0
85.261264,27.595106,0
85.261268,27.594992,0
85.261233,27.594892,0
85.261155,27.594827,0
85.261048,27.594802,0
85.26092,27.594789,0
85.260775,27.594774,0
85.260628,27.594761,0
85.260503,27.594734,0
85.260365,27.5947,0
85.260244,27.594694,0
85.260107,27.594696,0
85.259955,27.59471,0
85.259807,27.594746,0
85.259667,27.594776,0
85.259568,27.594808,0
85.25946,27.594816,0
85.259341,27.594797,0
85.259229,27.594753,0
85.259101,27.594697,0
85.258975,27.594652,0
85.258848,27.594631,0
85.258729,27.594617,0
85.258616,27.594597,0
85.258493,27.594583,0
85.258351,27.594606,0
85.258269,27.594695,0
85.258169,27.594773,0
85.258071,27.594798,0
85.257957,27.594858,0
85.257843,27.594867,0
85.257719,27.594882,0
85.257594,27.594906,0
85.257493,27.594945,0
85.25737,27.594945,0
85.257306,27.594844,0
85.257339,27.594731,0
85.25743,27.594631,0
85.257532,27.594539,0
85.257563,27.594446,0
85.257544,27.594354,0
85.257486,27.594259,0
85.257448,27.594162,0
85.257442,27.594062,0
85.257442,27.593966,0
85.257454,27.59387,0
85.257486,27.593776,0
85.257583,27.593669,0
85.257682,27.593634,0
85.25779,27.593618,0
85.257901,27.593591,0
85.258017,27.593573,0
85.258134,27.5935,0
85.258229,27.593456,0
85.25837,27.593417,0
85.258483,27.593345,0
85.258532,27.593239,0
85.258527,27.593116,0
85.258538,27.593024,0
85.258586,27.5929,0
85.258658,27.592828,0
85.258772,27.592757,0
85.258887,27.592698,0
85.258965,27.592588,0
85.258991,27.592491,0
85.259042,27.592366,0
85.259123,27.592269,0
85.259201,27.592163,0
85.259259,27.592063,0
85.259274,27.591973,0
85.259312,27.591882,0
85.25933,27.591779,0
85.259315,27.591682,0
85.259245,27.591583,0
85.259146,27.591501,0
85.259031,27.591429,0
85.258925,27.591367,0
85.258804,27.591311,0
85.25872,27.591262,0
85.258627,27.591222,0
85.258531,27.591189,0
85.258444,27.59114,0
85.258317,27.591105,0
85.258183,27.59106,0
85.258042,27.591015,0
85.257949,27.590975,0
85.257867,27.590905,0
85.257817,27.590793,0
85.257847,27.590686,0
85.257911,27.590581,0
85.257914,27.590473,0
85.257886,27.590384,0
85.257812,27.590283,0
85.257746,27.590168,0
85.257706,27.590045,0
85.257706,27.58992,0
85.257753,27.589825,0
85.257749,27.589717,0
85.25766,27.589653,0
85.257572,27.589577,0
85.257576,27.589486,0
85.25768,27.589427,0
85.257798,27.589383,0
85.257892,27.589323,0
85.257925,27.589234,0
85.257967,27.589128,0
85.257939,27.589024,0
85.257886,27.588927,0
85.257853,27.588818,0
85.25783,27.588709,0
85.257846,27.588595,0
85.257915,27.588498,0
85.258029,27.588436,0
85.258143,27.588414,0
85.258268,27.588427,0
85.258391,27.588445,0
85.258491,27.588386,0
85.258556,27.58829,0
85.25861,27.588179,0
85.258702,27.588074,0
85.258753,27.587995,0
85.258844,27.587898,0
85.25893,27.587849,0
85.259056,27.587866,0
85.259157,27.587847,0
85.259242,27.587798,0
85.259295,27.587701,0
85.259322,27.587579,0
85.259312,27.587465,0
85.259251,27.587389,0
85.259162,27.587306,0
85.259059,27.587238,0
85.258963,27.587167,0
85.258882,27.587111,0
85.258779,27.58708,0
85.258677,27.587066,0
85.258552,27.587063,0
85.258441,27.587027,0
85.258328,27.586986,0
85.258232,27.586915,0
85.258132,27.586849,0
85.258039,27.58677,0
85.257935,27.586737,0
85.257801,27.586753,0
85.257667,27.586782,0
85.257529,27.586799,0
85.257384,27.586817,0
85.257237,27.586821,0
85.257136,27.586791,0
85.25704,27.586751,0
85.256945,27.5867,0
85.256832,27.586609,0
85.256737,27.586535,0
85.256609,27.586475,0
85.256493,27.586434,0
85.256396,27.586479,0
85.256318,27.586541,0
85.256239,27.586629,0
85.256153,27.58668,0
85.256067,27.586732,0
85.255921,27.586757,0
85.255805,27.586706,0
85.255795,27.586589,0
85.255862,27.586476,0
85.255892,27.586385,0
85.255921,27.586258,0
85.255938,27.586133,0
85.25596,27.586009,0
85.255982,27.585871,0
85.256016,27.585759,0
85.256061,27.585658,0
85.256076,27.585533,0
85.256079,27.585441,0
85.256088,27.585318,0
85.256104,27.58522,0
85.256171,27.585144,0
85.256264,27.585072,0
85.256357,27.585009,0
85.256437,27.584935,0
85.256496,27.584849,0
85.256571,27.584788,0
85.256657,27.584734,0
85.25677,27.584653,0
85.256815,27.584572,0
85.256864,27.584477,0
85.256901,27.584383,0
85.256939,27.584292,0
85.256989,27.584212,0
85.257039,27.58412,0
85.257093,27.584031,0
85.257123,27.58394,0
85.257161,27.583826,0
85.257163,27.583733,0
85.257118,27.58361,0
85.257018,27.583543,0
85.256901,27.583567,0
85.256807,27.583648,0
85.256749,27.583732,0
85.256687,27.583828,0
85.256613,27.583909,0
85.256526,27.583997,0
85.256414,27.584079,0
85.256311,27.584156,0
85.256245,27.584245,0
85.256204,27.584341,0
85.256175,27.584429,0
85.256114,27.584533,0
85.256019,27.584619,0
85.255904,27.584669,0
85.255758,27.584671,0
85.255613,27.584668,0
85.255479,27.584657,0
85.255347,27.584608,0
85.255217,27.584564,0
85.255069,27.58456,0
85.254972,27.584595,0
85.254876,27.58464,0
85.254787,27.58469,0
85.254692,27.584754,0
85.254596,27.584798,0
85.254467,27.584769,0
85.254389,27.584684,0
85.254341,27.584553,0
85.254384,27.584471,0
85.254472,27.584361,0
85.254558,27.584255,0
85.254669,27.584175,0
85.254756,27.584102,0
85.254862,27.58405,0
85.254991,27.584023,0
85.255118,27.583998,0
85.255223,27.583929,0
85.255296,27.583838,0
85.255298,27.583818,0
85.255434,27.584058,0
85.256005,27.584973,0
85.255695,27.584491,0
85.255368,27.583778,0
85.255315,27.583691,0
85.255344,27.583574,0
85.255365,27.583483,0
85.255381,27.583392,0
85.255363,27.583292,0
85.255322,27.583202,0
85.255276,27.583112,0
85.255267,27.582991,0
85.255277,27.582893,0
85.255283,27.582766,0
85.255392,27.582714,0
85.255511,27.582719,0
85.255652,27.582718,0
85.255759,27.582679,0
85.255851,27.58261,0
85.255956,27.582528,0
85.256046,27.582417,0
85.256112,27.58229,0
85.256174,27.582179,0
85.256272,27.582097,0
85.256384,27.582031,0
85.256541,27.581969,0
85.256688,27.581911,0
85.25679,27.581841,0
85.256839,27.581742,0
85.256814,27.581636,0
85.25673,27.581552,0
85.256618,27.581502,0
85.25655,27.58143,0
85.256527,27.581323,0
85.256505,27.581227,0
85.256578,27.581151,0
85.256704,27.581111,0
85.256827,27.58107,0
85.256972,27.581014,0
85.257086,27.580945,0
85.25719,27.580871,0
85.257301,27.58081,0
85.257412,27.580756,0
85.257525,27.580709,0
85.257638,27.580701,0
85.257741,27.580679,0
85.257862,27.58068,0
85.258007,27.580687,0
85.258108,27.580672,0
85.258202,27.580587,0
85.258227,27.580491,0
85.258245,27.580382,0
85.258239,27.580275,0
85.258239,27.58018,0
85.258231,27.580074,0
85.258217,27.579981,0
85.258243,27.57989,0
85.258375,27.579821,0
85.258518,27.579788,0
85.258645,27.579733,0
85.258757,27.579656,0
85.258849,27.579581,0
85.258908,27.579494,0
85.258971,27.579374,0
85.258969,27.579271,0
85.258919,27.579176,0
85.258852,27.579104,0
85.258834,27.578992,0
85.258869,27.578896,0
85.258905,27.578774,0
85.25896,27.578695,0
85.259036,27.578608,0
85.259031,27.57849,0
85.258972,27.578406,0
85.258879,27.578336,0
85.258782,27.578308,0
85.258679,27.578291,0
85.258553,27.578316,0
85.258417,27.578347,0
85.258301,27.578423,0
85.25821,27.578498,0
85.258211,27.578619,0
85.258179,27.578727,0
85.258085,27.578763,0
85.257959,27.578767,0
85.257835,27.57879,0
85.257717,27.578798,0
85.257616,27.578727,0
85.257558,27.578646,0
85.257519,27.578542,0
85.257452,27.578469,0
85.257354,27.578428,0
85.257249,27.578372,0
85.257124,27.578368,0
85.257014,27.578364,0
85.256892,27.578365,0
85.256759,27.578392,0
85.256616,27.578401,0
85.256473,27.578423,0
85.256364,27.578427,0
85.256227,27.578441,0
85.256122,27.578444,0
85.255997,27.578425,0
85.255857,27.57841,0
85.255753,27.578401,0
85.255646,27.57837,0
85.25553,27.578348,0
85.255407,27.578326,0
85.25529,27.578276,0
85.25521,27.578191,0
85.255258,27.578091,0
85.25537,27.578019,0
85.255458,27.577947,0
85.255493,27.577856,0
85.255499,27.577756,0
85.255395,27.577714,0
85.255289,27.577718,0
85.255162,27.577714,0
85.255026,27.5777,0
85.25492,27.577667,0
85.254813,27.57764,0
85.254676,27.577622,0
85.254536,27.577634,0
85.254424,27.577634,0
85.2543,27.57767,0
85.254193,27.57767,0
85.254068,27.577684,0
85.253955,27.57769,0
85.253853,27.57764,0
85.253771,27.57758,0
85.253698,27.577507,0
85.253619,27.577425,0
85.253535,27.57737,0
85.253436,27.577281,0
85.253296,27.577232,0
85.253159,27.577224,0
85.25303,27.577251,0
85.252922,27.577299,0
85.252815,27.577314,0
85.252674,27.57731,0
85.252569,27.577309,0
85.252463,27.577292,0
85.252366,27.577253,0
85.252269,27.57717,0
85.252186,27.57709,0
85.252095,27.577008,0
85.25195,27.577002,0
85.251841,27.577007,0
85.251721,27.577004,0
85.251609,27.576952,0
85.251485,27.576888,0
85.251397,27.576821,0
85.251386,27.576684,0
85.25136,27.576587,0
85.251344,27.576492,0
85.251292,27.576366,0
85.25121,27.576303,0
85.25113,27.576232,0
85.251076,27.576138,0
85.25105,27.576031,0
85.251003,27.575922,0
85.250956,27.575823,0
85.250875,27.575733,0
85.250783,27.575636,0
85.250715,27.575543,0
85.250626,27.575385,0
85.250557,27.575303,0
85.250474,27.575226,0
85.250373,27.575175,0
85.25026,27.575163,0
85.250159,27.575182,0
85.250059,27.575232,0
85.249938,27.575246,0
85.249804,27.575234,0
85.249662,27.575228,0
85.249553,27.575239,0
85.249403,27.575235,0
85.24928,27.575175,0
85.249174,27.575128,0
85.249075,27.575096,0
85.248973,27.575029,0
85.248868,27.574959,0
85.248788,27.574896,0
85.248724,27.574816,0
85.248659,27.574745,0
85.248574,27.574689,0
85.248442,27.574624,0
85.248347,27.574549,0
85.248225,27.574505,0
85.248138,27.574422,0
85.248052,27.574358,0
85.247965,27.574299,0
85.247884,27.574237,0
85.247782,27.574222,0
85.24766,27.574235,0
85.247564,27.574197,0
85.247472,27.574114,0
85.247347,27.574063,0
85.247243,27.573977,0
85.247117,27.573964,0
85.246958,27.573949,0
85.246831,27.573956,0
85.246713,27.573951,0
85.246606,27.573958,0
85.246448,27.573931,0
85.246331,27.573876,0
85.246196,27.573813,0
85.246061,27.573758,0
85.245927,27.573676,0
85.24585,27.573582,0
85.245776,27.573475,0
85.245657,27.573405,0
85.24555,27.573346,0
85.245443,27.573293,0
85.245243,27.573238,0
85.245065,27.573192,0
85.244859,27.573159,0
85.244694,27.573113,0
85.244549,27.573087,0
85.244436,27.573025,0
85.244304,27.572985,0
85.244151,27.573015,0
85.244021,27.573066,0
85.243897,27.573121,0
85.243765,27.573179,0
85.243628,27.573237,0
85.243479,27.573288,0
85.243341,27.573307,0
85.243196,27.573294,0
85.243056,27.573245,0
85.24294,27.573171,0
85.242817,27.573102,0
85.24269,27.573044,0
85.242572,27.572976,0
85.242473,27.572898,0
85.242382,27.572851,0
85.242271,27.57279,0
85.242153,27.572718,0
85.242031,27.572669,0
85.241885,27.572624,0
85.241754,27.572555,0
85.241634,27.572481,0
85.241536,27.572404,0
85.241466,27.572316,0
85.241393,27.572235,0
85.241306,27.572168,0
85.241187,27.572043,0
85.241114,27.571909,0
85.241119,27.572008,0
85.241033,27.571883,0
85.240915,27.571787,0
85.240773,27.571733,0
85.240625,27.571691,0
85.240465,27.57165,0
85.240361,27.571604,0
85.240327,27.571479,0
85.240322,27.571367,0
85.24032,27.571248,0
85.240307,27.571137,0
85.240252,27.571004,0
85.240193,27.57089,0
85.24015,27.570765,0
85.240119,27.570636,0
85.240064,27.570505,0
85.24002,27.570363,0
85.239981,27.570262,0
85.239976,27.570139,0
85.239955,27.570043,0
85.239921,27.56995,0
85.23982,27.569849,0
85.239782,27.569752,0
85.239776,27.569646,0
85.239793,27.569535,0
85.23979,27.569443,0
85.239715,27.569363,0
85.239627,27.569308,0
85.239528,27.569275,0
85.239428,27.569246,0
85.239329,27.569218,0
85.239183,27.569141,0
85.23904,27.56908,0
85.238906,27.569027,0
85.238756,27.568998,0
85.238604,27.568998,0
85.238452,27.569013,0
85.238292,27.56904,0
85.238132,27.569057,0
85.237991,27.569064,0
85.237866,27.56907,0
85.237745,27.569034,0
85.237621,27.568985,0
85.237546,27.568923,0
85.237527,27.568817,0
85.237575,27.568708,0
85.237688,27.568569,0
85.237747,27.568463,0
85.237793,27.56836,0
85.237783,27.568262,0
85.237709,27.568136,0
85.237604,27.568092,0
85.237489,27.568063,0
85.237357,27.568069,0
85.237249,27.568086,0
85.237114,27.5681,0
85.236988,27.568118,0
85.236873,27.568153,0
85.23672,27.568188,0
85.236561,27.568144,0
85.236432,27.568136,0
85.236299,27.568151,0
85.236189,27.568185,0
85.236059,27.568234,0
85.235937,27.568281,0
85.235802,27.568322,0
85.23571,27.568392,0
85.235648,27.568483,0
85.235597,27.568585,0
85.235534,27.56868,0
85.235443,27.568754,0
85.235301,27.568795,0
85.235163,27.568827,0
85.235023,27.568845,0
85.234877,27.56885,0
85.234733,27.568859,0
85.234599,27.568881,0
85.234462,27.56889,0
85.234338,27.56888,0
85.234204,27.568864,0
85.23408,27.568861,0
85.233965,27.568847,0
85.23385,27.568799,0
85.23374,27.568719,0
85.233634,27.568646,0
85.233541,27.568587,0
85.23345,27.568537,0
85.233318,27.568564,0
85.233149,27.568575,0
85.233033,27.568578,0
85.232925,27.568574,0
85.232814,27.568569,0
85.23271,27.568569,0
85.232597,27.568551,0
85.232496,27.568537,0
85.232384,27.568518,0
85.232265,27.568476,0
85.232319,27.568374,0
85.232421,27.568307,0
85.232538,27.568277,0
85.23264,27.568252,0
85.232763,27.568255,0
85.232874,27.56823,0
85.232973,27.568204,0
85.233068,27.568164,0
85.233154,27.568097,0
85.233283,27.568044,0
85.233384,27.567965,0
85.233462,27.567876,0
85.233527,27.567767,0
85.23358,27.567661,0
85.233617,27.567561,0
85.233636,27.567465,0
85.233637,27.567347,0
85.233615,27.567236,0
85.233618,27.567144,0
85.233728,27.567098,0
85.233861,27.567034,0
85.233968,27.566988,0
85.234064,27.56692,0
85.23413,27.566834,0
85.233993,27.566805,0
85.233875,27.566831,0
85.233776,27.56686,0
85.233633,27.56689,0
85.233539,27.566926,0
85.233429,27.566976,0
85.233326,27.567038,0
85.233203,27.567037,0
85.233163,27.566946,0
85.233269,27.566881,0
85.233406,27.566795,0
85.233539,27.566727,0
85.233676,27.566664,0
85.233794,27.566599,0
85.233893,27.566525,0
85.234006,27.566451,0
85.234128,27.566414,0
85.234275,27.566372,0
85.234409,27.566333,0
85.234528,27.566327,0
85.234641,27.566292,0
85.234754,27.56626,0
85.234865,27.566236,0
85.234999,27.566198,0
85.235115,27.566153,0
85.235217,27.566094,0
85.235337,27.566025,0
85.235407,27.565943,0
85.235415,27.565811,0
85.235373,27.565705,0
85.235299,27.565604,0
85.235229,27.565507,0
85.23516,27.565425,0
85.235042,27.565331,0
85.234984,27.565225,0
85.234929,27.565135,0
85.234893,27.565012,0
85.234863,27.564895,0
85.234866,27.564783,0
85.234875,27.564674,0
85.234905,27.564571,0
85.234938,27.564483,0
85.234937,27.564384,0
85.234971,27.564289,0
85.235009,27.564193,0
85.235077,27.564099,0
85.235137,27.564002,0
85.23513,27.5639,0
85.23505,27.563811,0
85.234941,27.563816,0
85.234814,27.563819,0
85.234701,27.563823,0
85.234589,27.563853,0
85.234493,27.563885,0
85.234351,27.563976,0
85.234252,27.564068,0
85.234162,27.564155,0
85.234077,27.564238,0
85.233977,27.564318,0
85.233893,27.564386,0
85.233803,27.564446,0
85.23368,27.564524,0
85.233585,27.564561,0
85.233508,27.564633,0
85.233393,27.564636,0
85.233274,27.564611,0
85.233177,27.564563,0
85.233068,27.564509,0
85.232954,27.564485,0
85.23284,27.564479,0
85.232722,27.564492,0
85.232615,27.564499,0
85.232499,27.564489,0
85.23239,27.564466,0
85.232277,27.564447,0
85.232146,27.564462,0
85.232028,27.564474,0
85.231909,27.564505,0
85.231784,27.564514,0
85.231638,27.564514,0
85.231513,27.564546,0
85.231379,27.564559,0
85.231254,27.5646,0
85.231113,27.564627,0
85.231011,27.564639,0
85.230897,27.564625,0
85.230761,27.564582,0
85.230609,27.564588,0
85.230428,27.564643,0
85.23029,27.564663,0
85.230163,27.564675,0
85.23005,27.564686,0
85.229903,27.564677,0
85.229813,27.564632,0
85.229734,27.564564,0
85.229672,27.564471,0
85.229624,27.564374,0
85.229566,27.564268,0
85.229492,27.564201,0
85.229363,27.56414,0
85.229241,27.564113,0
85.229135,27.564083,0
85.229003,27.564047,0
85.228884,27.564011,0
85.228765,27.563989,0
85.228646,27.56397,0
85.228532,27.563936,0
85.22842,27.563907,0
85.228319,27.563876,0
85.228209,27.563858,0
85.22807,27.563852,0
85.227966,27.563872,0
85.227862,27.563899,0
85.227741,27.563924,0
85.227638,27.56396,0
85.227527,27.563984,0
85.227398,27.563987,0
85.227279,27.563965,0
85.227168,27.563925,0
85.227069,27.563861,0
85.226998,27.563774,0
85.226963,27.563681,0
85.226984,27.563546,0
85.227052,27.563451,0
85.227131,27.563303,0
85.227206,27.56321,0
85.227303,27.563131,0
85.227359,27.563052,0
85.22743,27.562946,0
85.22748,27.562844,0
85.22741,27.562778,0
85.227488,27.562697,0
85.2275,27.562576,0
85.227504,27.562484,0
85.227511,27.562394,0
85.227517,27.562255,0
85.227533,27.562163,0
85.227583,27.562051,0
85.22768,27.561989,0
85.227816,27.562,0
85.227939,27.562059,0
85.228027,27.562106,0
85.228138,27.562165,0
85.228229,27.562223,0
85.228328,27.562276,0
85.228467,27.562342,0
85.228617,27.562381,0
85.228731,27.562411,0
85.228833,27.562437,0
85.228934,27.562457,0
85.229043,27.562462,0
85.229146,27.562449,0
85.229261,27.562408,0
85.229378,27.562358,0
85.229475,27.562315,0
85.229629,27.562284,0
85.229748,27.562279,0
85.229864,27.562222,0
85.229954,27.562149,0
85.230028,27.562068,0
85.230094,27.561986,0
85.230169,27.561915,0
85.230291,27.561879,0
85.23043,27.561858,0
85.230544,27.561866,0
85.230661,27.561867,0
85.23079,27.561871,0
85.230932,27.561873,0
85.231079,27.561883,0
85.231218,27.561887,0
85.231335,27.561881,0
85.231469,27.561854,0
85.231511,27.561766,0
85.231401,27.56171,0
85.231268,27.561716,0
85.231152,27.561698,0
85.231026,27.561673,0
85.230903,27.561658,0
85.230784,27.56165,0
85.230665,27.561624,0
85.230554,27.561607,0
85.230448,27.561576,0
85.230323,27.56155,0
85.230187,27.561533,0
85.230055,27.561528,0
85.229923,27.561552,0
85.22981,27.561589,0
85.229726,27.56164,0
85.229633,27.561687,0
85.229521,27.561698,0
85.229409,27.561729,0
85.229256,27.561744,0
85.229151,27.561769,0
85.229022,27.561774,0
85.2289,27.56174,0
85.228788,27.561712,0
85.228687,27.56166,0
85.228551,27.561591,0
85.228449,27.561526,0
85.228352,27.56147,0
85.228269,27.561391,0
85.228189,27.561318,0
85.228108,27.561259,0
85.228017,27.561191,0
85.227926,27.561128,0
85.227836,27.561077,0
85.22773,27.561035,0
85.227614,27.560995,0
85.227501,27.560911,0
85.227431,27.560796,0
85.227334,27.560711,0
85.227245,27.56064,0
85.227138,27.560587,0
85.22703,27.560575,0
85.226918,27.560579,0
85.226789,27.560534,0
85.226649,27.560428,0
85.226578,27.560301,0
85.226531,27.560145,0
85.226496,27.559993,0
85.226442,27.559912,0
85.226335,27.559821,0
85.226217,27.559778,0
85.226103,27.559787,0
85.225997,27.559859,0
85.225967,27.559947,0
85.225949,27.560097,0
85.225948,27.56021,0
85.225924,27.560392,0
85.2259,27.560498,0
85.225878,27.560631,0
85.22585,27.56072,0
85.225819,27.560825,0
85.225814,27.560961,0
85.225823,27.561052,0
85.2258,27.561143,0
85.225774,27.561244,0
85.225815,27.56135,0
85.225814,27.56147,0
85.225803,27.56162,0
85.225705,27.561658,0
85.225563,27.561648,0
85.225466,27.56162,0
85.225388,27.561551,0
85.225296,27.561484,0
85.225179,27.561448,0
85.225075,27.56146,0
85.22497,27.561497,0
85.224913,27.56159,0
85.224892,27.561681,0
85.224842,27.561799,0
85.224732,27.561839,0
85.224648,27.561756,0
85.22454,27.561676,0
85.224458,27.561617,0
85.224366,27.561571,0
85.224269,27.561538,0
85.224137,27.561469,0
85.224008,27.561427,0
85.223902,27.561404,0
85.223796,27.561403,0
85.223691,27.561484,0
85.223668,27.561604,0
85.223655,27.561698,0
85.223561,27.561771,0
85.223439,27.561718,0
85.22337,27.561647,0
85.223308,27.561518,0
85.223216,27.561413,0
85.223136,27.561348,0
85.222959,27.561349,0
85.22289,27.561427,0
85.222781,27.561517,0
85.222696,27.561583,0
85.222576,27.561611,0
85.222465,27.561638,0
85.222341,27.561656,0
85.222147,27.56172,0
85.222003,27.561705,0
85.22187,27.561704,0
85.221721,27.56169,0
85.22157,27.561706,0
85.221415,27.561713,0
85.221305,27.561724,0
85.221157,27.561766,0
85.221065,27.561805,0
85.220964,27.561861,0
85.220847,27.561919,0
85.220725,27.561878,0
85.22065,27.561792,0
85.220617,27.561678,0
85.220579,27.56158,0
85.220541,27.561495,0
85.220457,27.561419,0
85.220355,27.5614,0
85.220229,27.561472,0
85.220196,27.561566,0
85.220141,27.561659,0
85.220087,27.561754,0
85.220062,27.561855,0
85.219962,27.561904,0
85.219857,27.561859,0
85.219741,27.561811,0
85.219637,27.561736,0
85.219545,27.561658,0
85.219485,27.561559,0
85.219465,27.56145,0
85.219436,27.561341,0
85.219441,27.561231,0
85.219438,27.56114,0
85.219414,27.561041,0
85.21937,27.560957,0
85.219255,27.560881,0
85.219134,27.560876,0
85.219007,27.560905,0
85.2189,27.560935,0
85.218782,27.560899,0
85.218747,27.560813,0
85.218658,27.56066,0
85.218691,27.560554,0
85.218716,27.560459,0
85.218738,27.560349,0
85.218714,27.560241,0
85.218714,27.560146,0
85.218695,27.560031,0
85.21865,27.559934,0
85.218644,27.559838,0
85.218598,27.559733,0
85.218519,27.559623,0
85.218434,27.559538,0
85.218372,27.559458,0
85.218357,27.559365,0
85.218352,27.559216,0
85.2183,27.559105,0
85.218269,27.559011,0
85.218213,27.558897,0
85.218206,27.558785,0
85.218104,27.558705,0
85.217997,27.558694,0
85.217879,27.558738,0
85.21777,27.558679,0
85.217767,27.558583,0
85.217881,27.558587,0
85.218003,27.558584,0
85.218134,27.558598,0
85.218252,27.558633,0
85.218348,27.558667,0
85.218421,27.558731,0
85.218545,27.558779,0
85.218631,27.558703,0
85.218586,27.558585,0
85.218476,27.558498,0
85.218351,27.558428,0
85.218256,27.558386,0
85.218143,27.558315,0
85.218059,27.558252,0
85.21793,27.558176,0
85.217786,27.558141,0
85.217648,27.55818,0
85.217538,27.558256,0
85.217476,27.558359,0
85.21745,27.558474,0
85.217433,27.558585,0
85.217359,27.558672,0
85.217255,27.558735,0
85.217184,27.558837,0
85.217112,27.558917,0
85.217029,27.559004,0
85.216973,27.55909,0
85.216879,27.55919,0
85.216822,27.559298,0
85.216735,27.559411,0
85.216685,27.559494,0
85.216594,27.559574,0
85.216465,27.55962,0
85.216352,27.559661,0
85.216252,27.559762,0
85.216203,27.559844,0
85.216133,27.559958,0
85.216049,27.560046,0
85.215958,27.56013,0
85.215869,27.560217,0
85.215816,27.560297,0
85.215739,27.560373,0
85.215635,27.560457,0
85.215538,27.560509,0
85.21542,27.560587,0
85.215343,27.560646,0
85.215237,27.560721,0
85.215118,27.560748,0
85.214976,27.560761,0
85.214867,27.560749,0
85.21474,27.56074,0
85.214612,27.56078,0
85.214554,27.560866,0
85.214528,27.560973,0
85.214499,27.561091,0
85.214489,27.561207,0
85.214497,27.561326,0
85.214564,27.561421,0
85.214655,27.561529,0
85.21467,27.561633,0
85.21453,27.561629,0
85.214456,27.561533,0
85.214358,27.561428,0
85.214274,27.561348,0
85.214248,27.561238,0
85.214214,27.56112,0
85.2142,27.561005,0
85.21417,27.560912,0
85.214123,27.560802,0
85.214053,27.56072,0
85.213963,27.560646,0
85.213889,27.560559,0
85.213856,27.560466,0
85.213935,27.560407,0
85.214047,27.560377,0
85.214149,27.560357,0
85.214249,27.560337,0
85.214377,27.560307,0
85.214493,27.560264,0
85.214612,27.560202,0
85.214719,27.560125,0
85.214813,27.560052,0
85.214909,27.559976,0
85.214979,27.5599,0
85.215073,27.559826,0
85.215173,27.559769,0
85.215282,27.559702,0
85.215237,27.559601,0
85.215106,27.559569,0
85.214981,27.559616,0
85.21488,27.559642,0
85.214758,27.559702,0
85.21466,27.559777,0
85.214556,27.559831,0
85.214449,27.559859,0
85.214331,27.559878,0
85.214225,27.559894,0
85.214106,27.559916,0
85.213983,27.559945,0
85.213854,27.559961,0
85.213725,27.559977,0
85.213588,27.559976,0
85.21353,27.559898,0
85.213624,27.559818,0
85.213746,27.559784,0
85.213848,27.559737,0
85.213968,27.55968,0
85.214076,27.559586,0
85.214158,27.559519,0
85.214238,27.559451,0
85.214318,27.559394,0
85.214431,27.559319,0
85.214538,27.559247,0
85.214513,27.559148,0
85.214392,27.559072,0
85.214262,27.559018,0
85.214159,27.558981,0
85.214062,27.558949,0
85.213951,27.558936,0
85.213848,27.558949,0
85.213742,27.558975,0
85.213615,27.558998,0
85.213502,27.559019,0
85.213389,27.559053,0
85.213279,27.559072,0
85.213171,27.559046,0
85.213058,27.558976,0
85.212989,27.558901,0
85.21292,27.558814,0
85.212855,27.558732,0
85.212787,27.558622,0
85.212722,27.558524,0
85.21265,27.558433,0
85.212547,27.558367,0
85.212448,27.558284,0
85.212347,27.558191,0
85.212257,27.558106,0
85.212197,27.558031,0
85.212127,27.557936,0
85.212027,27.557859,0
85.211916,27.557773,0
85.211803,27.557698,0
85.211688,27.557617,0
85.211583,27.557532,0
85.211488,27.557449,0
85.211386,27.557373,0
85.211327,27.557292,0
85.211252,27.557209,0
85.211177,27.557124,0
85.211071,27.557032,0
85.210987,27.556969,0
85.210895,27.556873,0
85.21083,27.556775,0
85.210763,27.55666,0
85.210754,27.556564,0
85.210842,27.556511,0
85.210932,27.556437,0
85.211018,27.556372,0
85.211105,27.556321,0
85.211222,27.556366,0
85.211347,27.556417,0
85.211469,27.556482,0
85.211591,27.55654,0
85.211725,27.556579,0
85.211842,27.556565,0
85.211951,27.556548,0
85.212075,27.556553,0
85.212189,27.556559,0
85.212338,27.556604,0
85.21244,27.556621,0
85.212547,27.556645,0
85.212649,27.556676,0
85.212759,27.556702,0
85.212888,27.556711,0
85.213086,27.556689,0
85.213174,27.556638,0
85.213296,27.55656,0
85.213385,27.556517,0
85.213505,27.556435,0
85.213586,27.556362,0
85.213667,27.556302,0
85.213754,27.556254,0
85.213864,27.556199,0
85.21397,27.556145,0
85.21413,27.556076,0
85.214226,27.556034,0
85.214318,27.555995,0
85.214413,27.555959,0
85.214515,27.555919,0
85.214632,27.555867,0
85.214746,27.55583,0
85.214865,27.555804,0
85.214975,27.555777,0
85.215092,27.555764,0
85.215195,27.555757,0
85.215299,27.555751,0
85.21536,27.555664,0
85.215398,27.555549,0
85.215448,27.55547,0
85.215522,27.555349,0
85.215564,27.555266,0
85.215621,27.55517,0
85.215679,27.555087,0
85.215766,27.554955,0
85.215816,27.554872,0
85.215887,27.554766,0
85.215938,27.554679,0
85.21599,27.554586,0
85.216038,27.554491,0
85.216159,27.554411,0
85.216266,27.554331,0
85.21634,27.554261,0
85.216414,27.554195,0
85.216492,27.554132,0
85.216588,27.554049,0
85.216671,27.55399,0
85.216754,27.553917,0
85.21685,27.55383,0
85.216936,27.55378,0
85.217053,27.553719,0
85.217133,27.553661,0
85.217214,27.553601,0
85.217326,27.553512,0
85.217403,27.553445,0
85.217477,27.553351,0
85.217586,27.553278,0
85.217658,27.55319,0
85.217744,27.553125,0
85.217839,27.553068,0
85.217928,27.553009,0
85.218014,27.55296,0
85.218117,27.552921,0
85.218217,27.552864,0
85.218312,27.55282,0
85.218449,27.552812,0
85.218581,27.552783,0
85.218694,27.552726,0
85.218812,27.552662,0
85.218919,27.552608,0
85.219035,27.552567,0
85.219148,27.552547,0
85.219263,27.55253,0
85.219377,27.552508,0
85.219601,27.552499,0
85.219757,27.552477,0
85.219878,27.552467,0
85.219995,27.552464,0
85.220121,27.552441,0
85.220266,27.552424,0
85.220397,27.552437,0
85.220541,27.552443,0
85.220669,27.552435,0
85.220777,27.552418,0
85.220911,27.552391,0
85.221059,27.552406,0
85.221173,27.552415,0
85.221289,27.552434,0
85.221426,27.552428,0
85.221579,27.55241,0
85.221704,27.552395,0
85.22182,27.552379,0
85.22208,27.552385,0
85.222231,27.552389,0
85.222367,27.552378,0
85.222495,27.552348,0
85.222628,27.552344,0
85.222762,27.552338,0
85.222881,27.55235,0
85.223009,27.552341,0
85.223168,27.55235,0
85.223296,27.552343,0
85.22342,27.552336,0
85.223545,27.552334,0
85.223695,27.552311,0
85.223807,27.552285,0
85.223916,27.552269,0
85.224042,27.552255,0
85.224147,27.552222,0
85.224315,27.552182,0
85.22442,27.552167,0
85.224529,27.552144,0
85.224745,27.552113,0
85.224866,27.552121,0
85.224994,27.55216,0
85.225106,27.552178,0
85.225224,27.552183,0
85.225351,27.55218,0
85.225465,27.552127,0
85.225542,27.552062,0
85.225653,27.551996,0
85.22577,27.551951,0
85.225907,27.551884,0
85.226005,27.55185,0
85.226108,27.551806,0
85.226214,27.551745,0
85.226323,27.551675,0
85.226403,27.55158,0
85.226488,27.55153,0
85.226564,27.551455,0
85.226643,27.551376,0
85.226768,27.551277,0
85.226865,27.551188,0
85.226939,27.551126,0
85.226996,27.551047,0
85.227039,27.550942,0
85.227098,27.550845,0
85.227132,27.55074,0
85.227214,27.550644,0
85.22727,27.550551,0
85.227355,27.550462,0
85.227441,27.550375,0
85.22751,27.550294,0
85.227614,27.550191,0
85.227713,27.550116,0
85.227792,27.55004,0
85.227861,27.549929,0
85.227885,27.54984,0
85.227932,27.549737,0
85.228013,27.549543,0
85.228043,27.549452,0
85.228074,27.549347,0
85.228098,27.549243,0
85.228131,27.549145,0
85.228173,27.549041,0
85.228214,27.548934,0
85.228254,27.54883,0
85.228293,27.548723,0
85.228348,27.548622,0
85.228419,27.54851,0
85.228509,27.548416,0
85.228583,27.548322,0
85.228651,27.548234,0
85.228734,27.548148,0
85.228808,27.548062,0
85.228886,27.547962,0
85.228962,27.547859,0
85.229032,27.547767,0
85.229084,27.547676,0
85.229205,27.547521,0
85.229288,27.54742,0
85.229342,27.547326,0
85.229443,27.547166,0
85.229507,27.547085,0
85.229587,27.547005,0
85.229643,27.546928,0
85.229678,27.546842,0
85.229764,27.546752,0
85.229848,27.546659,0
85.229927,27.546592,0
85.230012,27.546535,0
85.23009,27.546438,0
85.230142,27.546336,0
85.230226,27.546244,0
85.230341,27.546162,0
85.230406,27.546053,0
85.230399,27.545888,0
85.230414,27.545719,0
85.230428,27.545567,0
85.230457,27.54543,0
85.230475,27.545279,0
85.230477,27.545131,0
85.230479,27.544995,0
85.230486,27.544872,0
85.23051,27.544768,0
85.230511,27.544669,0
85.230481,27.544559,0
85.230446,27.544436,0
85.230425,27.544293,0
85.230404,27.54418,0
85.230349,27.544073,0
85.230293,27.543991,0
85.230222,27.543911,0
85.230114,27.543794,0
85.230059,27.543654,0
85.230012,27.543563,0
85.229938,27.543495,0
85.229887,27.543417,0
85.229718,27.543352,0
85.229572,27.543296,0
85.229458,27.543243,0
85.229307,27.543216,0
85.2292,27.543204,0
85.229147,27.543106,0
85.229094,27.543028,0
85.229003,27.542981,0
85.228901,27.542965,0
85.228794,27.542971,0
85.228697,27.542928,0
85.228577,27.5429,0
85.228464,27.542943,0
85.228351,27.542947,0
85.22824,27.542917,0
85.228188,27.542827,0
85.228082,27.542743,0
85.227972,27.542731,0
85.227865,27.542735,0
85.227743,27.542713,0
85.227668,27.542636,0
85.227605,27.542563,0
85.22756,27.542464,0
85.227451,27.542411,0
85.227328,27.542402,0
85.227219,27.542394,0
85.227084,27.542336,0
85.226976,27.542314,0
85.226861,27.542263,0
85.226761,27.542201,0
85.22668,27.54212,0
85.226626,27.542014,0
85.226524,27.541925,0
85.226401,27.541846,0
85.226303,27.541792,0
85.226186,27.541759,0
85.226066,27.541722,0
85.225934,27.541689,0
85.225871,27.541611,0
85.225841,27.541513,0
85.225791,27.541414,0
85.225689,27.541414,0
85.225595,27.54148,0
85.22549,27.541518,0
85.225361,27.541511,0
85.225256,27.5415,0
85.225154,27.541483,0
85.225019,27.541431,0
85.2249,27.541427,0
85.22481,27.541377,0
85.224695,27.54133,0
85.224562,27.541307,0
85.224439,27.541271,0
85.224349,27.541193,0
85.224251,27.541134,0
85.224142,27.541057,0
85.224058,27.540999,0
85.223986,27.540924,0
85.223911,27.540843,0
85.223817,27.54077,0
85.22376,27.540658,0
85.22376,27.540567,0
85.223744,27.540478,0
85.223715,27.540356,0
85.223653,27.540263,0
85.223589,27.540161,0
85.22351,27.540069,0
85.223473,27.539975,0
85.223446,27.539881,0
85.2234,27.539798,0
85.223317,27.539745,0
85.223464,27.539761,0
85.223437,27.539781,0
85.223363,27.539737,0
</coordinates>
</LineString>
</Placemark>
</Folder>
</Document>
</kml>
