<?xml version="1.0" encoding="UTF-8"?>
<kml xmlns="http://www.opengis.net/kml/2.2">
<Document>
<name>WNW_11.Jhor waterfall</name>
<description/>
<Style id="icon-1899-0288D1-nodesc-normal">
<IconStyle>
<color>ffd18802</color>
<scale>1</scale>
<Icon>
<href>https://www.gstatic.com/mapspro/images/stock/503-wht-blank_maps.png</href>
</Icon>
<hotSpot x="32" xunits="pixels" y="64" yunits="insetPixels"/>
</IconStyle>
<LabelStyle>
<scale>0</scale>
</LabelStyle>
<BalloonStyle>
<text><![CDATA[<h3>$[name]</h3>]]></text>
</BalloonStyle>
</Style>
<Style id="icon-1899-0288D1-nodesc-highlight">
<IconStyle>
<color>ffd18802</color>
<scale>1</scale>
<Icon>
<href>https://www.gstatic.com/mapspro/images/stock/503-wht-blank_maps.png</href>
</Icon>
<hotSpot x="32" xunits="pixels" y="64" yunits="insetPixels"/>
</IconStyle>
<LabelStyle>
<scale>1</scale>
</LabelStyle>
<BalloonStyle>
<text><![CDATA[<h3>$[name]</h3>]]></text>
</BalloonStyle>
</Style>
<StyleMap id="icon-1899-0288D1-nodesc">
<Pair>
<key>normal</key>
<styleUrl>#icon-1899-0288D1-nodesc-normal</styleUrl>
</Pair>
<Pair>
<key>highlight</key>
<styleUrl>#icon-1899-0288D1-nodesc-highlight</styleUrl>
</Pair>
</StyleMap>
<Style id="icon-1899-DB4436-nodesc-normal">
<IconStyle>
<color>ff3644db</color>
<scale>1</scale>
<Icon>
<href>https://www.gstatic.com/mapspro/images/stock/503-wht-blank_maps.png</href>
</Icon>
<hotSpot x="32" xunits="pixels" y="64" yunits="insetPixels"/>
</IconStyle>
<LabelStyle>
<scale>0</scale>
</LabelStyle>
<BalloonStyle>
<text><![CDATA[<h3>$[name]</h3>]]></text>
</BalloonStyle>
</Style>
<Style id="icon-1899-DB4436-nodesc-highlight">
<IconStyle>
<color>ff3644db</color>
<scale>1</scale>
<Icon>
<href>https://www.gstatic.com/mapspro/images/stock/503-wht-blank_maps.png</href>
</Icon>
<hotSpot x="32" xunits="pixels" y="64" yunits="insetPixels"/>
</IconStyle>
<LabelStyle>
<scale>1</scale>
</LabelStyle>
<BalloonStyle>
<text><![CDATA[<h3>$[name]</h3>]]></text>
</BalloonStyle>
</Style>
<StyleMap id="icon-1899-DB4436-nodesc">
<Pair>
<key>normal</key>
<styleUrl>#icon-1899-DB4436-nodesc-normal</styleUrl>
</Pair>
<Pair>
<key>highlight</key>
<styleUrl>#icon-1899-DB4436-nodesc-highlight</styleUrl>
</Pair>
</StyleMap>
<Style id="line-1267FF-5000-nodesc-normal">
<LineStyle>
<color>ffff6712</color>
<width>5</width>
</LineStyle>
<BalloonStyle>
<text><![CDATA[<h3>$[name]</h3>]]></text>
</BalloonStyle>
</Style>
<Style id="line-1267FF-5000-nodesc-highlight">
<LineStyle>
<color>ffff6712</color>
<width>7.5</width>
</LineStyle>
<BalloonStyle>
<text><![CDATA[<h3>$[name]</h3>]]></text>
</BalloonStyle>
</Style>
<StyleMap id="line-1267FF-5000-nodesc">
<Pair>
<key>normal</key>
<styleUrl>#line-1267FF-5000-nodesc-normal</styleUrl>
</Pair>
<Pair>
<key>highlight</key>
<styleUrl>#line-1267FF-5000-nodesc-highlight</styleUrl>
</Pair>
</StyleMap>
<Folder>
<name>Untitled layer</name>
<Placemark>
<name>Jhor Waterfall.</name>
<styleUrl>#icon-1899-0288D1-nodesc</styleUrl>
<Point>
<coordinates>
85.32186,27.8011237,0
</coordinates>
</Point>
</Placemark>
</Folder>
<Folder>
<name>Directions from Samakhusi, Kathmandu to Jhor Waterfall.</name>
<Placemark>
<name>Directions from Samakhusi, Kathmandu to Jhor Waterfall.</name>
<styleUrl>#line-1267FF-5000-nodesc</styleUrl>
<LineString>
<tessellate>1</tessellate>
<coordinates>
85.31747,27.72725,0
85.31747,27.72726,0
85.31736,27.72734,0
85.31744,27.72739,0
85.31755,27.72748,0
85.31767,27.72765,0
85.3176,27.72767,0
85.31743,27.72775,0
85.31724,27.72788,0
85.31717,27.72796,0
85.31711,27.72808,0
85.31698,27.72805,0
85.31686,27.72826,0
85.31684,27.72832,0
85.31683,27.72832,0
85.31671,27.72872,0
85.31673,27.72873,0
85.31679,27.72878,0
85.31688,27.72888,0
85.31693,27.72897,0
85.31707,27.72911,0
85.31741,27.72938,0
85.3175,27.72948,0
85.3175,27.72949,0
85.31757,27.72964,0
85.31791,27.73012,0
85.31789,27.73029,0
85.31795,27.73066,0
85.31795,27.73094,0
85.31794,27.73095,0
85.31794,27.731,0
85.3179,27.73121,0
85.31789,27.73156,0
85.31786,27.73182,0
85.31778,27.73207,0
85.31762,27.73318,0
85.31761,27.73363,0
85.31758,27.73378,0
85.31758,27.73383,0
85.31756,27.73392,0
85.3177,27.73449,0
85.31772,27.7351,0
85.31814,27.73511,0
85.31831,27.73532,0
85.31859,27.73582,0
85.31873,27.73603,0
85.31896,27.73626,0
85.3191,27.73645,0
85.31928,27.73688,0
85.31936,27.737,0
85.31943,27.73714,0
85.31951,27.7377,0
85.3199,27.73813,0
85.31996,27.73823,0
85.32,27.73833,0
85.32004,27.7384,0
85.32015,27.73866,0
85.32031,27.73883,0
85.3206,27.73907,0
85.32062,27.7391,0
85.32073,27.73921,0
85.32078,27.73928,0
85.32107,27.73981,0
85.32113,27.74007,0
85.32141,27.74073,0
85.32156,27.74123,0
85.32162,27.74133,0
85.32168,27.74149,0
85.32187,27.74176,0
85.32208,27.74196,0
85.32222,27.74215,0
85.32225,27.74224,0
85.32225,27.74227,0
85.32227,27.74236,0
85.32229,27.74268,0
85.32235,27.74313,0
85.32236,27.74337,0
85.32238,27.7435,0
85.32241,27.74408,0
85.32243,27.74413,0
85.32262,27.74441,0
85.3229,27.74471,0
85.32335,27.74533,0
85.32372,27.74574,0
85.32381,27.7459,0
85.32395,27.74628,0
85.32397,27.74637,0
85.32422,27.74686,0
85.32438,27.74726,0
85.32455,27.74751,0
85.32461,27.74763,0
85.32471,27.74805,0
85.32474,27.74866,0
85.32475,27.74868,0
85.32478,27.74882,0
85.32482,27.74893,0
85.32482,27.74894,0
85.32497,27.74924,0
85.32525,27.74969,0
85.32527,27.74977,0
85.32529,27.74998,0
85.32529,27.7502,0
85.32534,27.75047,0
85.32561,27.75111,0
85.32573,27.7513,0
85.32588,27.75143,0
85.32627,27.75185,0
85.32662,27.75217,0
85.32675,27.75233,0
85.327,27.75275,0
85.32732,27.75339,0
85.32734,27.75341,0
85.32798,27.75455,0
85.3282,27.75518,0
85.3282,27.75527,0
85.32817,27.75539,0
85.32815,27.75543,0
85.32809,27.75551,0
85.32803,27.75555,0
85.3275,27.756,0
85.32727,27.75616,0
85.32716,27.7562,0
85.32683,27.75624,0
85.3265,27.75625,0
85.32641,27.75627,0
85.32638,27.7563,0
85.32636,27.75636,0
85.32643,27.75669,0
85.32646,27.75672,0
85.3265,27.75674,0
85.32657,27.75674,0
85.32673,27.75668,0
85.32677,27.75668,0
85.32681,27.75667,0
85.32686,27.75668,0
85.32691,27.75671,0
85.32695,27.75675,0
85.32736,27.75733,0
85.32753,27.75764,0
85.32758,27.75781,0
85.32758,27.75805,0
85.32762,27.75827,0
85.32762,27.75833,0
85.32764,27.75842,0
85.32775,27.75864,0
85.32792,27.75887,0
85.32827,27.75918,0
85.32885,27.75961,0
85.32912,27.75991,0
85.32933,27.7602,0
85.32996,27.76119,0
85.33012,27.76148,0
85.33048,27.76224,0
85.33058,27.76276,0
85.3306,27.76352,0
85.33051,27.76411,0
85.33042,27.76433,0
85.33032,27.7645,0
85.33028,27.7646,0
85.33028,27.7647,0
85.33029,27.76474,0
85.33043,27.76507,0
85.33045,27.7651,0
85.33049,27.76526,0
85.33048,27.76549,0
85.33057,27.76591,0
85.33057,27.76594,0
85.3306,27.76605,0
85.3306,27.76611,0
85.33056,27.76639,0
85.33055,27.76642,0
85.33055,27.76645,0
85.33054,27.76647,0
85.33046,27.76684,0
85.33045,27.76686,0
85.33038,27.76724,0
85.33031,27.76782,0
85.33026,27.76878,0
85.32958,27.76933,0
85.32942,27.76944,0
85.32933,27.76956,0
85.32932,27.76959,0
85.3293,27.7703,0
85.32931,27.77043,0
85.32946,27.77073,0
85.32951,27.77079,0
85.32959,27.77102,0
85.32964,27.77129,0
85.3297,27.77141,0
85.33004,27.77176,0
85.33006,27.77179,0
85.33007,27.77184,0
85.3301,27.77188,0
85.33011,27.77194,0
85.33028,27.77236,0
85.3303,27.77246,0
85.3303,27.77257,0
85.33029,27.77264,0
85.33026,27.77272,0
85.33026,27.77277,0
85.33042,27.77327,0
85.33045,27.77344,0
85.33046,27.77374,0
85.33045,27.77379,0
85.3304,27.77387,0
85.33005,27.77418,0
85.32999,27.77425,0
85.32996,27.7743,0
85.32994,27.77432,0
85.32993,27.77434,0
85.32986,27.77461,0
85.32977,27.77462,0
85.32968,27.77465,0
85.32962,27.77469,0
85.32957,27.77474,0
85.32953,27.7748,0
85.32949,27.77484,0
85.32944,27.77487,0
85.32942,27.77489,0
85.32933,27.77494,0
85.32931,27.77494,0
85.32911,27.77506,0
85.32909,27.77508,0
85.32908,27.77511,0
85.32906,27.77514,0
85.32899,27.77521,0
85.32891,27.77525,0
85.32887,27.77525,0
85.32851,27.77518,0
85.32833,27.77523,0
85.32809,27.77533,0
85.32802,27.77537,0
85.32798,27.77541,0
85.32796,27.77542,0
85.32785,27.77555,0
85.32761,27.77592,0
85.32741,27.77616,0
85.32726,27.77639,0
85.32719,27.77667,0
85.32708,27.77688,0
85.32697,27.777,0
85.32674,27.77718,0
85.32615,27.7775,0
85.32612,27.77751,0
85.32582,27.77774,0
85.32575,27.77782,0
85.32565,27.77797,0
85.32563,27.77804,0
85.32563,27.77815,0
85.32567,27.7783,0
85.32568,27.7783,0
85.32573,27.77849,0
85.32573,27.77858,0
85.32572,27.77861,0
85.32572,27.77863,0
85.32566,27.77875,0
85.32551,27.7789,0
85.32549,27.77893,0
85.32539,27.77929,0
85.32523,27.77965,0
85.32519,27.77988,0
85.32516,27.78062,0
85.32515,27.78066,0
85.32515,27.78069,0
85.3251,27.78086,0
85.32492,27.7812,0
85.32487,27.78138,0
85.32486,27.7816,0
85.32489,27.78192,0
85.32497,27.78225,0
85.32501,27.78235,0
85.32509,27.78247,0
85.32529,27.7827,0
85.32531,27.78275,0
85.32563,27.78328,0
85.32596,27.78352,0
85.32617,27.7837,0
85.32633,27.78387,0
85.32645,27.78406,0
85.32655,27.78434,0
85.32655,27.78467,0
85.32656,27.7847,0
85.32656,27.78473,0
85.32658,27.78478,0
85.32659,27.78479,0
85.3266,27.78481,0
85.32663,27.78483,0
85.32667,27.78487,0
85.32688,27.78497,0
85.32732,27.78512,0
85.32738,27.78516,0
85.32744,27.78524,0
85.3275,27.7853,0
85.32753,27.78535,0
85.32771,27.78556,0
85.32787,27.78568,0
85.32797,27.78578,0
85.32822,27.78619,0
85.32837,27.78653,0
85.32845,27.78661,0
85.32869,27.78679,0
85.32883,27.78692,0
85.32899,27.78702,0
85.32904,27.78703,0
85.32911,27.78703,0
85.3293,27.78699,0
85.32935,27.78697,0
85.3294,27.78697,0
85.32943,27.78696,0
85.32952,27.78697,0
85.32954,27.78698,0
85.32956,27.78698,0
85.32961,27.78702,0
85.32965,27.78707,0
85.32969,27.78715,0
85.32988,27.7874,0
85.32993,27.7875,0
85.32993,27.78753,0
85.32992,27.78756,0
85.32992,27.78758,0
85.32986,27.78769,0
85.32974,27.78781,0
85.32967,27.78792,0
85.32965,27.788,0
85.32965,27.78811,0
85.32966,27.78814,0
85.32988,27.78848,0
85.32997,27.78875,0
85.32998,27.78876,0
85.33002,27.78884,0
85.33008,27.78891,0
85.33011,27.78896,0
85.33013,27.78897,0
85.33014,27.78899,0
85.33017,27.78901,0
85.33025,27.78915,0
85.33036,27.78946,0
85.33036,27.78956,0
85.33034,27.7896,0
85.33022,27.7897,0
85.33012,27.78981,0
85.32997,27.79004,0
85.32994,27.79013,0
85.32994,27.7902,0
85.32996,27.79026,0
85.33004,27.79042,0
85.33007,27.79061,0
85.33004,27.79074,0
85.33004,27.79078,0
85.33007,27.79091,0
85.33009,27.79095,0
85.33022,27.79111,0
85.33046,27.79132,0
85.33049,27.79138,0
85.33049,27.79146,0
85.33048,27.79148,0
85.33041,27.79154,0
85.33029,27.79159,0
85.33024,27.79163,0
85.33023,27.79165,0
85.33021,27.79167,0
85.33019,27.79172,0
85.33018,27.79182,0
85.33006,27.79235,0
85.33005,27.79236,0
85.33003,27.79287,0
85.32998,27.79331,0
85.32999,27.79355,0
85.33001,27.79367,0
85.32999,27.79379,0
85.32999,27.79384,0
85.33002,27.79393,0
85.33005,27.79398,0
85.33005,27.794,0
85.33006,27.79403,0
85.33006,27.79406,0
85.33007,27.7941,0
85.33007,27.79415,0
85.33005,27.7942,0
85.33001,27.79426,0
85.32994,27.79433,0
85.32987,27.79445,0
85.32981,27.79487,0
85.32977,27.79501,0
85.3297,27.79515,0
85.32967,27.79519,0
85.32963,27.79529,0
85.32964,27.79562,0
85.32954,27.79591,0
85.32954,27.79599,0
85.32953,27.79602,0
85.32955,27.79621,0
85.32961,27.79641,0
85.32962,27.79642,0
85.32963,27.7965,0
85.32951,27.7969,0
85.3295,27.79711,0
85.32951,27.79718,0
85.32934,27.79744,0
85.32921,27.7976,0
85.32906,27.79775,0
85.32853,27.79807,0
85.32844,27.79816,0
85.32842,27.79821,0
85.32837,27.79829,0
85.32826,27.79853,0
85.32822,27.79857,0
85.32811,27.79865,0
85.32806,27.79866,0
85.32804,27.79867,0
85.32801,27.79867,0
85.328,27.79866,0
85.32798,27.79865,0
85.32796,27.79863,0
85.32794,27.79859,0
85.32791,27.79856,0
85.32787,27.79854,0
85.32781,27.79854,0
85.32778,27.79855,0
85.32773,27.79858,0
85.32764,27.7986,0
85.32758,27.7986,0
85.32752,27.79857,0
85.32751,27.79856,0
85.32747,27.79854,0
85.32739,27.79846,0
85.32724,27.79853,0
85.32668,27.79872,0
85.32659,27.79874,0
85.32604,27.79893,0
85.32585,27.79904,0
85.3255,27.79912,0
85.32521,27.79923,0
85.32512,27.79929,0
85.32508,27.79937,0
85.32507,27.79943,0
85.32506,27.79945,0
85.32505,27.79946,0
85.32503,27.79947,0
85.3249,27.79949,0
85.32481,27.79949,0
85.32473,27.79947,0
85.3247,27.79947,0
85.32467,27.79946,0
85.32457,27.79947,0
85.32438,27.79954,0
85.32435,27.79954,0
85.32426,27.7996,0
85.32414,27.79963,0
85.32389,27.79964,0
85.32387,27.79962,0
85.32375,27.79958,0
85.32368,27.79958,0
85.32364,27.79959,0
85.32363,27.7996,0
85.3236,27.79961,0
85.32349,27.79971,0
85.32348,27.79973,0
85.32344,27.79975,0
85.32343,27.79976,0
85.3233,27.79982,0
85.32328,27.79982,0
85.32328,27.79983,0
85.32327,27.79984,0
85.32321,27.79983,0
85.32313,27.79983,0
85.32308,27.79982,0
85.32304,27.79982,0
85.32301,27.79981,0
85.32297,27.79981,0
85.32295,27.7998,0
85.32285,27.7998,0
85.32282,27.79979,0
85.32279,27.79979,0
85.32271,27.79975,0
85.32268,27.79972,0
85.32265,27.79971,0
85.32263,27.79969,0
85.32256,27.79966,0
85.32248,27.79961,0
85.32243,27.79959,0
85.32242,27.79958,0
85.32239,27.79957,0
85.32234,27.79952,0
85.32229,27.79941,0
85.32224,27.79922,0
85.32224,27.79916,0
85.32226,27.7991,0
85.32226,27.79909,0
85.32225,27.79907,0
85.32225,27.79906,0
85.32224,27.79905,0
85.32226,27.79898,0
85.32226,27.79896,0
85.3222,27.79885,0
85.32218,27.79878,0
85.32218,27.79872,0
85.32237,27.79829,0
85.32239,27.79826,0
85.32239,27.79817,0
85.32238,27.79816,0
85.32236,27.79817,0
85.32235,27.79817,0
85.32232,27.7982,0
85.32228,27.79828,0
85.32224,27.79833,0
85.32211,27.79842,0
85.32199,27.79844,0
85.32192,27.79843,0
85.32173,27.79837,0
85.3216,27.79835,0
85.32149,27.79835,0
85.32137,27.79837,0
85.32134,27.79839,0
85.32133,27.79841,0
85.32131,27.79842,0
85.32113,27.7986,0
85.32111,27.79863,0
85.32111,27.79864,0
85.3211,27.79866,0
85.32111,27.7987,0
85.32113,27.79873,0
85.32115,27.79878,0
85.3212,27.79885,0
85.32128,27.79902,0
85.32128,27.79906,0
85.32123,27.79923,0
85.32123,27.79931,0
85.32121,27.79933,0
85.32121,27.79934,0
85.32098,27.79933,0
85.32085,27.79935,0
85.32081,27.79937,0
85.32079,27.79939,0
85.32079,27.7994,0
85.32078,27.79941,0
85.32079,27.79941,0
85.32079,27.79942,0
85.32081,27.79944,0
85.32088,27.79947,0
85.32107,27.79951,0
85.32118,27.7996,0
85.3212,27.79964,0
85.3212,27.79968,0
85.32118,27.79974,0
85.32118,27.79984,0
85.32119,27.79985,0
85.32124,27.8,0
85.32124,27.80001,0
85.32126,27.80007,0
85.32126,27.80011,0
85.32111,27.80035,0
85.32111,27.80038,0
85.3211,27.80038,0
85.32111,27.80039,0
85.32111,27.8004,0
85.32112,27.8004,0
85.32113,27.80041,0
85.32114,27.80041,0
85.32116,27.80042,0
85.32117,27.80042,0
85.32119,27.80043,0
85.32121,27.80045,0
85.32121,27.80048,0
85.3212,27.80049,0
85.3212,27.8005,0
85.32119,27.80052,0
85.32118,27.80053,0
85.32116,27.80058,0
85.32115,27.80059,0
85.32116,27.80069,0
85.32126,27.80089,0
85.32137,27.80102,0
85.32138,27.80102,0
85.32148,27.8009,0
85.32148,27.80089,0
85.3215,27.80089,0
85.32152,27.8009,0
85.32153,27.8009,0
85.3216,27.80094,0
</coordinates>
</LineString>
</Placemark>
<Placemark>
<name>Samakhusi, Kathmandu</name>
<styleUrl>#icon-1899-DB4436-nodesc</styleUrl>
<Point>
<coordinates>
85.3174739,27.7272501,0
</coordinates>
</Point>
</Placemark>
<Placemark>
<name>Jhor Waterfall.</name>
<styleUrl>#icon-1899-DB4436-nodesc</styleUrl>
<Point>
<coordinates>
85.3216011,27.8009361,0
</coordinates>
</Point>
</Placemark>
</Folder>
</Document>
</kml>
