<?xml version="1.0" encoding="UTF-8"?>
<kml xmlns="http://www.opengis.net/kml/2.2">
<Document>
<name>WNW_43.HumaneBhanjyang to Machhegau</name>
<description/>
<Style id="icon-123-normal">
<IconStyle>
<scale>1.1</scale>
<Icon>
<href>https://www.gstatic.com/mapspro/images/stock/123-red-dot.png</href>
</Icon>
<hotSpot x="16" xunits="pixels" y="32" yunits="insetPixels"/>
</IconStyle>
<LabelStyle>
<scale>0</scale>
</LabelStyle>
</Style>
<Style id="icon-123-highlight">
<IconStyle>
<scale>1.1</scale>
<Icon>
<href>https://www.gstatic.com/mapspro/images/stock/123-red-dot.png</href>
</Icon>
<hotSpot x="16" xunits="pixels" y="32" yunits="insetPixels"/>
</IconStyle>
<LabelStyle>
<scale>1.1</scale>
</LabelStyle>
</Style>
<StyleMap id="icon-123">
<Pair>
<key>normal</key>
<styleUrl>#icon-123-normal</styleUrl>
</Pair>
<Pair>
<key>highlight</key>
<styleUrl>#icon-123-highlight</styleUrl>
</Pair>
</StyleMap>
<Style id="icon-61-normal">
<IconStyle>
<scale>1.1</scale>
<Icon>
<href>https://www.gstatic.com/mapspro/images/stock/61-green-dot.png</href>
</Icon>
<hotSpot x="16" xunits="pixels" y="32" yunits="insetPixels"/>
</IconStyle>
<LabelStyle>
<scale>0</scale>
</LabelStyle>
</Style>
<Style id="icon-61-highlight">
<IconStyle>
<scale>1.1</scale>
<Icon>
<href>https://www.gstatic.com/mapspro/images/stock/61-green-dot.png</href>
</Icon>
<hotSpot x="16" xunits="pixels" y="32" yunits="insetPixels"/>
</IconStyle>
<LabelStyle>
<scale>1.1</scale>
</LabelStyle>
</Style>
<StyleMap id="icon-61">
<Pair>
<key>normal</key>
<styleUrl>#icon-61-normal</styleUrl>
</Pair>
<Pair>
<key>highlight</key>
<styleUrl>#icon-61-highlight</styleUrl>
</Pair>
</StyleMap>
<Style id="line-0288D1-5000-normal">
<LineStyle>
<color>ffd18802</color>
<width>5</width>
</LineStyle>
</Style>
<Style id="line-0288D1-5000-highlight">
<LineStyle>
<color>ffd18802</color>
<width>7.5</width>
</LineStyle>
</Style>
<StyleMap id="line-0288D1-5000">
<Pair>
<key>normal</key>
<styleUrl>#line-0288D1-5000-normal</styleUrl>
</Pair>
<Pair>
<key>highlight</key>
<styleUrl>#line-0288D1-5000-highlight</styleUrl>
</Pair>
</StyleMap>
<Folder>
<name>हुमाने भन्ज्याङ - डाँडी गाउँ - भष्मासुर डाँडा - पुष्पलाल पार्क.gpx</name>
<Placemark>
<name>Start of Morning Walk</name>
<description><![CDATA[Saturday, December 22, 2018, 9:00 AM NPT<br>Elevation: 5937 feet]]></description>
<styleUrl>#icon-61</styleUrl>
<Point>
<coordinates>
85.240294,27.599485,1809.5
</coordinates>
</Point>
</Placemark>
<Placemark>
<name>End of Morning Walk</name>
<description><![CDATA[Saturday, December 22, 2018, 7:25 PM NPT<br>Elevation: 5045 feet]]></description>
<styleUrl>#icon-123</styleUrl>
<Point>
<coordinates>
85.251994,27.65961,1537.6
</coordinates>
</Point>
</Placemark>
<Placemark>
<name>Morning Walk</name>
<description><![CDATA[Statistics computed from imported data<br><br>Saturday, December 22, 2018, 9:00 AM NPT<br>Distance: 7.7 miles<br>Duration: 10 hours, 25 minutes, and 15 seconds<br>Average Speed: 0.7 mph<br>Minimum Elevation: 5075 feet<br>Maximum Elevation: 7849 feet<br>Total climb: 2941 feet<br>Total descent: 3803 feet]]></description>
<styleUrl>#line-0288D1-5000</styleUrl>
<LineString>
<tessellate>1</tessellate>
<coordinates>
85.240294,27.599485,1809.5
85.240325,27.599496,1809.5
85.240289,27.599473,1809.5
85.240187,27.599532,1809.5
85.240172,27.599468,1809.5
85.240172,27.599421,1809.5
85.240166,27.59937,1809.5
85.240187,27.599355,1809.5
85.240187,27.599409,1809.5
85.240187,27.599455,1809.5
85.240228,27.599452,1809.5
85.240274,27.599437,1809.5
85.240294,27.599496,1809.5
85.240279,27.599508,1809.5
85.240294,27.599557,1809.5
85.240325,27.599468,1809.5
85.240305,27.599524,1809.5
85.240274,27.599532,1809.5
85.240243,27.599555,1809.5
85.240218,27.599542,1809.5
85.240233,27.599575,1809.5
85.240259,27.599532,1809.5
85.240243,27.599572,1809.5
85.240243,27.599624,1809.5
85.240233,27.59967,1809.5
85.240166,27.599667,1809.5
85.24011,27.599665,1809.5
85.240054,27.599693,1809.5
85.240008,27.599708,1809.5
85.239962,27.599718,1809.5
85.239859,27.599839,1823
85.239798,27.599928,1823
85.239762,27.599972,1823
85.239716,27.600013,1823
85.239675,27.600036,1823
85.239603,27.600064,1823
85.239542,27.600072,1823
85.23947,27.600079,1823
85.239409,27.600079,1823
85.239347,27.600087,1823
85.239281,27.600095,1823
85.239229,27.6001,1823
85.239168,27.6001,1823
85.239112,27.600102,1823
85.239045,27.600105,1823
85.238984,27.60011,1823
85.238912,27.600123,1823
85.238856,27.600141,1823
85.238794,27.6002,1824.2
85.238769,27.600233,1824.2
85.238717,27.600266,1824.2
85.238661,27.600297,1824.2
85.23861,27.600323,1824.2
85.238548,27.600343,1824.2
85.238482,27.600364,1824.2
85.238426,27.600381,1824.2
85.238374,27.600399,1824.2
85.238313,27.60042,1823
85.238257,27.60044,1823
85.238205,27.600463,1823
85.238159,27.600499,1823
85.238124,27.600566,1823
85.238093,27.600612,1823
85.238067,27.600655,1823
85.238031,27.600712,1823
85.238062,27.600771,1823
85.238113,27.600771,1823
85.238098,27.600791,1823
85.238093,27.600837,1825.5
85.238047,27.600863,1825.5
85.23799,27.600893,1825.5
85.237939,27.600911,1825.5
85.237914,27.600955,1825.5
85.237893,27.601009,1825.5
85.237852,27.601027,1827.3
85.237832,27.601052,1827.3
85.237791,27.60107,1827.3
85.237734,27.601101,1827.3
85.237704,27.601142,1827.3
85.237678,27.601196,1827.3
85.237663,27.601249,1827.3
85.237647,27.601293,1827.3
85.237642,27.601347,1827.3
85.237663,27.601398,1827.3
85.237688,27.601449,1828.7
85.237688,27.601523,1829.9
85.237673,27.601562,1829.9
85.237642,27.6016,1829.9
85.237586,27.601646,1829.9
85.23755,27.60169,1829.9
85.237494,27.601725,1829.9
85.237443,27.601764,1829.9
85.237396,27.601807,1829.9
85.237366,27.601853,1828.3
85.237345,27.601905,1828.3
85.237335,27.601958,1829.5
85.23732,27.601992,1829.5
85.237268,27.602035,1829.5
85.237253,27.602092,1829.5
85.237238,27.602153,1829.5
85.237197,27.602189,1829.5
85.237151,27.602225,1829.5
85.237115,27.602268,1829.5
85.237084,27.602317,1829.5
85.237069,27.602363,1829.5
85.237053,27.602414,1829.5
85.237043,27.602465,1829.5
85.237038,27.602524,1829.5
85.237038,27.602583,1829.5
85.237043,27.602632,1829.5
85.237053,27.602698,1829.5
85.237059,27.602744,1829.5
85.237074,27.602811,1829.5
85.237084,27.602865,1829.5
85.237059,27.602908,1829.5
85.237043,27.602954,1829.5
85.237059,27.603013,1829.5
85.237074,27.603057,1829.5
85.2371,27.603105,1829.5
85.23713,27.603146,1829.5
85.237151,27.603208,1829.5
85.237176,27.603251,1829.5
85.237207,27.603297,1829.5
85.237253,27.603346,1829.5
85.237284,27.603384,1829.5
85.237345,27.603423,1830.7
85.237386,27.603446,1830.7
85.237427,27.603492,1830.7
85.237432,27.603551,1830.7
85.237443,27.603602,1830.7
85.237443,27.603661,1831.9
85.237448,27.603709,1831.9
85.237473,27.603756,1831.9
85.237494,27.603812,1831.9
85.237478,27.603866,1830.7
85.237478,27.603924,1830.7
85.237494,27.603971,1830.7
85.237504,27.604032,1830.7
85.237494,27.604073,1831.9
85.237571,27.604063,1833.3
85.237627,27.604076,1836.2
85.237688,27.604081,1837.4
85.23774,27.604104,1837.4
85.237791,27.604132,1837.4
85.237847,27.60415,1837.4
85.237898,27.604173,1838.6
85.237924,27.604191,1839.9
85.237862,27.604204,1842.2
85.237801,27.604188,1843.3
85.237745,27.604191,1843.3
85.23776,27.604232,1845.8
85.23774,27.604326,1850.8
85.23774,27.604352,1852
85.237786,27.604383,1854.4
85.237806,27.604411,1855.6
85.23776,27.604426,1856.8
85.237801,27.604457,1858
85.237837,27.604498,1859.3
85.237821,27.604539,1861.7
85.237868,27.604588,1864.3
85.237837,27.604618,1865.5
85.237786,27.604636,1868.1
85.237816,27.604672,1869.3
85.237806,27.60471,1872
85.23776,27.604741,1873.3
85.237786,27.604787,1874.6
85.23777,27.604826,1877.2
85.23774,27.604854,1878.4
85.237734,27.604882,1879.6
85.23777,27.604923,1882.1
85.237775,27.604966,1883.3
85.23776,27.605015,1885.8
85.23776,27.605097,1888.3
85.237745,27.605146,1890.8
85.23774,27.605192,1892
85.237734,27.605307,1892
85.23774,27.605358,1892
85.23774,27.605412,1892
85.237745,27.605463,1892
85.237755,27.605514,1892
85.237786,27.605619,1901.7
85.23776,27.605668,1901.7
85.23777,27.605655,1902.9
85.237837,27.605765,1906.3
85.237883,27.605788,1907.6
85.237898,27.605844,1911.2
85.237908,27.605873,1912.4
85.237908,27.605916,1913.7
85.237862,27.605952,1914.9
85.237847,27.605998,1917.3
85.237821,27.606042,1917.3
85.237791,27.606077,1919.7
85.237816,27.606182,1927.1
85.237791,27.606246,1928.3
85.237832,27.606282,1930.8
85.237862,27.606313,1932
85.237898,27.606354,1934.4
85.237883,27.6064,1936.9
85.237893,27.60641,1940.5
85.237914,27.6065,1942.9
85.237878,27.606528,1944.1
85.237883,27.606572,1946.5
85.237883,27.606597,1949
85.237878,27.606633,1950.2
85.237929,27.606656,1951.4
85.237908,27.606648,1954
85.237944,27.606784,1961.3
85.237955,27.60682,1962.5
85.237973,27.606968,1963.8
85.238007,27.607072,1969.3
85.238041,27.607177,1983.8
85.238076,27.607282,1993.3
85.23811,27.607386,1998.1
85.238144,27.607491,1999.3
85.238149,27.607532,1999.3
85.238159,27.607578,1999.3
85.238164,27.607613,2000.7
85.238175,27.607667,2001.9
85.238164,27.607718,2003.2
85.238164,27.607772,2004.3
85.23818,27.607818,2005.5
85.238195,27.607862,2008
85.238205,27.607905,2008
85.238236,27.607959,2009.3
85.238221,27.608013,2010.5
85.238205,27.608064,2010.5
85.238195,27.60811,2010.5
85.23818,27.608161,2010.5
85.23818,27.608212,2010.5
85.238164,27.608264,2010.5
85.238159,27.608317,2012.1
85.238144,27.608376,2013.3
85.238124,27.608428,2013.3
85.238083,27.608458,2014.4
85.238047,27.608489,2014.4
85.238062,27.608484,2015.7
85.238016,27.60855,2015.7
85.237985,27.608589,2015.7
85.23796,27.608637,2015.7
85.237939,27.608681,2015.7
85.237914,27.608737,2015.7
85.237924,27.608781,2015.7
85.237955,27.608817,2015.7
85.237944,27.608863,2015.7
85.237893,27.608906,2015.7
85.237852,27.608957,2018
85.237821,27.609006,2018
85.237816,27.609044,2018
85.237791,27.609106,2018
85.237786,27.60917,2016.8
85.23777,27.609219,2016.8
85.237745,27.609283,2016.8
85.237734,27.609339,2016.8
85.237719,27.609395,2016.8
85.237693,27.609452,2016.8
85.237678,27.6095,2016.8
85.237647,27.609549,2016.8
85.237617,27.609605,2018.2
85.237596,27.609651,2018.2
85.237565,27.6097,2019.4
85.237535,27.609748,2019.4
85.237509,27.6098,2020.6
85.237489,27.609859,2020.6
85.237519,27.6099,2021.8
85.237489,27.609948,2021.8
85.237458,27.609997,2023
85.237427,27.610051,2024.2
85.237402,27.610099,2025.4
85.237417,27.610145,2025.4
85.237381,27.610194,2026.6
85.237396,27.610253,2027.9
85.237386,27.610307,2029.1
85.23735,27.610345,2030.3
85.237345,27.610378,2030.3
85.23735,27.610406,2031.6
85.237335,27.610458,2031.6
85.23733,27.610504,2032.8
85.237304,27.610547,2034
85.237268,27.610588,2035.3
85.237238,27.610627,2036.4
85.237207,27.610668,2037.6
85.237176,27.610719,2038.8
85.237151,27.610765,2040
85.237146,27.610816,2041.2
85.23713,27.610865,2043.6
85.237084,27.610877,2043.6
85.237028,27.610908,2044.9
85.236997,27.610952,2046.1
85.236992,27.611005,2047.3
85.236997,27.611046,2048.5
85.237038,27.611092,2050.9
85.237043,27.611141,2052.2
85.236997,27.611177,2054.5
85.236982,27.611231,2054.5
85.236972,27.611279,2055.7
85.236956,27.611333,2057
85.236941,27.611382,2057
85.23691,27.611436,2058.2
85.236895,27.611482,2058.2
85.236869,27.611535,2059.4
85.236849,27.611584,2059.4
85.236838,27.61164,2059.4
85.236838,27.611684,2059.4
85.236854,27.611743,2059.4
85.236879,27.611796,2060.7
85.2369,27.611843,2060.7
85.236915,27.611894,2060.7
85.236941,27.611945,2060.7
85.236956,27.611991,2060.7
85.236972,27.612047,2060.7
85.237012,27.612073,2059.2
85.237043,27.612119,2059.2
85.237089,27.61216,2058
85.237151,27.61218,2058
85.237212,27.612201,2058
85.237258,27.612227,2058
85.237315,27.612257,2058
85.237366,27.612283,2058
85.237386,27.612324,2058
85.237448,27.612357,2058
85.237494,27.612403,2058
85.237524,27.612447,2059.8
85.23755,27.612495,2061.1
85.237586,27.612536,2061.1
85.237612,27.61259,2062.3
85.237642,27.612636,2062.3
85.237693,27.612669,2063.5
85.237734,27.612721,2063.5
85.23777,27.612754,2063.5
85.237801,27.612797,2063.5
85.237832,27.612844,2063.5
85.237868,27.612884,2063.5
85.237908,27.612933,2063.5
85.237883,27.612966,2063.5
85.237847,27.613007,2063.5
85.237821,27.613056,2063.5
85.237852,27.613107,2065.7
85.237862,27.613164,2065.7
85.237801,27.613181,2065.7
85.237745,27.613202,2065.7
85.237704,27.61324,2065.7
85.237693,27.613325,2065.7
85.237719,27.613368,2065.7
85.237709,27.613432,2065.7
85.237719,27.613473,2065.7
85.23774,27.613517,2065.7
85.237745,27.613612,2063.3
85.237704,27.613627,2063.3
85.237673,27.613688,2062.2
85.237647,27.613737,2061
85.237663,27.613793,2061
85.237678,27.613832,2059.8
85.237709,27.613875,2059.8
85.237734,27.613926,2058.5
85.237724,27.61398,2057.3
85.237724,27.614031,2056.2
85.237724,27.61408,2055
85.237745,27.614126,2055
85.237719,27.614172,2053.8
85.237719,27.614223,2053.8
85.237709,27.614295,2051.4
85.237704,27.614341,2050.3
85.237709,27.614313,2049.1
85.237821,27.614456,2044.3
85.237862,27.614492,2043.2
85.237878,27.614548,2040.8
85.237878,27.614602,2040.8
85.237878,27.614651,2039.5
85.237868,27.614705,2038.3
85.237847,27.614751,2037.1
85.237786,27.614766,2037.1
85.23774,27.614781,2035.8
85.237704,27.614825,2034.4
85.237658,27.614858,2033.3
85.237642,27.614904,2032
85.237581,27.614935,2030.8
85.23755,27.614984,2030.8
85.23754,27.615025,2029.5
85.237565,27.615086,2028.3
85.23754,27.615132,2028.3
85.237504,27.615171,2027.2
85.237463,27.615222,2026
85.237432,27.615265,2026
85.237396,27.615304,2026
85.237371,27.615357,2028.3
85.23733,27.615396,2029.5
85.237258,27.615421,2029.5
85.237212,27.615427,2029.5
85.237151,27.615409,2029.5
85.237084,27.615427,2029.5
85.237028,27.615444,2029.5
85.236977,27.615455,2029.5
85.23691,27.615462,2028.2
85.236864,27.615455,2027
85.236756,27.61547,2025.8
85.2367,27.615478,2024.5
85.236649,27.615506,2022.2
85.236588,27.615529,2020.9
85.236541,27.615529,2019.6
85.236506,27.615485,2018.4
85.236475,27.615429,2017.3
85.236419,27.615429,2016
85.236383,27.615462,2014.8
85.236357,27.615514,2013.5
85.236383,27.61556,2013.5
85.236398,27.615616,2013.5
85.236413,27.615667,2012.3
85.236434,27.615713,2012.3
85.23648,27.615752,2011.2
85.236521,27.615785,2011.2
85.236557,27.615823,2010
85.236593,27.615872,2008.8
85.236649,27.615905,2007.6
85.236685,27.615946,2007.6
85.236731,27.615977,2006.4
85.236772,27.61602,2006.4
85.236777,27.616084,2006.4
85.236762,27.616128,2005.3
85.23671,27.616159,2005.3
85.236669,27.616192,2005.3
85.236669,27.616241,2005.3
85.2367,27.616325,2009
85.236716,27.616371,2010.3
85.23668,27.616407,2012.8
85.236634,27.61644,2014.1
85.236603,27.616481,2016.4
85.236618,27.616509,2017.6
85.2367,27.616568,2017.6
85.236731,27.616586,2017.6
85.236772,27.616625,2017.6
85.236787,27.616673,2017.6
85.236777,27.616727,2025.1
85.2367,27.616806,2027.5
85.236669,27.616847,2028.7
85.236608,27.616873,2028.7
85.236582,27.616914,2028.7
85.236572,27.616963,2028.7
85.236541,27.617014,2030
85.236511,27.617062,2031.2
85.23648,27.617103,2031.2
85.23646,27.61716,2033.7
85.23648,27.617208,2033.7
85.236511,27.617244,2035
85.236511,27.617249,2037.3
85.236506,27.617357,2037.3
85.236511,27.617395,2037.3
85.236511,27.617446,2038.5
85.236511,27.6175,2038.5
85.236526,27.617546,2039.7
85.236526,27.617603,2040.9
85.236526,27.617656,2040.9
85.236536,27.61771,2042.1
85.236552,27.617766,2042.1
85.236567,27.617815,2042.1
85.236603,27.617841,2042.1
85.236639,27.617884,2043.3
85.236649,27.617933,2043.3
85.2367,27.617994,2044.5
85.236746,27.61802,2044.5
85.236803,27.61804,2045.7
85.236854,27.618051,2045.7
85.236869,27.618038,2045.7
85.236849,27.618066,2045.7
85.236823,27.618117,2045.7
85.236803,27.618173,2045.7
85.236787,27.618222,2045.7
85.236746,27.61826,2045.7
85.2367,27.618294,2045.7
85.236623,27.618322,2045.7
85.236593,27.61836,2045.7
85.236536,27.618417,2045.7
85.236506,27.618463,2050.7
85.236449,27.618493,2050.7
85.236403,27.618537,2050.7
85.236367,27.618588,2050.7
85.236357,27.618644,2050.7
85.236357,27.618708,2050.7
85.236352,27.618785,2050.7
85.236352,27.618831,2050.7
85.236326,27.61888,2050.7
85.23628,27.618921,2050.7
85.236244,27.618959,2050.7
85.236204,27.618995,2050.7
85.236168,27.619036,2050.7
85.236132,27.619082,2050.7
85.236086,27.619121,2050.7
85.23604,27.619151,2050.7
85.235978,27.619185,2050.7
85.235917,27.619223,2050.7
85.235876,27.619277,2050.7
85.23586,27.619328,2050.7
85.23586,27.619382,2050.7
85.235855,27.619438,2050.7
85.235845,27.619497,2050.7
85.235855,27.619553,2050.7
85.23586,27.619622,2049.5
85.23583,27.619674,2049.5
85.235789,27.619725,2049.5
85.235727,27.619773,2049.5
85.235686,27.619817,2049.5
85.235656,27.619871,2049.5
85.235625,27.619914,2049.5
85.235594,27.619968,2048.3
85.235564,27.620019,2048.3
85.235533,27.620068,2047.2
85.235497,27.620116,2047.2
85.235456,27.620165,2047.2
85.235436,27.620221,2047.2
85.23542,27.620288,2046
85.235405,27.620332,2046
85.235389,27.620383,2046
85.235374,27.620436,2044.8
85.235354,27.620483,2044.8
85.235292,27.6205,2043.6
85.235231,27.6205,2043.6
85.235159,27.62049,2043.6
85.235098,27.620485,2042.4
85.235046,27.620483,2042.4
85.23498,27.620477,2042.4
85.234903,27.62047,2041.2
85.234857,27.620506,2041.2
85.234811,27.620534,2041.2
85.234755,27.620549,2041.2
85.234693,27.62057,2040
85.234642,27.62059,2040
85.23458,27.620603,2040
85.234519,27.620611,2040
85.234452,27.620603,2040
85.234406,27.620595,2040
85.234335,27.620582,2041.4
85.234284,27.620564,2042.6
85.234232,27.620541,2044.1
85.234176,27.620524,2045.3
85.234115,27.620508,2046.4
85.234063,27.620521,2046.4
85.234017,27.620536,2048.8
85.23393,27.620557,2048.8
85.233874,27.620539,2048.8
85.2339,27.620531,2048.8
85.233961,27.620531,2048.8
85.233956,27.620534,2048.8
85.2339,27.620554,2048.8
85.233843,27.62057,2048.8
85.233787,27.620593,2048.8
85.233725,27.620623,2048.8
85.233664,27.620649,2048.8
85.233618,27.620669,2048.8
85.233679,27.620644,2048.8
85.233756,27.620611,2048.8
85.233802,27.62059,2048.8
85.233848,27.62057,2048.8
85.233915,27.620541,2048.8
85.233956,27.620534,2048.8
85.233879,27.620541,2048.8
85.233812,27.620557,2048.8
85.233751,27.620572,2048.8
85.233695,27.620588,2048.8
85.233644,27.620611,2048.8
85.233597,27.620641,2048.8
85.233541,27.620669,2054
85.233485,27.6207,2054
85.233413,27.620736,2054
85.233377,27.620759,2055.2
85.233316,27.620792,2055.2
85.23327,27.620818,2055.2
85.233213,27.620849,2056.3
85.233167,27.620879,2056.3
85.233116,27.620915,2057.6
85.23307,27.620946,2057.6
85.233024,27.620977,2058.8
85.232978,27.621015,2058.8
85.232932,27.621048,2060
85.232911,27.621094,2061.2
85.232881,27.621138,2061.2
85.232835,27.621158,2062.3
85.232835,27.621156,2063.5
85.232778,27.621199,2063.5
85.232727,27.621235,2063.5
85.232676,27.621263,2063.5
85.23262,27.621289,2063.5
85.232573,27.621325,2063.5
85.232573,27.621368,2069.7
85.232543,27.62142,2072.1
85.232507,27.621443,2074.5
85.232476,27.621484,2075.7
85.232445,27.621532,2078.3
85.23242,27.621583,2079.5
85.232445,27.621635,2080.7
85.23243,27.621678,2080.7
85.232389,27.621727,2079.4
85.232369,27.621778,2079.4
85.232369,27.621821,2079.4
85.232353,27.62188,2079.4
85.232338,27.621929,2079.4
85.232323,27.621978,2080.7
85.232353,27.622016,2083.2
85.232338,27.621998,2086.8
85.232287,27.622136,2088
85.232271,27.622164,2088
85.232261,27.622198,2088
85.232256,27.622252,2089.2
85.232256,27.6223,2090.4
85.232256,27.622356,2091.6
85.232256,27.622405,2092.8
85.232184,27.622413,2094.1
85.232133,27.622415,2094.1
85.232072,27.622418,2095.3
85.232,27.622408,2095.3
85.231944,27.622397,2095.3
85.231882,27.622392,2096.4
85.231872,27.622403,2096.4
85.231903,27.622505,2096.4
85.231928,27.622548,2096.4
85.231928,27.6226,2096.4
85.231913,27.622664,2101.4
85.231882,27.622712,2101.4
85.231836,27.622723,2101.4
85.231775,27.622712,2101.4
85.231688,27.62272,2101.4
85.231652,27.622756,2101.4
85.231657,27.622787,2101.4
85.231657,27.62281,2101.4
85.231683,27.622853,2101.4
85.231703,27.622874,2110.5
85.231729,27.622915,2112.9
85.231703,27.622958,2114.1
85.231734,27.622996,2116.4
85.231718,27.623045,2119
85.231729,27.623084,2121.4
85.231698,27.623122,2122.5
85.231657,27.623165,2125
85.231626,27.623209,2126.2
85.231611,27.623258,2128.5
85.231596,27.623311,2129.8
85.23157,27.62337,2129.8
85.231524,27.623411,2132.3
85.231483,27.623452,2132.3
85.231432,27.623475,2133.5
85.231375,27.623503,2134.7
85.231314,27.623526,2136
85.231268,27.623549,2137.2
85.231206,27.62357,2138.4
85.23115,27.623575,2139.5
85.231165,27.623572,2140.7
85.231012,27.623616,2142
85.230981,27.623624,2143.3
85.230935,27.623639,2143.3
85.230894,27.623654,2144.4
85.230833,27.623683,2145.6
85.230781,27.623698,2145.6
85.230735,27.623736,2146.9
85.23073,27.623739,2148.2
85.23052,27.62388,2148.2
85.230484,27.623892,2148.2
85.230408,27.62389,2148.2
85.230346,27.623887,2148.2
85.230285,27.623872,2148.2
85.230234,27.623872,2159.1
85.230172,27.623869,2160.4
85.2301,27.623857,2161.6
85.230054,27.623887,2162.9
85.230013,27.623908,2164.1
85.229957,27.623936,2166.4
85.229896,27.623946,2166.4
85.229829,27.623959,2167.7
85.229783,27.623985,2168.9
85.229737,27.624013,2170.1
85.229696,27.624056,2171.3
85.22966,27.624097,2172.5
85.229614,27.624133,2173.7
85.229583,27.624177,2174.9
85.229563,27.624223,2176.2
85.229522,27.624264,2177.4
85.229476,27.624302,2179.8
85.229445,27.624335,2181
85.229409,27.624379,2182.3
85.229379,27.624404,2183.5
85.229307,27.62441,2184.8
85.229261,27.624433,2186
85.22922,27.624468,2187.2
85.229179,27.624515,2188.4
85.229148,27.624561,2189.6
85.229102,27.624596,2190.9
85.229066,27.624627,2190.9
85.22902,27.624663,2192.1
85.228974,27.624701,2193.3
85.228948,27.62476,2194.4
85.228928,27.624796,2195.7
85.228887,27.624829,2196.9
85.228846,27.624868,2198.1
85.228805,27.624914,2199.3
85.228769,27.624963,2200.5
85.228744,27.625001,2201.7
85.228708,27.62505,2201.7
85.228682,27.625096,2201.7
85.228662,27.625144,2203
85.228662,27.62519,2204.3
85.228698,27.625219,2205.4
85.228728,27.625265,2206.7
85.228739,27.625316,2207.9
85.228744,27.625367,2209.1
85.228744,27.625421,2210.3
85.228698,27.625457,2211.4
85.228662,27.625503,2211.4
85.228636,27.625546,2212.7
85.228605,27.625587,2214
85.228472,27.62561,2216.4
85.228426,27.625638,2218.3
85.228416,27.625644,2218.3
85.228293,27.625677,2221
85.228262,27.625687,2221
85.228232,27.625674,2222.2
85.227945,27.625728,2222.2
85.227889,27.625741,2222.2
85.227868,27.625746,2222.2
85.227822,27.625746,2222.2
85.227766,27.625733,2222.2
85.227735,27.625764,2232.4
85.227479,27.625705,2232.4
85.227453,27.625659,2232.4
85.227423,27.625615,2232.4
85.227392,27.625572,2232.4
85.227356,27.625526,2232.4
85.227325,27.62548,2235.2
85.227295,27.625436,2235.2
85.227259,27.62539,2235.2
85.227233,27.625339,2235.2
85.227197,27.625239,2235.2
85.227167,27.62519,2235.2
85.227121,27.625149,2235.2
85.227064,27.625124,2237.5
85.227028,27.625083,2237.5
85.226982,27.62506,2238.7
85.226921,27.625055,2238.7
85.226875,27.625016,2238.7
85.226829,27.624988,2238.7
85.226778,27.624955,2238.7
85.226732,27.624919,2238.7
85.226706,27.624873,2238.7
85.226598,27.624799,2241.5
85.226552,27.624755,2241.5
85.226532,27.624712,2241.5
85.226496,27.624666,2241.5
85.22645,27.624635,2242.7
85.226424,27.624589,2242.7
85.226388,27.624543,2242.7
85.226358,27.624499,2242.7
85.226317,27.624448,2242.7
85.226286,27.624404,2242.7
85.226281,27.624397,2242.7
85.226235,27.624333,2242.7
85.226209,27.624289,2242.7
85.226173,27.624243,2244
85.226153,27.62421,2244
85.226092,27.624174,2244
85.226045,27.624151,2244
85.225989,27.624128,2245.2
85.225928,27.624108,2245.2
85.225708,27.623916,2245.2
85.225677,27.623867,2245.2
85.225626,27.623841,2246.4
85.22558,27.623805,2246.4
85.225533,27.623775,2246.4
85.225487,27.623736,2246.4
85.225431,27.623739,2246.4
85.225364,27.623729,2246.4
85.225313,27.623734,2246.4
85.225252,27.623721,2246.4
85.225196,27.623708,2246.4
85.225144,27.623685,2244.2
85.225083,27.623649,2244.2
85.225037,27.623624,2244.2
85.224986,27.623593,2244.2
85.224929,27.623549,2244.2
85.224899,27.623498,2244.2
85.224878,27.62345,2244.2
85.224868,27.623406,2244.2
85.224852,27.62335,2244.2
85.224817,27.623296,2244.2
85.224791,27.62325,2244.2
85.224745,27.623219,2243
85.224699,27.623183,2243
85.224663,27.623153,2243
85.224612,27.623117,2243
85.224556,27.623099,2243
85.224494,27.623081,2243
85.224433,27.623055,2241.4
85.224381,27.623037,2241.4
85.224335,27.62303,2242.6
85.224243,27.623076,2242.6
85.224207,27.623094,2242.6
85.224161,27.623114,2246.4
85.224105,27.623148,2247.5
85.224136,27.623142,2249.9
85.224177,27.623186,2249.9
85.224207,27.623227,2251.2
85.224228,27.623273,2252.4
85.224279,27.623291,2254.8
85.224335,27.623319,2256
85.224351,27.62337,2258.4
85.22434,27.623368,2259.5
85.224381,27.623508,2269.2
85.224381,27.623547,2270.4
85.224351,27.623572,2271.5
85.224289,27.62359,2272.7
85.224294,27.623588,2273.9
85.224177,27.623764,2282.4
85.224161,27.623795,2282.4
85.224146,27.623826,2282.4
85.224228,27.623967,2289.5
85.224274,27.624102,2293.3
85.224279,27.624141,2294.4
85.224248,27.624174,2294.4
85.224248,27.624228,2296.8
85.224223,27.624276,2298
85.224197,27.624328,2299.2
85.224207,27.624381,2299.2
85.224223,27.624433,2300.4
85.224212,27.624484,2301.5
85.224197,27.62453,2301.5
85.224192,27.624591,2301.5
85.224177,27.624637,2302.7
85.224207,27.624684,2302.7
85.224207,27.624732,2302.7
85.224177,27.624781,2302.7
85.224151,27.624829,2302.7
85.224146,27.624873,2302.7
85.224136,27.624927,2302.7
85.2241,27.624973,2302.7
85.224059,27.625009,2302.7
85.224023,27.625057,2304.4
85.224008,27.625098,2304.4
85.223962,27.625124,2305.6
85.223921,27.625157,2306.8
85.223916,27.625172,2308
85.223916,27.625188,2308
85.223808,27.625262,2308
85.223772,27.625283,2308
85.223726,27.625298,2308
85.22368,27.62527,2308
85.223619,27.625277,2308
85.223557,27.62529,2308
85.223496,27.62529,2308
85.223429,27.625308,2319.5
85.223383,27.625341,2319.5
85.22326,27.625405,2321.3
85.223214,27.625436,2322.4
85.223158,27.625464,2322.4
85.223112,27.62549,2323.6
85.223076,27.625531,2324.9
85.22304,27.625574,2324.9
85.222999,27.625615,2326.1
85.222979,27.625659,2326.1
85.222999,27.625697,2326.1
85.222984,27.625754,2327.3
85.222968,27.625766,2328.4
85.222871,27.625964,2328.4
85.222856,27.625997,2328.4
85.22284,27.62604,2330.3
85.222815,27.626089,2331.4
85.222845,27.626248,2335
85.222815,27.626299,2336.2
85.222794,27.62634,2336.2
85.222733,27.626355,2337.4
85.222692,27.626399,2337.4
85.222666,27.62645,2338.6
85.22262,27.626468,2338.6
85.222564,27.626483,2339.8
85.222513,27.626493,2341
85.222441,27.626511,2342.2
85.222395,27.626522,2342.2
85.222333,27.626529,2343.4
85.222282,27.626542,2344.6
85.222262,27.626596,2344.6
85.222267,27.626644,2345.8
85.222308,27.626685,2345.8
85.222282,27.626742,2345.8
85.222267,27.626788,2345.8
85.222236,27.626831,2345.8
85.222205,27.626865,2345.8
85.22219,27.626913,2345.8
85.222154,27.626949,2345.8
85.222185,27.62699,2345.8
85.222175,27.627044,2348.6
85.222175,27.627021,2351
85.222139,27.627156,2352.3
85.222124,27.627177,2352.3
85.222093,27.627192,2352.3
85.222031,27.627277,2352.3
85.222001,27.627323,2352.3
85.22196,27.627359,2352.3
85.221929,27.627407,2352.3
85.221924,27.627415,2351
85.221929,27.627561,2349.8
85.221929,27.627589,2349.8
85.221939,27.62762,2349.8
85.221985,27.627658,2348.6
85.222021,27.627689,2347.4
85.222047,27.62774,2347.4
85.222016,27.627794,2347.4
85.222016,27.627853,2347.4
85.222031,27.627904,2347.4
85.222047,27.627955,2347.4
85.222047,27.627999,2347.4
85.222047,27.627986,2349.4
85.222036,27.628073,2349.4
85.222036,27.628104,2349.4
85.222067,27.628147,2349.4
85.222083,27.628196,2353.2
85.222083,27.628242,2354.4
85.222077,27.628301,2355.6
85.222067,27.628344,2356.8
85.222067,27.628398,2358
85.222077,27.628452,2359.2
85.222067,27.628506,2360.4
85.222067,27.628557,2361.5
85.222052,27.628613,2361.5
85.222036,27.628664,2362.7
85.222016,27.628713,2363.9
85.22199,27.628764,2365.1
85.221975,27.62881,2365.1
85.221975,27.628869,2366.3
85.221955,27.628913,2367.4
85.221944,27.628966,2368.6
85.221939,27.629066,2369.8
85.221939,27.629123,2369.8
85.221944,27.629171,2371
85.221929,27.629414,2375
85.221939,27.629445,2375
85.221944,27.629594,2377.4
85.221857,27.62987,2377.4
85.221857,27.629924,2382.1
85.221816,27.63017,2382.1
85.221827,27.630221,2382.1
85.221878,27.630241,2382.1
85.221929,27.630275,2382.1
85.221985,27.630259,2382.1
85.222031,27.630239,2382.1
85.222067,27.63019,2382.1
85.222098,27.630211,2382.1
85.222185,27.630505,2391.5
85.222216,27.630551,2391.5
85.222205,27.630648,2391.5
85.22219,27.630702,2391.5
85.22219,27.63072,2391.5
85.222175,27.630758,2391.5
85.222129,27.630794,2391.5
85.222098,27.630835,2391.5
85.222093,27.630874,2391.5
85.222108,27.630845,2391.5
85.222139,27.630879,2374.3
85.22217,27.630917,2364.6
85.2222,27.630958,2357.4
85.222252,27.631032,2352.7
85.222282,27.631076,2349.2
85.222308,27.631122,2346.7
85.222395,27.631278,2339
85.222426,27.631329,2334.2
85.222467,27.631406,2329.4
85.222497,27.63146,2326.9
85.222518,27.631503,2320.8
85.222589,27.631621,2315.5
85.223096,27.632356,2313.2
85.223162,27.632446,2313.2
85.223229,27.632535,2313.2
85.22326,27.632566,2311.9
85.223281,27.632591,2311.9
85.223296,27.632632,2310.7
85.223281,27.632686,2310.7
85.223281,27.632701,2307.2
85.223327,27.63284,2301.1
85.223311,27.63285,2293.5
85.223342,27.632883,2281.4
85.223654,27.633329,2277.8
85.223711,27.633403,2276.6
85.223741,27.633439,2276.6
85.223772,27.633467,2276.6
85.223808,27.633492,2276.6
85.223788,27.633477,2276.6
85.223808,27.633508,2276.6
85.223834,27.633539,2276.6
85.223859,27.633582,2276.6
85.22389,27.633636,2276.6
85.223905,27.633684,2276.6
85.223931,27.633736,2276.6
85.223946,27.633784,2276.6
85.223967,27.633833,2276.6
85.223982,27.633882,2316.1
85.223997,27.633933,2319.6
85.224013,27.633987,2323.2
85.224028,27.634035,2325.7
85.224044,27.634089,2329.4
85.224059,27.63414,2332.9
85.224387,27.63522,2334.1
85.22443,27.635355,2335.4
85.224474,27.635489,2335.4
85.224489,27.635538,2335.4
85.224504,27.635564,2335.4
85.224509,27.635594,2336.6
85.224494,27.635579,2340.4
85.224525,27.635661,2353.2
85.224571,27.635779,2372.6
85.224586,27.635827,2377.6
85.224612,27.635884,2382.4
85.224878,27.636503,2386.2
85.224929,27.636605,2386.2
85.22496,27.636657,2386.2
85.224975,27.636682,2386.2
85.224991,27.63671,2387.4
85.225021,27.636744,2387.4
85.225114,27.636805,2388.5
85.225149,27.636828,2388.5
85.22519,27.636854,2388.5
85.225236,27.636879,2388.5
85.225257,27.636928,2388.5
85.225298,27.637,2388.5
85.225334,27.637038,2388.5
85.225349,27.637094,2383.6
85.225359,27.637151,2382.4
85.225395,27.637174,2382.4
85.225441,27.637217,2382.4
85.225503,27.637235,2382.4
85.225564,27.637256,2382.4
85.225569,27.637253,2382.4
85.2256,27.637389,2382.4
85.225748,27.637399,2387
85.225784,27.637402,2387
85.225851,27.637417,2387
85.225907,27.637443,2387
85.225943,27.637484,2387
85.225974,27.637527,2387
85.225999,27.637571,2387
85.225999,27.637622,2387
85.22603,27.637668,2387
85.22603,27.637716,2387
85.226015,27.637809,2388.7
85.226004,27.637911,2388.7
85.225999,27.637957,2388.7
85.225989,27.638011,2387.5
85.226004,27.638067,2386.4
85.22602,27.638113,2386.4
85.226045,27.638172,2385.2
85.226092,27.638298,2382.8
85.226092,27.638349,2381.6
85.226081,27.638403,2381.6
85.226092,27.638459,2380.4
85.226112,27.638502,2379.3
85.226112,27.638497,2376.9
85.226225,27.638659,2375.7
85.22625,27.638684,2375.7
85.226271,27.638707,2375.7
85.226332,27.638794,2375.7
85.226332,27.638853,2375.7
85.226332,27.638899,2375.7
85.226332,27.638953,2375.7
85.226327,27.639002,2375.7
85.226327,27.63906,2375.7
85.226327,27.639112,2375.7
85.226317,27.639171,2374.5
85.226312,27.639217,2374.5
85.226317,27.63927,2374.5
85.226332,27.639327,2374.5
85.226358,27.639365,2374.5
85.226373,27.639424,2374.5
85.226363,27.639473,2374.5
85.226373,27.639521,2374.5
85.226358,27.639677,2373.4
85.226348,27.639729,2373.4
85.226358,27.63977,2373.4
85.226373,27.639821,2373.4
85.226409,27.639864,2372.2
85.226419,27.639916,2372.2
85.226435,27.639916,2372.2
85.22644,27.639987,2372.2
85.22645,27.640023,2372.2
85.226481,27.640074,2372.2
85.226496,27.64012,2372.2
85.22647,27.640174,2372.2
85.22644,27.640223,2363.1
85.226419,27.640259,2361.9
85.226388,27.640315,2360.5
85.226404,27.640358,2358.1
85.226435,27.640397,2355.4
85.22647,27.64044,2353.1
85.226511,27.640481,2350.6
85.226542,27.64053,2348.3
85.226563,27.640589,2347
85.226563,27.640635,2347
85.226568,27.640686,2345.8
85.226583,27.640735,2345.8
85.226629,27.640765,2347
85.226691,27.640814,2348.2
85.226706,27.640868,2349.4
85.226732,27.640914,2350.5
85.226752,27.640968,2351.7
85.226798,27.641001,2351.7
85.226839,27.641034,2352.9
85.226875,27.641073,2354.1
85.226885,27.641124,2354.1
85.226921,27.641172,2355.3
85.226931,27.641213,2355.3
85.226936,27.641262,2356.4
85.226972,27.641306,2357.6
85.226988,27.641349,2358.9
85.227018,27.641467,2360.1
85.227052,27.641621,2362.4
85.22707,27.641724,2363.7
85.227087,27.641827,2365
85.227105,27.641929,2366.2
85.227123,27.642032,2380.2
85.227141,27.642135,2381.4
85.227156,27.642176,2381.4
85.227167,27.642212,2381.4
85.227167,27.64222,2382.5
85.227172,27.642281,2382.5
85.227172,27.64234,2382.5
85.227213,27.64236,2382.5
85.227167,27.642373,2382.5
85.227151,27.642424,2382.5
85.227141,27.642473,2382.5
85.227136,27.642522,2382.5
85.227136,27.64257,2382.5
85.227187,27.642655,2382.5
85.227203,27.642662,2378.3
85.227213,27.642793,2375.8
85.227187,27.642785,2374
85.227218,27.642719,2376.6
85.227295,27.642703,2377.8
85.227346,27.642688,2377.8
85.227464,27.642796,2376.3
85.22754,27.64286,2373.8
85.227666,27.642933,2371.4
85.227726,27.642982,2367.7
85.227785,27.643032,2362.9
85.227845,27.643081,2354.4
85.227904,27.643131,2354.4
85.227935,27.643164,2354.4
85.22796,27.643195,2353.2
85.228012,27.643233,2353.2
85.228068,27.643256,2353.2
85.228099,27.643295,2353.2
85.22815,27.643323,2353.2
85.228196,27.643359,2353.2
85.228257,27.643389,2353.2
85.228308,27.643392,2351.2
85.22838,27.643412,2351.2
85.228426,27.643428,2349.9
85.228483,27.643446,2348.7
85.228544,27.643469,2346.3
85.2286,27.643489,2345.1
85.228652,27.64351,2343.9
85.228708,27.643535,2343.9
85.228759,27.643569,2343.9
85.2288,27.643607,2343.9
85.22882,27.643648,2343.9
85.228867,27.643692,2343.9
85.228913,27.643727,2343.9
85.228959,27.643773,2343.9
85.228995,27.643814,2343.9
85.229036,27.64385,2346.6
85.229071,27.643891,2347.8
85.229066,27.643878,2350.2
85.229097,27.643937,2365.8
85.229332,27.644152,2374.4
85.229411,27.64422,2375.6
85.229491,27.644288,2375.6
85.229532,27.644311,2375.6
85.229568,27.644334,2375.6
85.229609,27.644347,2375.6
85.229665,27.644357,2376.8
85.229737,27.644385,2376.8
85.229783,27.644408,2376.8
85.229834,27.644444,2376.8
85.22985,27.64449,2376.8
85.229906,27.644529,2378.2
85.229952,27.644562,2379.4
85.229988,27.644603,2380.5
85.230013,27.644646,2381.8
85.23007,27.644705,2384.4
85.230065,27.644692,2384.4
85.23008,27.64471,2384.4
85.230131,27.644782,2384.4
85.230157,27.644797,2384.4
85.230203,27.644841,2384.4
85.230239,27.644874,2384.4
85.230295,27.644902,2384.4
85.230356,27.644923,2384.4
85.230408,27.644951,2384.4
85.230459,27.644974,2392.4
85.23052,27.644997,2392.4
85.230546,27.645043,2392.4
85.230561,27.645089,2392.4
85.230577,27.645146,2392.4
85.230592,27.645194,2392.4
85.230612,27.645248,2390.8
85.230638,27.645299,2390.8
85.230659,27.64535,2389.5
85.230684,27.645409,2388.4
85.2307,27.645471,2388.4
85.230705,27.64553,2387.2
85.23072,27.645591,2387.2
85.230746,27.645642,2387.2
85.230766,27.645696,2387.2
85.230792,27.64574,2387.2
85.230843,27.645804,2387.2
85.230843,27.645847,2387.2
85.230817,27.645911,2387.2
85.230812,27.645957,2385.6
85.230802,27.646013,2385.6
85.230797,27.646062,2385.6
85.230781,27.646116,2384.4
85.230776,27.646167,2383.3
85.230766,27.646226,2382.1
85.230761,27.646272,2380.9
85.230761,27.646323,2379.6
85.230751,27.646374,2378.4
85.230761,27.646428,2376
85.230792,27.646469,2374.7
85.230812,27.646515,2372.4
85.230812,27.646569,2371.2
85.230797,27.64662,2369.9
85.230833,27.646661,2368.7
85.230889,27.646682,2367.4
85.230935,27.646705,2367.4
85.230966,27.646751,2366.2
85.230986,27.646807,2364.9
85.231012,27.646853,2363.6
85.231048,27.646915,2362.4
85.231073,27.646966,2361.2
85.231094,27.647012,2361.2
85.231124,27.647063,2360
85.23115,27.647117,2360
85.231186,27.647163,2358.8
85.231191,27.647214,2357.5
85.231201,27.64727,2357.5
85.231222,27.647319,2356.4
85.231247,27.64737,2356.4
85.231217,27.647427,2356.4
85.231217,27.647483,2355.2
85.231232,27.647534,2355.2
85.231252,27.64758,2354
85.231283,27.647626,2352.8
85.231314,27.64767,2351.6
85.231345,27.647716,2351.6
85.231406,27.647752,2350.4
85.231416,27.647805,2350.4
85.231432,27.647895,2349.3
85.231447,27.647941,2349.3
85.231478,27.647985,2349.3
85.231498,27.648026,2353
85.231524,27.648074,2354.2
85.231524,27.648123,2355.4
85.23156,27.648164,2356.5
85.23158,27.648207,2358.9
85.231575,27.648259,2358.9
85.231544,27.64831,2360.1
85.231524,27.648361,2361.3
85.231544,27.648402,2362.6
85.23159,27.648435,2365.1
85.231636,27.648466,2366.3
85.231683,27.648507,2367.5
85.231734,27.64853,2368.7
85.23178,27.648573,2369.9
85.231836,27.648599,2371.1
85.231882,27.648635,2372.3
85.231928,27.648658,2372.3
85.231969,27.648704,2373.4
85.232015,27.648732,2374.7
85.232077,27.648755,2375.9
85.232133,27.648776,2375.9
85.232179,27.648794,2377.1
85.232241,27.648819,2377.1
85.232302,27.648837,2378.3
85.232353,27.64886,2378.3
85.232404,27.648886,2378.3
85.232461,27.648916,2378.3
85.232492,27.648973,2379.4
85.232507,27.649019,2379.4
85.232527,27.649075,2379.4
85.232543,27.649121,2379.4
85.232573,27.64917,2379.4
85.23263,27.649198,2379.4
85.232676,27.649234,2379.4
85.232742,27.649265,2379.4
85.232804,27.649293,2379.4
85.23285,27.649318,2380.6
85.232901,27.649349,2380.6
85.232957,27.64938,2380.6
85.233004,27.649405,2380.6
85.233055,27.649426,2380.6
85.233111,27.649418,2380.6
85.233167,27.649441,2380.6
85.233224,27.649467,2380.6
85.233275,27.649495,2380.6
85.233321,27.649526,2380.6
85.233377,27.649556,2380.6
85.233541,27.649574,2379.4
85.233613,27.649597,2379.4
85.233659,27.649613,2379.4
85.23372,27.649633,2379.4
85.233782,27.649659,2379.4
85.233828,27.649677,2379.4
85.233879,27.649702,2375.7
85.233946,27.649738,2374.5
85.233992,27.649764,2374.5
85.233992,27.649777,2373.4
85.234048,27.649859,2373.4
85.234079,27.649892,2373.4
85.234094,27.649925,2373.4
85.234109,27.649966,2373.4
85.23413,27.650028,2373.4
85.234156,27.650079,2373.4
85.234176,27.65012,2368.4
85.234217,27.650168,2367.2
85.234268,27.650194,2366
85.234314,27.650222,2364.7
85.234365,27.650258,2363.5
85.234412,27.650291,2362.3
85.234468,27.650327,2361.1
85.234514,27.65035,2361.1
85.23456,27.650378,2359.8
85.234621,27.650422,2358.5
85.234673,27.65045,2357.3
85.234719,27.650481,2356.1
85.234765,27.650511,2356.1
85.234816,27.65055,2354.9
85.234857,27.65058,2353.7
85.234908,27.650596,2352.5
85.234903,27.650604,2352.5
85.235,27.65058,2352.5
85.235031,27.650565,2352.5
85.235067,27.650527,2352.5
85.235062,27.650476,2352.5
85.235062,27.650417,2352.5
85.235062,27.650371,2352.5
85.235067,27.650312,2352.5
85.235077,27.65025,2352.5
85.235077,27.650204,2352.5
85.235108,27.650161,2338.3
85.235159,27.650148,2337.1
85.23522,27.650132,2334.4
85.235267,27.650094,2332
85.235297,27.650053,2329.5
85.235354,27.650022,2326.8
85.235384,27.649979,2324.4
85.235415,27.649923,2321.9
85.23542,27.649869,2320.6
85.235415,27.649815,2318
85.235415,27.649766,2315.4
85.23542,27.649708,2313.9
85.23542,27.649654,2311.4
85.235466,27.649636,2310.2
85.235528,27.649654,2308.9
85.235574,27.649687,2307.7
85.235635,27.649713,2307.7
85.235681,27.649736,2305.1
85.235727,27.649774,2303.8
85.235779,27.64981,2302.6
85.23583,27.64981,2302.6
85.235886,27.649789,2301.4
85.235948,27.649764,2299.1
85.235994,27.649736,2296.5
85.236045,27.64972,2293.9
85.236101,27.64969,2291.4
85.236214,27.649619,2289.1
85.236276,27.649584,2286.6
85.236338,27.64955,2285.4
85.2364,27.649515,2284.1
85.236462,27.64948,2282.8
85.236524,27.649445,2281.6
85.236586,27.649411,2276.2
85.236648,27.649376,2272.4
85.23671,27.649341,2272.4
85.236746,27.649324,2271.2
85.236792,27.649306,2271.2
85.236849,27.64927,2268.7
85.236884,27.649242,2267.4
85.236946,27.649211,2265.1
85.236977,27.649178,2263.9
85.237028,27.649144,2262.5
85.237074,27.649114,2261.3
85.237135,27.649088,2257.4
85.237192,27.649062,2257.4
85.237228,27.649027,2254.9
85.237258,27.648973,2253.7
85.237304,27.648932,2251.3
85.23735,27.648901,2250.1
85.237396,27.64887,2248.8
85.237443,27.648829,2247.6
85.237489,27.648788,2246.4
85.237535,27.648753,2245.3
85.237581,27.648714,2244.1
85.237627,27.648676,2244.1
85.237673,27.648671,2242.9
85.237724,27.648637,2241.7
85.23777,27.648604,2240.4
85.237801,27.648563,2239.2
85.237852,27.648532,2237.9
85.237914,27.648515,2236.7
85.237955,27.648481,2235.5
85.238001,27.64844,2234.2
85.238036,27.64841,2233
85.238098,27.648389,2231.7
85.238149,27.648366,2230.5
85.238205,27.648338,2229.4
85.238257,27.648312,2228.2
85.238298,27.648274,2226.9
85.238349,27.648256,2224.4
85.23841,27.648236,2222
85.238467,27.648215,2220.7
85.238513,27.648182,2219.5
85.238554,27.648128,2218.4
85.238584,27.648087,2217.2
85.23863,27.648049,2214.8
85.238661,27.648005,2213.6
85.238702,27.647974,2211.1
85.238958,27.647759,2200
85.23902,27.647749,2198.7
85.239076,27.647775,2196.2
85.239137,27.647785,2195
85.239183,27.647821,2193.8
85.239219,27.647854,2193.8
85.239265,27.647887,2192.6
85.239316,27.647875,2191.4
85.239363,27.647872,2189
85.239419,27.647846,2186.5
85.23947,27.647816,2184.1
85.239511,27.647767,2181.4
85.239547,27.647734,2178.9
85.239572,27.64769,2175.2
85.239608,27.647647,2171.5
85.239639,27.647603,2169.1
85.239675,27.647557,2166.4
85.239747,27.64757,2160.7
85.239798,27.64758,2159.4
85.239844,27.647619,2156.9
85.24009,27.647552,2145.7
85.24011,27.647519,2141.9
85.240182,27.647503,2139.5
85.240233,27.647485,2138.2
85.240274,27.647506,2136.9
85.240335,27.647521,2134.4
85.240402,27.647524,2131.9
85.240463,27.647532,2129.4
85.240515,27.647532,2127
85.240586,27.647526,2125.8
85.240637,27.647508,2124.4
85.240755,27.64746,2119.2
85.240817,27.647475,2118
85.240873,27.647468,2116.8
85.240929,27.647444,2116.8
85.240996,27.647416,2115.6
85.241052,27.647393,2114.4
85.241114,27.647375,2114.4
85.24116,27.647355,2113.1
85.241226,27.647327,2111.9
85.241288,27.647299,2111.9
85.241349,27.647286,2110.7
85.241395,27.647273,2110.7
85.241472,27.647255,2109.5
85.241518,27.647242,2109.5
85.241569,27.647229,2108.4
85.241636,27.647212,2108.4
85.241692,27.647201,2107.2
85.241754,27.647196,2107.2
85.241815,27.647183,2107.2
85.241876,27.647176,2107.2
85.241928,27.647176,2106
85.241994,27.647181,2106
85.242056,27.647299,2106
85.242086,27.647332,2106
85.242143,27.647355,2106
85.242189,27.647368,2106
85.24225,27.647386,2106
85.242312,27.64738,2106
85.242317,27.647411,2106
85.242332,27.647455,2095.9
85.242383,27.64746,2093.3
85.242394,27.64747,2090.8
85.242429,27.647503,2088.4
85.242394,27.647549,2087.1
85.242378,27.647601,2084.5
85.242358,27.647647,2080.6
85.242409,27.647782,2065.4
85.242424,27.647808,2065.4
85.24244,27.647826,2064.2
85.242593,27.648233,2031.3
85.242583,27.648264,2028.9
85.242732,27.648456,2002.3
85.242752,27.648507,1989.1
85.243016,27.648837,1982.8
85.243034,27.64886,1982.8
85.243049,27.648883,1981.5
85.243075,27.648906,1981.5
85.24309,27.648911,1973.1
85.243223,27.649037,1961
85.243208,27.649144,1957.3
85.243233,27.649175,1952.4
85.243223,27.649226,1951.3
85.243356,27.649234,1946.3
85.243279,27.649288,1941.6
85.243223,27.649347,1939.2
85.243203,27.649375,1934.2
85.243249,27.649405,1932.9
85.243284,27.64939,1930.4
85.243233,27.649428,1929.3
85.243203,27.64949,1926.9
85.243279,27.649549,1913.2
85.243464,27.649679,1904.6
85.24351,27.649697,1901.9
85.243525,27.64972,1898.1
85.243535,27.649756,1895.6
85.243535,27.649764,1892
85.243515,27.64993,1884.7
85.243484,27.650002,1878.4
85.243453,27.650035,1877.2
85.243448,27.650076,1872.2
85.243484,27.650122,1869.6
85.243494,27.650148,1866.1
85.243628,27.650243,1857.6
85.243674,27.650271,1857.6
85.243704,27.650286,1855.3
85.243699,27.650284,1852.8
85.243668,27.650304,1851.5
85.243684,27.650304,1844.1
85.24373,27.650399,1842.7
85.24373,27.650435,1842.7
85.243704,27.650458,1840.2
85.243699,27.65046,1835.2
85.243653,27.65058,1831.3
85.243638,27.650604,1831.3
85.243597,27.650639,1830.1
85.243551,27.650665,1827.5
85.243525,27.650714,1825.2
85.2435,27.650793,1822.7
85.243628,27.650916,1816.6
85.243684,27.650931,1814.3
85.24373,27.650941,1813
85.243715,27.650975,1811.6
85.243704,27.651021,1809.2
85.243843,27.651238,1797.1
85.243925,27.651322,1797.1
85.24396,27.651352,1786.3
85.243996,27.651382,1786.3
85.24415,27.651474,1763.7
85.244196,27.65152,1754.1
85.244703,27.652058,1751.7
85.244728,27.652076,1751.7
85.244764,27.652088,1751.7
85.24482,27.652106,1750.4
85.244867,27.652137,1748
85.244918,27.652163,1746.8
85.244933,27.652186,1742.1
85.245036,27.652308,1739.5
85.245066,27.652339,1739.5
85.245117,27.652347,1739.5
85.245169,27.652342,1738.4
85.245225,27.652355,1735.8
85.245271,27.65239,1734.6
85.245332,27.65248,1729.8
85.245542,27.652736,1718.7
85.245583,27.652769,1717.5
85.245696,27.653074,1705.4
85.24565,27.653176,1700.5
85.245706,27.653192,1699.3
85.245773,27.653197,1698.1
85.245829,27.653212,1696.9
85.245865,27.653248,1695.7
85.245844,27.653289,1694.4
85.245798,27.653332,1693.3
85.245768,27.653376,1692
85.245737,27.653422,1690.8
85.245757,27.653468,1689.6
85.245814,27.653494,1688.4
85.24587,27.653514,1687.1
85.245916,27.653542,1685.8
85.245962,27.653573,1684.5
85.246019,27.653609,1683.3
85.246054,27.653645,1681.9
85.246054,27.653686,1680.7
85.246008,27.653727,1679.5
85.245962,27.653752,1678.4
85.245916,27.653791,1677.1
85.245911,27.653847,1675.9
85.245896,27.653901,1674.7
85.245896,27.653949,1673.5
85.245896,27.654001,1673.5
85.245942,27.654054,1671.1
85.245988,27.654085,1671.1
85.246049,27.654095,1669.8
85.246111,27.654093,1668.6
85.246162,27.654098,1667.4
85.246223,27.654095,1667.4
85.246285,27.654093,1666.2
85.246362,27.654098,1665
85.246377,27.654126,1663.8
85.246351,27.65418,1662.6
85.246331,27.654218,1661.4
85.246316,27.654277,1660.1
85.246316,27.654328,1660.1
85.246316,27.654385,1658.9
85.246305,27.654428,1657.7
85.246269,27.654474,1656.5
85.246244,27.654523,1655.4
85.246234,27.654579,1654.2
85.246223,27.654628,1653
85.246239,27.654787,1649.4
85.246305,27.654799,1649.4
85.246367,27.654804,1648.2
85.246408,27.654779,1647
85.246474,27.654766,1645.8
85.246531,27.654769,1644.6
85.24652,27.654815,1644.6
85.246505,27.654868,1642.2
85.2465,27.654925,1641
85.24652,27.654963,1641
85.246582,27.654984,1639.7
85.246643,27.654986,1638.4
85.246694,27.654994,1637.2
85.246751,27.655009,1636
85.246797,27.655053,1634.8
85.246843,27.655084,1634.8
85.246894,27.655122,1633.6
85.24695,27.655158,1632.4
85.247002,27.655178,1632.4
85.247068,27.655158,1632.4
85.247114,27.655137,1631.2
85.247186,27.655142,1631.2
85.247237,27.655171,1629.9
85.247299,27.655194,1628.7
85.24736,27.655214,1628.7
85.247427,27.655235,1628.7
85.247483,27.655237,1627.4
85.247534,27.655224,1627.4
85.247596,27.655206,1626.2
85.247667,27.655183,1625
85.247718,27.655173,1623.8
85.247764,27.655212,1623.8
85.247816,27.65525,1622.5
85.247872,27.655276,1621.2
85.247908,27.655301,1621.2
85.247969,27.655332,1620
85.248015,27.655352,1620
85.248077,27.655383,1618.8
85.248138,27.655406,1618.8
85.248189,27.655429,1617.6
85.248261,27.655457,1616.4
85.248307,27.655475,1616.4
85.248374,27.655457,1615.3
85.248435,27.655465,1614
85.248492,27.655465,1614
85.248558,27.655404,1614
85.24862,27.655398,1614
85.248686,27.655375,1614
85.248717,27.655334,1614
85.248758,27.655299,1614
85.248819,27.655281,1614
85.248881,27.655278,1614
85.248932,27.655252,1610.4
85.248983,27.655229,1609.1
85.249044,27.655212,1607.9
85.249101,27.655196,1606.5
85.249152,27.655181,1606.5
85.249224,27.655199,1605.4
85.249275,27.655217,1604.2
85.249321,27.65524,1604.2
85.249388,27.655263,1604.2
85.249449,27.655245,1604.2
85.249505,27.655235,1604.2
85.249567,27.655227,1604.2
85.249644,27.655212,1602.7
85.24971,27.655191,1602.7
85.249772,27.655178,1601.5
85.249833,27.655165,1601.5
85.2499,27.655158,1600.4
85.249946,27.65515,1600.4
85.250017,27.655145,1599.1
85.250079,27.655142,1599.1
85.250145,27.655137,1599.1
85.250207,27.655137,1597.9
85.250268,27.655137,1597.9
85.250335,27.655135,1597.9
85.250396,27.65513,1597.9
85.250458,27.65513,1596.7
85.250519,27.655124,1596.7
85.25057,27.655122,1596.7
85.250647,27.655107,1596.7
85.250703,27.655091,1596.7
85.250765,27.655076,1596.7
85.250826,27.65506,1596.7
85.250883,27.65505,1596.7
85.250954,27.655045,1598.4
85.251021,27.655035,1598.4
85.251067,27.65503,1599.6
85.251139,27.655025,1600.8
85.251174,27.655071,1600.8
85.25122,27.655094,1600.8
85.251231,27.655084,1600.8
85.251098,27.65505,1600.8
85.251046,27.65504,1600.8
85.25099,27.65504,1600.8
85.250929,27.655032,1600.8
85.250862,27.655053,1600.8
85.250816,27.655081,1600.8
85.250755,27.655096,1600.8
85.250703,27.655089,1600.8
85.250627,27.655089,1596.5
85.250565,27.655096,1596.5
85.250504,27.655101,1596.5
85.250437,27.655114,1596.5
85.250365,27.655117,1596.5
85.250314,27.655114,1596.5
85.250237,27.655114,1596.5
85.250191,27.655114,1596.5
85.25012,27.655117,1596.5
85.250063,27.655122,1597.7
85.249992,27.655127,1597.7
85.24994,27.65513,1597.7
85.249869,27.655137,1597.7
85.249802,27.655145,1599.1
85.249741,27.655153,1599.1
85.24969,27.655173,1600.4
85.249618,27.655181,1601.5
85.249572,27.655183,1601.5
85.24951,27.655188,1601.5
85.249449,27.655199,1601.5
85.249382,27.655217,1602.7
85.249321,27.655227,1602.7
85.24926,27.655229,1602.7
85.249193,27.655227,1602.7
85.249137,27.655217,1602.7
85.249075,27.655196,1603.9
85.249024,27.655199,1603.9
85.248968,27.655224,1605.1
85.248916,27.655242,1606.4
85.248865,27.655268,1607.7
85.248804,27.655293,1609
85.248748,27.655306,1610.3
85.248696,27.655319,1611.5
85.248666,27.655365,1612.7
85.248604,27.655391,1612.7
85.248543,27.655409,1612.7
85.248492,27.655427,1612.7
85.248435,27.655462,1612.7
85.24842,27.655521,1612.7
85.248404,27.65557,1612.7
85.248374,27.655626,1612.7
85.248328,27.655657,1611
85.248282,27.65569,1611
85.248236,27.655713,1611
85.248184,27.655731,1609.7
85.248123,27.655734,1608.5
85.248072,27.655777,1607.4
85.248046,27.655836,1606
85.248015,27.655885,1606
85.247995,27.655933,1604.7
85.247969,27.655985,1604.7
85.247949,27.656028,1603.4
85.247918,27.656077,1602.3
85.247877,27.656113,1602.3
85.247816,27.656138,1601.1
85.247749,27.656154,1601.1
85.247713,27.656177,1601.1
85.247759,27.656323,1599.5
85.247775,27.656374,1598.3
85.2478,27.656428,1597
85.247862,27.656438,1595.8
85.247918,27.656425,1594.6
85.247985,27.656433,1594.6
85.248046,27.656438,1594.6
85.248108,27.656445,1593.4
85.248174,27.656448,1593.4
85.24823,27.656456,1593.4
85.248292,27.656466,1592.3
85.248358,27.656463,1591.1
85.248415,27.656466,1589.9
85.248481,27.656468,1589.9
85.248522,27.656497,1588.6
85.248579,27.65653,1587.4
85.248635,27.65655,1586.3
85.248686,27.656573,1586.3
85.248742,27.656596,1585
85.248794,27.656612,1585
85.24885,27.656632,1583.8
85.248911,27.656648,1582.5
85.248968,27.656673,1581.3
85.248998,27.656727,1580.1
85.249014,27.656783,1578.8
85.249039,27.656827,1577.5
85.249075,27.656873,1576.3
85.249121,27.656922,1575
85.249152,27.656957,1573.8
85.249198,27.656998,1572.5
85.249254,27.657024,1571.4
85.249285,27.657078,1570.1
85.249316,27.657121,1568.9
85.249357,27.657165,1567.6
85.249398,27.657201,1566.4
85.249418,27.657221,1565.3
85.249475,27.657254,1565.3
85.24951,27.65729,1564
85.249556,27.657316,1562.8
85.249603,27.657352,1561.6
85.249659,27.657377,1560.4
85.249705,27.657408,1559.2
85.249746,27.657434,1559.2
85.249818,27.657449,1558
85.249848,27.657477,1556.7
85.249833,27.657459,1555.5
85.251052,27.658442,1555.5
85.251092,27.658522,1555.5
85.251144,27.658583,1554.1
85.251205,27.658665,1554.1
85.251236,27.658711,1552.5
85.251267,27.65876,1552.5
85.251287,27.658811,1551.1
85.251318,27.658865,1551.1
85.251343,27.658911,1549.5
85.251359,27.658952,1549.5
85.25141,27.659031,1548
85.251471,27.659118,1546.6
85.251502,27.659167,1546.6
85.251543,27.659213,1545
85.251574,27.659254,1545
85.25161,27.659297,1543.6
85.251702,27.659356,1542.1
85.251748,27.659384,1542.1
85.25184,27.659446,1540.6
85.251876,27.659479,1539.1
85.251953,27.659561,1537.6
85.251994,27.65961,1537.6
</coordinates>
</LineString>
</Placemark>
</Folder>
</Document>
</kml>
