<?xml version="1.0" encoding="UTF-8"?>
<kml xmlns="http://www.opengis.net/kml/2.2">
<Document>
<name>WNW_44.DhapDam trail options</name>
<description/>
<Style id="icon-123-nodesc-normal">
<IconStyle>
<scale>1.1</scale>
<Icon>
<href>https://www.gstatic.com/mapspro/images/stock/123-red-dot.png</href>
</Icon>
<hotSpot x="16" xunits="pixels" y="32" yunits="insetPixels"/>
</IconStyle>
<LabelStyle>
<scale>0</scale>
</LabelStyle>
<BalloonStyle>
<text><![CDATA[<h3>$[name]</h3>]]></text>
</BalloonStyle>
</Style>
<Style id="icon-123-nodesc-highlight">
<IconStyle>
<scale>1.1</scale>
<Icon>
<href>https://www.gstatic.com/mapspro/images/stock/123-red-dot.png</href>
</Icon>
<hotSpot x="16" xunits="pixels" y="32" yunits="insetPixels"/>
</IconStyle>
<LabelStyle>
<scale>1.1</scale>
</LabelStyle>
<BalloonStyle>
<text><![CDATA[<h3>$[name]</h3>]]></text>
</BalloonStyle>
</Style>
<StyleMap id="icon-123-nodesc">
<Pair>
<key>normal</key>
<styleUrl>#icon-123-nodesc-normal</styleUrl>
</Pair>
<Pair>
<key>highlight</key>
<styleUrl>#icon-123-nodesc-highlight</styleUrl>
</Pair>
</StyleMap>
<Style id="icon-61-nodesc-normal">
<IconStyle>
<scale>1.1</scale>
<Icon>
<href>https://www.gstatic.com/mapspro/images/stock/61-green-dot.png</href>
</Icon>
<hotSpot x="16" xunits="pixels" y="32" yunits="insetPixels"/>
</IconStyle>
<LabelStyle>
<scale>0</scale>
</LabelStyle>
<BalloonStyle>
<text><![CDATA[<h3>$[name]</h3>]]></text>
</BalloonStyle>
</Style>
<Style id="icon-61-nodesc-highlight">
<IconStyle>
<scale>1.1</scale>
<Icon>
<href>https://www.gstatic.com/mapspro/images/stock/61-green-dot.png</href>
</Icon>
<hotSpot x="16" xunits="pixels" y="32" yunits="insetPixels"/>
</IconStyle>
<LabelStyle>
<scale>1.1</scale>
</LabelStyle>
<BalloonStyle>
<text><![CDATA[<h3>$[name]</h3>]]></text>
</BalloonStyle>
</Style>
<StyleMap id="icon-61-nodesc">
<Pair>
<key>normal</key>
<styleUrl>#icon-61-nodesc-normal</styleUrl>
</Pair>
<Pair>
<key>highlight</key>
<styleUrl>#icon-61-nodesc-highlight</styleUrl>
</Pair>
</StyleMap>
<Style id="line-0288D1-5000-normal">
<LineStyle>
<color>ffd18802</color>
<width>5</width>
</LineStyle>
</Style>
<Style id="line-0288D1-5000-highlight">
<LineStyle>
<color>ffd18802</color>
<width>7.5</width>
</LineStyle>
</Style>
<StyleMap id="line-0288D1-5000">
<Pair>
<key>normal</key>
<styleUrl>#line-0288D1-5000-normal</styleUrl>
</Pair>
<Pair>
<key>highlight</key>
<styleUrl>#line-0288D1-5000-highlight</styleUrl>
</Pair>
</StyleMap>
<Folder>
<name>Dhap dam trail options.gpx</name>
<Placemark>
<name>Start of 22.56</name>
<styleUrl>#icon-61-nodesc</styleUrl>
<Point>
<coordinates>
85.3702068328857,27.7910227393869,0
</coordinates>
</Point>
</Placemark>
<Placemark>
<name>Start of 19.5</name>
<styleUrl>#icon-61-nodesc</styleUrl>
<Point>
<coordinates>
85.4633331298828,27.727976963492,0
</coordinates>
</Point>
</Placemark>
<Placemark>
<name>Start of 13.66</name>
<styleUrl>#icon-61-nodesc</styleUrl>
<Point>
<coordinates>
85.4968070983887,27.7491838896358,0
</coordinates>
</Point>
</Placemark>
<Placemark>
<name>Start of 19.4</name>
<styleUrl>#icon-61-nodesc</styleUrl>
<Point>
<coordinates>
85.3702068328857,27.7907091858954,0
</coordinates>
</Point>
</Placemark>
<Placemark>
<name>Start of ssddj</name>
<styleUrl>#icon-61-nodesc</styleUrl>
<Point>
<coordinates>
85.4205894470215,27.7589013312764,0
</coordinates>
</Point>
</Placemark>
<Placemark>
<name>Start of ssdd</name>
<styleUrl>#icon-61-nodesc</styleUrl>
<Point>
<coordinates>
85.4206323623657,27.7587165894409,0
</coordinates>
</Point>
</Placemark>
<Placemark>
<name>Start of ssddj</name>
<styleUrl>#icon-61-nodesc</styleUrl>
<Point>
<coordinates>
85.4597322448938,27.8109292101306,0
</coordinates>
</Point>
</Placemark>
<Placemark>
<name>End of 22.56</name>
<styleUrl>#icon-123-nodesc</styleUrl>
<Point>
<coordinates>
85.45973,27.81093,0
</coordinates>
</Point>
</Placemark>
<Placemark>
<name>End of 19.5</name>
<styleUrl>#icon-123-nodesc</styleUrl>
<Point>
<coordinates>
85.46065,27.81075,0
</coordinates>
</Point>
</Placemark>
<Placemark>
<name>End of 13.66</name>
<styleUrl>#icon-123-nodesc</styleUrl>
<Point>
<coordinates>
85.46082,27.8109,0
</coordinates>
</Point>
</Placemark>
<Placemark>
<name>End of 19.4</name>
<styleUrl>#icon-123-nodesc</styleUrl>
<Point>
<coordinates>
85.4587562759198,27.8116586627216,0
</coordinates>
</Point>
</Placemark>
<Placemark>
<name>End of ssddj</name>
<styleUrl>#icon-123-nodesc</styleUrl>
<Point>
<coordinates>
85.4597322448938,27.8109292101306,0
</coordinates>
</Point>
</Placemark>
<Placemark>
<name>End of ssdd</name>
<styleUrl>#icon-123-nodesc</styleUrl>
<Point>
<coordinates>
85.4599724277407,27.8108447013505,0
</coordinates>
</Point>
</Placemark>
<Placemark>
<name>End of ssddj</name>
<styleUrl>#icon-123-nodesc</styleUrl>
<Point>
<coordinates>
85.42067,27.75907,0
</coordinates>
</Point>
</Placemark>
<Placemark>
<name>22.56</name>
<description><![CDATA[Statistics computed from imported data<br><br>Distance: 14.0 miles]]></description>
<styleUrl>#line-0288D1-5000</styleUrl>
<LineString>
<tessellate>1</tessellate>
<coordinates>
85.3702701,27.7912489,0
85.3702977,27.7909539,0
85.3701787,27.790831,0
85.37011,27.79076,0
85.36988,27.79037,0
85.36964,27.78987,0
85.36952,27.78941,0
85.36945,27.7893,0
85.36939,27.7893,0
85.36945,27.7891,0
85.36944,27.78896,0
85.3692198,27.7883573,0
85.36923,27.78834,0
85.36941,27.78811,0
85.36942,27.78794,0
85.36973,27.78773,0
85.36979,27.78765,0
85.36981,27.7875,0
85.3697866,27.7874006,0
85.36979,27.7874,0
85.3703,27.7876,0
85.3705994,27.7876816,0
85.370628,27.7876714,0
85.370645,27.7876654,0
85.3708,27.78761,0
85.37082,27.78756,0
85.37076,27.78724,0
85.37078,27.78716,0
85.37092,27.78701,0
85.37109,27.78693,0
85.37116,27.78682,0
85.37113,27.78658,0
85.3710406,27.7864215,0
85.3710327,27.7864075,0
85.3710508,27.7863849,0
85.37106,27.7862,0
85.37115,27.78606,0
85.37122,27.78575,0
85.37117,27.7854,0
85.37083,27.78489,0
85.37095,27.7849,0
85.37148,27.78519,0
85.3714785,27.7851908,0
85.37166,27.78546,0
85.37163,27.78514,0
85.3717834,27.7849928,0
85.37178,27.78499,0
85.37184,27.78502,0
85.37195,27.78497,0
85.37208,27.78496,0
85.37288,27.78516,0
85.37279,27.78533,0
85.37271,27.78569,0
85.37278,27.78576,0
85.37292,27.7858,0
85.37303,27.78599,0
85.37315,27.78607,0
85.37327,27.78622,0
85.37382,27.78661,0
85.37393,27.78662,0
85.37399,27.78669,0
85.37454,27.78641,0
85.37482,27.78635,0
85.37518,27.7864,0
85.37577,27.78669,0
85.37583,27.78678,0
85.3757,27.78682,0
85.37526,27.78664,0
85.37509,27.78661,0
85.37491,27.78663,0
85.37491,27.7867,0
85.37528,27.78675,0
85.37607,27.78723,0
85.37626,27.78749,0
85.37732,27.78751,0
85.37772,27.78727,0
85.37887,27.78683,0
85.37907,27.78679,0
85.37933,27.78679,0
85.3795,27.78673,0
85.37973,27.78672,0
85.38028,27.78678,0
85.38049,27.7869,0
85.38071,27.78692,0
85.38104,27.78683,0
85.38131,27.78663,0
85.38138,27.78651,0
85.38138,27.78599,0
85.38117,27.78575,0
85.38101,27.78568,0
85.38082,27.78565,0
85.38069,27.7857,0
85.3806,27.78564,0
85.38059,27.78541,0
85.38042,27.78471,0
85.38047,27.78447,0
85.38031,27.78404,0
85.38015,27.78379,0
85.37978,27.78361,0
85.37942,27.78318,0
85.37938,27.78307,0
85.3794,27.78291,0
85.37961,27.78214,0
85.37967,27.78172,0
85.37975,27.78161,0
85.38022,27.7814,0
85.38052,27.78117,0
85.38095,27.7811,0
85.38118,27.78096,0
85.38151,27.78092,0
85.38164,27.78077,0
85.38218,27.78015,0
85.38224,27.78,0
85.38231,27.77992,0
85.38266,27.77975,0
85.3827,27.77965,0
85.3827,27.7795,0
85.38266,27.77938,0
85.3827,27.7793,0
85.38309,27.77912,0
85.38312,27.77905,0
85.3831351,27.7787782,0
85.3831343,27.7787921,0
85.38314,27.77869,0
85.38316,27.77862,0
85.38322,27.77859,0
85.38357,27.77869,0
85.38408,27.77869,0
85.38421,27.77876,0
85.38431,27.77886,0
85.38459,27.77929,0
85.38467,27.77929,0
85.38474,27.77926,0
85.38536,27.77875,0
85.38552,27.77871,0
85.38574,27.77878,0
85.38588,27.77883,0
85.386,27.77882,0
85.38633,27.77869,0
85.38639,27.77864,0
85.38645,27.77845,0
85.38653,27.77839,0
85.38662,27.77841,0
85.38681,27.77858,0
85.38715,27.77857,0
85.38723,27.77854,0
85.38726,27.7785,0
85.38726,27.77829,0
85.38733,27.77826,0
85.38756,27.77825,0
85.38804,27.77841,0
85.38825,27.7784,0
85.38877,27.77854,0
85.38896,27.77856,0
85.38967,27.77877,0
85.38988,27.77874,0
85.39031,27.77873,0
85.39087,27.77892,0
85.39137,27.77892,0
85.39172,27.77896,0
85.39199,27.7789,0
85.39218,27.77891,0
85.39252,27.77903,0
85.39311,27.77914,0
85.39321,27.7792,0
85.39349,27.77962,0
85.39359,27.77961,0
85.39386,27.77902,0
85.39452,27.77896,0
85.3948,27.77875,0
85.39515,27.77831,0
85.39515,27.77817,0
85.39523,27.77804,0
85.39548,27.77789,0
85.39563,27.77784,0
85.39584,27.77783,0
85.39589,27.7778,0
85.39597,27.77755,0
85.39603,27.77748,0
85.39632,27.77725,0
85.39648,27.77706,0
85.3966,27.77698,0
85.39684,27.77696,0
85.39708,27.77699,0
85.39743,27.77692,0
85.3979,27.77706,0
85.398,27.77703,0
85.39864,27.77672,0
85.39877,27.77664,0
85.39884,27.77655,0
85.39891,27.77654,0
85.39899,27.77656,0
85.39925,27.77687,0
85.3996,27.77693,0
85.39975,27.77683,0
85.40001,27.77653,0
85.40029,27.7764,0
85.40065,27.77615,0
85.40068,27.77609,0
85.40055,27.77582,0
85.40053,27.77563,0
85.4006,27.77542,0
85.40066,27.77539,0
85.40091,27.77542,0
85.40096,27.77538,0
85.40103,27.77525,0
85.40133,27.77517,0
85.40167,27.775,0
85.40191,27.77478,0
85.40202,27.77474,0
85.40249,27.77486,0
85.40255,27.77484,0
85.40259,27.77465,0
85.40266,27.77455,0
85.40272,27.7745,0
85.40283,27.77446,0
85.40286,27.77437,0
85.40281,27.77396,0
85.40292,27.77356,0
85.40302,27.77339,0
85.40331,27.77324,0
85.40334,27.77315,0
85.40311,27.7726,0
85.40312,27.77226,0
85.40318,27.77221,0
85.40344,27.77226,0
85.40364,27.7724,0
85.40373,27.7724,0
85.40381,27.77235,0
85.40405,27.77236,0
85.40409,27.77231,0
85.404,27.77187,0
85.4041,27.77163,0
85.40418,27.77159,0
85.40443,27.77157,0
85.40471,27.77169,0
85.40491,27.77161,0
85.405,27.77163,0
85.4051,27.77168,0
85.40523,27.77182,0
85.40536,27.7719,0
85.40547,27.77186,0
85.40552,27.77176,0
85.40559,27.77174,0
85.40575,27.77177,0
85.40597,27.77174,0
85.40624,27.77162,0
85.40642,27.77144,0
85.40642,27.77131,0
85.40631,27.77104,0
85.40644,27.77091,0
85.40653,27.77064,0
85.40681,27.77037,0
85.40687,27.77029,0
85.40692,27.77009,0
85.40702,27.77,0
85.4071,27.77002,0
85.40731,27.77013,0
85.40758,27.77045,0
85.40771,27.77052,0
85.40787,27.77056,0
85.40796,27.77055,0
85.40802,27.77051,0
85.40804,27.77033,0
85.40806,27.77031,0
85.40816,27.77028,0
85.40822,27.77022,0
85.40827,27.77007,0
85.40831,27.77001,0
85.40838,27.76998,0
85.40863,27.77009,0
85.4088,27.7701,0
85.40905,27.76987,0
85.40906,27.7698,0
85.40899,27.76963,0
85.40899,27.76947,0
85.40902,27.76941,0
85.40907,27.76939,0
85.40913,27.76941,0
85.40915,27.76946,0
85.40921,27.76966,0
85.40927,27.76975,0
85.40936,27.76982,0
85.40966,27.7699,0
85.40995,27.76988,0
85.41007,27.76981,0
85.41018,27.76966,0
85.41017,27.76951,0
85.41021,27.76946,0
85.41031,27.76944,0
85.41042,27.76946,0
85.41053,27.76952,0
85.41057,27.76963,0
85.41057,27.76987,0
85.41084,27.77015,0
85.41115,27.77022,0
85.41117,27.77026,0
85.41116,27.77042,0
85.41121,27.77051,0
85.41145,27.77066,0
85.41194,27.77079,0
85.41196,27.77084,0
85.41192,27.77095,0
85.41173,27.77103,0
85.41138,27.77107,0
85.41112,27.77097,0
85.41097,27.77099,0
85.41097,27.77119,0
85.41116,27.77134,0
85.41116,27.77148,0
85.41054,27.77176,0
85.41051,27.77191,0
85.4106,27.77199,0
85.41106,27.77194,0
85.4113,27.77179,0
85.41147,27.77157,0
85.41171,27.77144,0
85.41222,27.77137,0
85.41227,27.77161,0
85.41248,27.77209,0
85.41231,27.77249,0
85.41234,27.77266,0
85.41226,27.77287,0
85.41239,27.77305,0
85.41262,27.77312,0
85.41313,27.77355,0
85.41324,27.77384,0
85.41316,27.77422,0
85.41292,27.77443,0
85.41257,27.77438,0
85.41235,27.77442,0
85.41236,27.77473,0
85.41255,27.77501,0
85.41227,27.77529,0
85.41197,27.77539,0
85.41234,27.77575,0
85.41264,27.7758,0
85.41335,27.77546,0
85.4136,27.77574,0
85.4136,27.77593,0
85.41378,27.77598,0
85.41415,27.77571,0
85.41444,27.77567,0
85.41453,27.77583,0
85.41501,27.77601,0
85.41514,27.77596,0
85.41493,27.77566,0
85.41518,27.77543,0
85.41542,27.77536,0
85.4159,27.77498,0
85.41604,27.775,0
85.41608,27.77495,0
85.41611,27.77458,0
85.41622,27.77443,0
85.4162,27.77425,0
85.41628,27.77416,0
85.41662,27.77407,0
85.41667,27.77386,0
85.41677,27.7738,0
85.41714,27.77378,0
85.4173,27.77387,0
85.41739,27.77387,0
85.41751,27.77384,0
85.41768,27.77371,0
85.41801,27.77383,0
85.41809,27.77376,0
85.41817,27.77349,0
85.41827,27.77344,0
85.41851,27.77339,0
85.41886,27.77344,0
85.41908,27.77337,0
85.41944,27.77335,0
85.41949,27.77325,0
85.41939,27.77293,0
85.41945,27.77287,0
85.41961,27.77286,0
85.41967,27.77293,0
85.41978,27.77292,0
85.41997,27.77277,0
85.4203,27.77237,0
85.42044,27.7723,0
85.42058,27.77231,0
85.42083,27.77248,0
85.42103,27.7725,0
85.42138,27.77241,0
85.42153,27.77232,0
85.42187,27.77224,0
85.42199,27.77231,0
85.42216,27.77251,0
85.42221,27.77251,0
85.42224,27.77245,0
85.42195,27.77209,0
85.42196,27.77204,0
85.42206,27.77205,0
85.42237,27.77228,0
85.42243,27.77241,0
85.42229,27.77267,0
85.42188,27.77313,0
85.42154,27.77345,0
85.42142,27.77376,0
85.42144,27.77389,0
85.42206,27.77446,0
85.42207,27.77452,0
85.42183,27.77469,0
85.42164,27.77488,0
85.42136,27.77491,0
85.42111,27.77501,0
85.42101,27.77519,0
85.42075,27.7754,0
85.42076,27.77561,0
85.42081,27.77566,0
85.42093,27.77566,0
85.421,27.77571,0
85.42108,27.77588,0
85.42111,27.77602,0
85.42116,27.77602,0
85.42119,27.77587,0
85.42109,27.7756,0
85.42112,27.77549,0
85.42165,27.77537,0
85.42216,27.77536,0
85.42234,27.77527,0
85.42242,27.77518,0
85.42257,27.77509,0
85.423,27.77499,0
85.42342,27.77471,0
85.42357,27.77443,0
85.42372,27.77429,0
85.42373,27.7742,0
85.42356,27.77402,0
85.42366,27.774,0
85.424,27.77414,0
85.42401,27.77423,0
85.42377,27.77446,0
85.42378,27.77471,0
85.42352,27.77521,0
85.42316,27.77535,0
85.42314,27.77544,0
85.4232,27.77556,0
85.42315,27.77563,0
85.42296,27.7757,0
85.42265,27.77572,0
85.42261,27.77582,0
85.42266,27.77602,0
85.42274,27.77614,0
85.42294,27.7762,0
85.42295,27.77631,0
85.42286,27.7765,0
85.42258,27.77665,0
85.42258,27.77669,0
85.42263,27.77675,0
85.42286,27.77684,0
85.42311,27.77718,0
85.42315,27.77736,0
85.42292,27.7776,0
85.42294,27.7777,0
85.42306,27.77781,0
85.42335,27.77793,0
85.42342,27.77803,0
85.42344,27.77831,0
85.42349,27.77838,0
85.42374,27.77852,0
85.42394,27.77873,0
85.42461,27.7792,0
85.42463,27.77941,0
85.42467,27.77948,0
85.42509,27.77948,0
85.42522,27.77939,0
85.42524,27.77924,0
85.42513,27.77881,0
85.42495,27.77856,0
85.42467,27.77837,0
85.42456,27.77818,0
85.42467,27.7779,0
85.42454,27.77772,0
85.42461,27.77748,0
85.42465,27.77723,0
85.42472,27.77716,0
85.42489,27.77712,0
85.42502,27.77719,0
85.4251,27.77715,0
85.42514,27.77706,0
85.42507,27.77666,0
85.4251,27.77653,0
85.42516,27.7765,0
85.42531,27.7765,0
85.4254,27.77662,0
85.42549,27.77665,0
85.42556,27.7766,0
85.42572,27.77632,0
85.42568,27.77626,0
85.42576,27.77617,0
85.42594,27.77617,0
85.42613,27.77602,0
85.42616,27.77588,0
85.42613,27.77577,0
85.42621,27.77569,0
85.42665,27.77573,0
85.4269,27.77586,0
85.42697,27.77585,0
85.42698,27.77573,0
85.42693,27.77558,0
85.42671,27.77533,0
85.42664,27.77481,0
85.42671,27.77431,0
85.42682,27.77414,0
85.42695,27.77363,0
85.4271135,27.7731656,0
85.427108,27.7731813,0
85.4272,27.77292,0
85.42736,27.77264,0
85.42767,27.77256,0
85.42793,27.77238,0
85.42813,27.77233,0
85.42827,27.77236,0
85.42828,27.77242,0
85.42871,27.7727,0
85.42901,27.77288,0
85.42939,27.77285,0
85.42969,27.77302,0
85.4297318,27.7730367,0
85.43009,27.77318,0
85.43011,27.77329,0
85.43032,27.77353,0
85.43053,27.77361,0
85.43048,27.77382,0
85.43067,27.77412,0
85.43064,27.77423,0
85.43082,27.77441,0
85.43089,27.77464,0
85.43105,27.77477,0
85.43127,27.77511,0
85.43123,27.77523,0
85.43148,27.77532,0
85.43166,27.77534,0
85.43188,27.77553,0
85.4320393,27.7755403,0
85.43219,27.77555,0
85.43247,27.77566,0
85.4328,27.77559,0
85.43303,27.77572,0
85.43325,27.77574,0
85.43342,27.77584,0
85.43353,27.77602,0
85.43347,27.77614,0
85.43348,27.77625,0
85.4336178,27.7763342,0
85.43366,27.77636,0
85.43363,27.77657,0
85.43371,27.77683,0
85.43371,27.77695,0
85.43392,27.77704,0
85.43425,27.77713,0
85.43429,27.77717,0
85.43426,27.77727,0
85.43552,27.77735,0
85.43566,27.77738,0
85.43582,27.77755,0
85.43583,27.77775,0
85.43614,27.77778,0
85.43633,27.77772,0
85.4368,27.7777,0
85.437,27.77781,0
85.43717,27.77803,0
85.43723,27.77822,0
85.43781,27.77918,0
85.43839,27.77937,0
85.43884,27.7794,0
85.43888,27.77946,0
85.43889,27.77961,0
85.43898,27.77977,0
85.43897,27.77981,0
85.43864,27.78004,0
85.43857,27.7802,0
85.43866,27.78036,0
85.43895,27.78035,0
85.4392,27.78038,0
85.43945,27.78054,0
85.43967,27.78059,0
85.4398407,27.7807513,0
85.4398639,27.7807623,0
85.43991,27.78077,0
85.43994,27.78077,0
85.4404,27.78062,0
85.44074,27.78062,0
85.44089,27.78077,0
85.44102,27.7809,0
85.44089,27.78127,0
85.4406,27.78164,0
85.44068,27.78168,0
85.44093,27.78159,0
85.44136,27.78149,0
85.44158,27.78152,0
85.44186,27.78146,0
85.44232,27.78166,0
85.44255,27.78196,0
85.44293,27.782,0
85.44313,27.78219,0
85.44275,27.7824,0
85.44263,27.78263,0
85.44287,27.78265,0
85.44324,27.78249,0
85.44355,27.7825,0
85.44373,27.78264,0
85.44369,27.78306,0
85.44322,27.78323,0
85.44314,27.78356,0
85.44294,27.78389,0
85.44293,27.78431,0
85.44354,27.78452,0
85.4439,27.78458,0
85.44412,27.78467,0
85.44433,27.78485,0
85.4447,27.78506,0
85.44571,27.78594,0
85.44579,27.78618,0
85.44582,27.78669,0
85.4453,27.78731,0
85.44514,27.78765,0
85.44525,27.78821,0
85.44547,27.78836,0
85.44581,27.78832,0
85.44628,27.78816,0
85.44702,27.78843,0
85.44742,27.78862,0
85.44781,27.78914,0
85.44871,27.78994,0
85.44914,27.79015,0
85.44882,27.79075,0
85.44875,27.79135,0
85.44902,27.79158,0
85.44984,27.79145,0
85.4501,27.79129,0
85.45057,27.79132,0
85.45066,27.7915,0
85.45095,27.79166,0
85.45108,27.79186,0
85.45156,27.79187,0
85.45166,27.79185,0
85.4518,27.79181,0
85.45212,27.79215,0
85.45247,27.79218,0
85.45301,27.79238,0
85.45377,27.793,0
85.45412,27.79315,0
85.45486,27.79328,0
85.4553,27.79355,0
85.45568,27.79397,0
85.45572,27.79462,0
85.45582,27.79503,0
85.45653,27.7956,0
85.45653,27.79587,0
85.4567,27.79597,0
85.45678,27.79619,0
85.45712,27.79643,0
85.45716,27.79653,0
85.45733,27.7966,0
85.45749,27.79655,0
85.45777,27.79644,0
85.45794,27.79644,0
85.45821,27.79647,0
85.45846,27.79667,0
85.45926,27.79663,0
85.45964,27.7968,0
85.45977,27.79694,0
85.4598,27.79708,0
85.45984,27.79709,0
85.46,27.79696,0
85.46035,27.79693,0
85.4605,27.79707,0
85.4609,27.79691,0
85.46108,27.79701,0
85.4613,27.79728,0
85.46174,27.79738,0
85.46189,27.79738,0
85.46204,27.79731,0
85.46251,27.79693,0
85.46281,27.79688,0
85.46304,27.79675,0
85.46342,27.797,0
85.46368,27.79703,0
85.46378,27.79722,0
85.46386,27.79727,0
85.46454,27.79746,0
85.46479,27.79736,0
85.46491,27.79754,0
85.46521,27.79763,0
85.46527,27.79769,0
85.46531,27.79794,0
85.46544,27.79807,0
85.46555,27.79815,0
85.46577,27.79824,0
85.46584,27.79842,0
85.4658,27.79856,0
85.46581,27.79864,0
85.46586,27.79869,0
85.46607,27.79865,0
85.46623,27.79874,0
85.46648,27.79879,0
85.46681,27.79901,0
85.4672,27.79915,0
85.46735,27.79967,0
85.46725,27.79974,0
85.46715,27.79989,0
85.46714,27.80018,0
85.46711,27.80021,0
85.467,27.80034,0
85.46708,27.80037,0
85.46726,27.80021,0
85.46747,27.79992,0
85.46753,27.79993,0
85.46752,27.80012,0
85.46755,27.80021,0
85.4675,27.80038,0
85.46739,27.80052,0
85.46722,27.80097,0
85.46696,27.80146,0
85.46698,27.80159,0
85.46716,27.80165,0
85.46722,27.80176,0
85.46713,27.80194,0
85.46717,27.80258,0
85.46723,27.8027,0
85.46735,27.80284,0
85.46743,27.80303,0
85.46751,27.80306,0
85.46763,27.80318,0
85.4678,27.80356,0
85.46794,27.80375,0
85.46805,27.80399,0
85.46847,27.80458,0
85.46862,27.80464,0
85.4688,27.80458,0
85.46894,27.80458,0
85.46959,27.80475,0
85.46955,27.80499,0
85.47011,27.80541,0
85.47007,27.80549,0
85.46993,27.80559,0
85.4699317,27.8055888,0
85.46988,27.80547,0
85.46979,27.80537,0
85.46967,27.80529,0
85.46947,27.80526,0
85.4689,27.80535,0
85.4685,27.80539,0
85.46814,27.80539,0
85.46783,27.8053,0
85.46751,27.80518,0
85.46715,27.80511,0
85.46683,27.8051,0
85.46628,27.80518,0
85.46624,27.80516,0
85.46626,27.8051,0
85.46642,27.8049,0
85.46651,27.80466,0
85.46649,27.80456,0
85.46636,27.80438,0
85.46632,27.80437,0
85.4663,27.80443,0
85.46634,27.80451,0
85.46632,27.80457,0
85.46615,27.80471,0
85.46598,27.8047,0
85.46547,27.80514,0
85.46521,27.80554,0
85.4647,27.80605,0
85.46435,27.80599,0
85.46416,27.80588,0
85.46407,27.80594,0
85.46412,27.806,0
85.46414,27.80617,0
85.46404,27.80628,0
85.46388,27.80629,0
85.4637,27.80632,0
85.46351,27.80634,0
85.4633,27.80646,0
85.4632,27.80658,0
85.46306,27.80714,0
85.46281,27.80729,0
85.4628,27.80749,0
85.46273,27.80763,0
85.46259,27.80775,0
85.46237,27.80854,0
85.46252,27.80867,0
85.46277,27.80915,0
85.46277,27.80925,0
85.46271,27.80933,0
85.46255,27.80937,0
85.46152,27.81023,0
85.4615,27.81037,0
85.46162,27.81058,0
85.46145,27.81077,0
85.46133,27.81073,0
85.46122,27.81084,0
85.4609,27.81093,0
85.46082,27.8109,0
85.46065,27.81075,0
85.46045,27.81072,0
85.46027,27.81074,0
85.45973,27.81093,0
</coordinates>
</LineString>
</Placemark>
<Placemark>
<name>19.5</name>
<description><![CDATA[Statistics computed from imported data<br><br>Distance: 12.1 miles]]></description>
<styleUrl>#line-0288D1-5000</styleUrl>
<LineString>
<tessellate>1</tessellate>
<coordinates>
85.4633331298828,27.727976963492,0
85.463376136854,27.7279114418378,0
85.4631797221642,27.7278104285416,0
85.46313,27.72793,0
85.46314,27.72808,0
85.46331,27.7287,0
85.46333,27.72893,0
85.46343,27.72912,0
85.46373,27.72952,0
85.4640629801972,27.729852980903,0
85.4641499997857,27.7299400002086,0
85.46428,27.73007,0
85.46452,27.73044,0
85.46463,27.73078,0
85.4646,27.73087,0
85.4646369761353,27.7311704327522,0
85.46468,27.73152,0
85.46481,27.73177,0
85.46487,27.73182,0
85.46503,27.73183,0
85.46512,27.73216,0
85.46521,27.73225,0
85.4653670034761,27.732289250869,0
85.4653740593337,27.7322910148408,0
85.46521,27.73225,0
85.46502,27.73232,0
85.46499,27.73237,0
85.46505,27.73257,0
85.46508,27.7328,0
85.46541,27.73366,0
85.46538,27.73374,0
85.46502,27.73415,0
85.46522,27.73466,0
85.46541,27.73523,0
85.46553,27.73544,0
85.46571,27.73553,0
85.46593,27.73571,0
85.46597,27.73584,0
85.46589,27.73598,0
85.46617,27.73662,0
85.46613,27.737,0
85.46588,27.73761,0
85.46589,27.73795,0
85.46598,27.73815,0
85.46605,27.73842,0
85.46628,27.73868,0
85.4663,27.73893,0
85.4664,27.73911,0
85.46642,27.73914,0
85.46669,27.73919,0
85.46687,27.73939,0
85.46689,27.73946,0
85.46668,27.73969,0
85.46661,27.73994,0
85.4666,27.74012,0
85.46669,27.74053,0
85.46677,27.74063,0
85.4669,27.74069,0
85.46689,27.74073,0
85.4668,27.74075,0
85.4666,27.74065,0
85.46637,27.74029,0
85.46615,27.74013,0
85.46588,27.74012,0
85.46561,27.74021,0
85.46525,27.74024,0
85.46484,27.74033,0
85.46475,27.7404,0
85.46486,27.74054,0
85.4653,27.74076,0
85.46532,27.74083,0
85.46527,27.74089,0
85.46512,27.74091,0
85.46463,27.74068,0
85.46424,27.74084,0
85.46376,27.74095,0
85.46379,27.74145,0
85.46411,27.74152,0
85.4643,27.74168,0
85.46455,27.74181,0
85.46482,27.74184,0
85.46492,27.74188,0
85.46501,27.74203,0
85.46498,27.74208,0
85.46482,27.74204,0
85.46466,27.74208,0
85.46432,27.74227,0
85.46433,27.74234,0
85.46459,27.74237,0
85.46469,27.74243,0
85.46477,27.74268,0
85.4651,27.74318,0
85.46522,27.74328,0
85.46548,27.74333,0
85.46564,27.7434,0
85.46589,27.74361,0
85.46614,27.74394,0
85.46665,27.74408,0
85.46687,27.74442,0
85.46689,27.74456,0
85.467,27.74461,0
85.4672148657369,27.7445972103728,0
85.46723,27.74461,0
85.46714,27.74473,0
85.46696,27.74478,0
85.46645,27.74441,0
85.46605,27.74451,0
85.46583,27.74429,0
85.46573,27.74411,0
85.4656,27.74406,0
85.4651,27.74419,0
85.46504,27.74436,0
85.46469,27.74449,0
85.46413,27.74439,0
85.46358,27.74437,0
85.46343,27.74441,0
85.46319,27.74457,0
85.46297,27.74464,0
85.46266,27.74449,0
85.46259,27.74432,0
85.46252,27.74428,0
85.462512070581,27.7442775327916,0
85.46248,27.74436,0
85.46246,27.74462,0
85.46243,27.7447,0
85.46234,27.74469,0
85.46221,27.74484,0
85.46222,27.74496,0
85.46217,27.745,0
85.46198,27.74539,0
85.46183,27.74601,0
85.46213,27.74618,0
85.46217,27.74642,0
85.4621,27.74672,0
85.46212,27.74683,0
85.4622,27.74692,0
85.46227,27.74693,0
85.46253,27.74702,0
85.46278,27.74705,0
85.46302,27.74717,0
85.46306,27.74726,0
85.46304,27.74741,0
85.46309,27.74752,0
85.46317,27.74756,0
85.46383,27.74753,0
85.464,27.74763,0
85.46419,27.74762,0
85.46453,27.74766,0
85.46451,27.74798,0
85.46471,27.74832,0
85.46474,27.74856,0
85.46507,27.74863,0
85.46528,27.74856,0
85.46541,27.74858,0
85.46556,27.74896,0
85.4655629209342,27.7489662583005,0
85.46549,27.74899,0
85.46539,27.74883,0
85.46527,27.74884,0
85.46525,27.7489,0
85.46529,27.74911,0
85.46514,27.74922,0
85.46508,27.74932,0
85.465,27.74956,0
85.46505,27.74966,0
85.46504,27.74972,0
85.46526,27.75004,0
85.46576,27.75026,0
85.46595,27.75031,0
85.46608,27.75031,0
85.46623,27.75024,0
85.46637,27.75023,0
85.46649,27.75033,0
85.46653,27.7506,0
85.46663,27.75076,0
85.46683,27.75099,0
85.46682,27.75118,0
85.46665,27.75148,0
85.46646,27.75162,0
85.46644,27.75177,0
85.46635,27.752,0
85.46645,27.7523,0
85.46642,27.75261,0
85.46644,27.75269,0
85.4665110210251,27.7527894294352,0
85.46659,27.7529,0
85.4666,27.75298,0
85.46653,27.75312,0
85.46656,27.75333,0
85.46664,27.75343,0
85.46679,27.75343,0
85.4668,27.75354,0
85.46675,27.75358,0
85.46668,27.7537,0
85.46667,27.75382,0
85.46619,27.75389,0
85.46604,27.75399,0
85.46604,27.75404,0
85.46619,27.75419,0
85.46624,27.75431,0
85.46644,27.75453,0
85.46659,27.7546,0
85.46665,27.75469,0
85.4667,27.75471,0
85.46674,27.75467,0
85.46669,27.75449,0
85.46688,27.75433,0
85.46708,27.75421,0
85.46713,27.75418,0
85.46715,27.7542,0
85.46706,27.75438,0
85.46706,27.7545,0
85.46751,27.7546,0
85.46757,27.75466,0
85.46746,27.75476,0
85.46742,27.75486,0
85.46741,27.75505,0
85.46725,27.75527,0
85.46725,27.75549,0
85.46713,27.75576,0
85.46718,27.75604,0
85.46764,27.75649,0
85.46773,27.75661,0
85.46777,27.75684,0
85.46777,27.7571,0
85.46786,27.75727,0
85.46791,27.75754,0
85.46781,27.75777,0
85.46779,27.75803,0
85.46773,27.7581,0
85.46766,27.75818,0
85.46753,27.75816,0
85.46743,27.75824,0
85.46734,27.75842,0
85.46721,27.75845,0
85.46712,27.75856,0
85.46719,27.75867,0
85.4674,27.75883,0
85.46784,27.75888,0
85.46798,27.75897,0
85.4681,27.75937,0
85.4685,27.75996,0
85.46857,27.76041,0
85.46844,27.76099,0
85.4684,27.76103,0
85.46834,27.76103,0
85.46817,27.76099,0
85.46807,27.76102,0
85.46805,27.76108,0
85.46848,27.76122,0
85.46856,27.7613,0
85.46873,27.76129,0
85.4689,27.7612,0
85.46893,27.7612,0
85.4689,27.76133,0
85.46878,27.76153,0
85.46885,27.7618,0
85.46904,27.76201,0
85.4691,27.76215,0
85.46915,27.76257,0
85.46926,27.76276,0
85.46945,27.7629,0
85.46943,27.763,0
85.46918,27.76317,0
85.46917,27.76337,0
85.46904,27.76364,0
85.46904,27.76375,0
85.46919,27.7639,0
85.46938,27.7647,0
85.46894,27.76548,0
85.46868,27.76614,0
85.46858,27.76624,0
85.46857,27.7665,0
85.46843,27.76683,0
85.46769,27.76694,0
85.46752,27.76712,0
85.46738,27.76782,0
85.46721,27.76804,0
85.46714,27.76828,0
85.46708,27.76836,0
85.467,27.76842,0
85.46727,27.76854,0
85.46715,27.76898,0
85.46723,27.76915,0
85.46713,27.76927,0
85.46708,27.76948,0
85.4672,27.7697,0
85.46714,27.7698,0
85.46718,27.77023,0
85.46736,27.77044,0
85.4677,27.77067,0
85.46804,27.77074,0
85.4682,27.77081,0
85.46814,27.77095,0
85.46822,27.77115,0
85.46867,27.7714,0
85.4687438253949,27.771603019836,0
85.4687440463164,27.7716036273854,0
85.46867,27.7714,0
85.46822,27.77115,0
85.46814,27.77095,0
85.4682,27.77081,0
85.46804,27.77074,0
85.4677,27.77067,0
85.46736,27.77044,0
85.46718,27.77023,0
85.46714,27.7698,0
85.4672,27.7697,0
85.46708,27.76948,0
85.46713,27.76927,0
85.46723,27.76915,0
85.46715,27.76898,0
85.46727,27.76854,0
85.467,27.76842,0
85.46708,27.76836,0
85.4671404759367,27.7682802817198,0
85.4673,27.76807,0
85.46742,27.76801,0
85.46751,27.76801,0
85.46764,27.76808,0
85.4677,27.76815,0
85.46772,27.76822,0
85.46764,27.76859,0
85.46771,27.76882,0
85.46786,27.76895,0
85.46804,27.76899,0
85.46844,27.76884,0
85.46851,27.76886,0
85.46853,27.76894,0
85.46834,27.76927,0
85.46835,27.76934,0
85.46842,27.76939,0
85.46854,27.76938,0
85.46874,27.7692,0
85.46902,27.76905,0
85.46918,27.76884,0
85.46924,27.76882,0
85.4693,27.76883,0
85.46947,27.76893,0
85.46951,27.76898,0
85.46956,27.76925,0
85.46976,27.76942,0
85.46994,27.76947,0
85.47023,27.76945,0
85.47072,27.76929,0
85.47079,27.7693,0
85.47088,27.76937,0
85.47091,27.76943,0
85.47084,27.76965,0
85.47086,27.76977,0
85.47114,27.76989,0
85.47129,27.77,0
85.47154,27.77,0
85.47176,27.77022,0
85.47191,27.77059,0
85.47234,27.77083,0
85.47261,27.77085,0
85.47282,27.77083,0
85.47298,27.77078,0
85.47332,27.7706,0
85.4735599940777,27.7707699953575,0
85.47358,27.77097,0
85.47363,27.77102,0
85.4738,27.77119,0
85.47363,27.77149,0
85.47357,27.77162,0
85.47363,27.77195,0
85.47374,27.77204,0
85.4741,27.77192,0
85.47452,27.77198,0
85.47459,27.77208,0
85.47454,27.77219,0
85.47456,27.77232,0
85.47488,27.77239,0
85.47491,27.77256,0
85.47504,27.77287,0
85.47485,27.77324,0
85.47438,27.77373,0
85.47484,27.77406,0
85.47521,27.7742,0
85.47556,27.77421,0
85.4757,27.77429,0
85.4758,27.77461,0
85.47614,27.77468,0
85.47662,27.7751,0
85.47701,27.77522,0
85.47721,27.77551,0
85.47746,27.7758,0
85.47775,27.77601,0
85.47836,27.77609,0
85.4786,27.77629,0
85.47905,27.77628,0
85.47915,27.77645,0
85.47937,27.77701,0
85.47993,27.77738,0
85.47992,27.7779,0
85.48023,27.77833,0
85.48069,27.77828,0
85.48179,27.77874,0
85.48283,27.77881,0
85.48298,27.77873,0
85.48313,27.77875,0
85.48401,27.7793,0
85.48417,27.77957,0
85.48455,27.77982,0
85.48492,27.77983,0
85.48521,27.77995,0
85.48601,27.77986,0
85.48622,27.7799,0
85.48674,27.77979,0
85.48709,27.7798,0
85.48714,27.77983,0
85.48715,27.77987,0
85.48704,27.78005,0
85.48702,27.78038,0
85.48698,27.78045,0
85.48683,27.78059,0
85.48675,27.78064,0
85.48644,27.78061,0
85.48632,27.78064,0
85.48621,27.78074,0
85.48605,27.78077,0
85.48592,27.78077,0
85.48585,27.78077,0
85.48558,27.7809,0
85.48543,27.78103,0
85.48529,27.78107,0
85.48448,27.78106,0
85.48427,27.78112,0
85.48404,27.7814,0
85.48385,27.78159,0
85.48367,27.78162,0
85.4834,27.78154,0
85.48321,27.78153,0
85.483,27.7816,0
85.48271,27.78179,0
85.48265,27.7819,0
85.48264,27.78209,0
85.48259,27.78223,0
85.48241,27.78249,0
85.48235,27.78278,0
85.48248,27.78326,0
85.48245,27.78341,0
85.4822,27.78368,0
85.48206,27.78373,0
85.48182,27.78376,0
85.48171,27.78385,0
85.48169,27.78395,0
85.48184,27.78414,0
85.48185,27.78422,0
85.48168,27.78446,0
85.48166,27.78474,0
85.48152,27.78485,0
85.48135,27.78493,0
85.48115,27.78496,0
85.48103,27.78501,0
85.48085,27.78541,0
85.48058,27.78573,0
85.4805,27.78578,0
85.48035,27.78584,0
85.48022,27.78578,0
85.48012,27.7857,0
85.4801,27.78562,0
85.47999,27.78551,0
85.4799,27.7855,0
85.47981,27.78556,0
85.47972,27.78586,0
85.47976,27.78623,0
85.47987,27.78645,0
85.47984,27.78674,0
85.47989,27.7869,0
85.48007,27.78697,0
85.4801,27.78704,0
85.48009,27.78726,0
85.48018,27.78743,0
85.48017,27.7875,0
85.47992,27.78765,0
85.47989,27.78774,0
85.47991,27.78791,0
85.47987,27.788,0
85.47975,27.78805,0
85.47961,27.78803,0
85.47948,27.78807,0
85.4794,27.78804,0
85.47938,27.7879,0
85.47929,27.78786,0
85.47881,27.7878,0
85.47874,27.78776,0
85.4787,27.78767,0
85.47877,27.78752,0
85.47879,27.78737,0
85.47848,27.78695,0
85.47853,27.78674,0
85.47853,27.78663,0
85.47844,27.78659,0
85.4783,27.78665,0
85.47814,27.78684,0
85.47816,27.78705,0
85.47783,27.78756,0
85.47782,27.78768,0
85.47796,27.78785,0
85.47797,27.78791,0
85.47779,27.78828,0
85.47778,27.78842,0
85.47792,27.78853,0
85.47805,27.78874,0
85.47811,27.78895,0
85.47822,27.78913,0
85.47829,27.78944,0
85.4784,27.78958,0
85.47843,27.78966,0
85.47838,27.78974,0
85.47826,27.78976,0
85.47815,27.78969,0
85.47795,27.78945,0
85.47771,27.78929,0
85.47756,27.78926,0
85.47752,27.78935,0
85.47765,27.78968,0
85.47767,27.78997,0
85.4776,27.79016,0
85.47748,27.79028,0
85.4774,27.79035,0
85.47725,27.79038,0
85.47714,27.79029,0
85.47697,27.79002,0
85.47683,27.78996,0
85.47667,27.78973,0
85.47646,27.78978,0
85.47633,27.78989,0
85.47627,27.79001,0
85.47626,27.79019,0
85.4764,27.79073,0
85.4764,27.79085,0
85.47629,27.79098,0
85.47607,27.79114,0
85.47605,27.79123,0
85.47596,27.79137,0
85.47594,27.79149,0
85.47588,27.79155,0
85.47563,27.79157,0
85.47554,27.79164,0
85.47542,27.79184,0
85.47534,27.79193,0
85.47524,27.79192,0
85.47514,27.79186,0
85.47505,27.79173,0
85.47507,27.79165,0
85.4752,27.79159,0
85.47538,27.79133,0
85.47553,27.79124,0
85.47557,27.79116,0
85.4755,27.7911,0
85.4752,27.79118,0
85.47495,27.79116,0
85.47486,27.79108,0
85.47492,27.79078,0
85.47525,27.79063,0
85.47531,27.79049,0
85.47528,27.79037,0
85.47515,27.79034,0
85.47499,27.79039,0
85.47481,27.7904,0
85.47468,27.79033,0
85.47467,27.79011,0
85.47451,27.78998,0
85.47453,27.78981,0
85.47443,27.78962,0
85.47439,27.7896,0
85.47432,27.78959,0
85.47426,27.78962,0
85.47415,27.79017,0
85.4743,27.79049,0
85.47428,27.79057,0
85.47396,27.79079,0
85.47363,27.79095,0
85.47355,27.79102,0
85.47344,27.79125,0
85.47303,27.79166,0
85.473,27.79176,0
85.47312,27.79203,0
85.47327,27.79279,0
85.47333,27.79292,0
85.47338,27.79297,0
85.47346,27.79298,0
85.47363,27.79292,0
85.47368,27.79293,0
85.47371,27.79297,0
85.47369,27.79301,0
85.47363,27.79306,0
85.47359,27.79309,0
85.47337,27.79319,0
85.47322,27.79319,0
85.47313,27.79295,0
85.47305,27.79296,0
85.47296,27.79316,0
85.47294,27.79344,0
85.47288,27.79355,0
85.47264,27.79374,0
85.47211,27.79439,0
85.47195,27.79456,0
85.47175,27.7946,0
85.47157,27.79481,0
85.47114,27.79502,0
85.47097,27.79508,0
85.47083,27.79503,0
85.47062,27.79489,0
85.47051,27.79487,0
85.47033,27.79489,0
85.47019,27.79485,0
85.47007,27.79477,0
85.4698,27.79439,0
85.46974,27.79437,0
85.46967,27.7944,0
85.46964,27.79449,0
85.46966,27.79465,0
85.46976,27.79486,0
85.4699,27.795,0
85.47035,27.79528,0
85.4706,27.79548,0
85.47064,27.79559,0
85.47062,27.79568,0
85.46976,27.79621,0
85.46956,27.79622,0
85.46942,27.79627,0
85.46925,27.79649,0
85.46909,27.79658,0
85.46893,27.7966,0
85.46863,27.79654,0
85.46855,27.79657,0
85.46824,27.79684,0
85.46807,27.79717,0
85.46801,27.79724,0
85.46791,27.79727,0
85.46783,27.79726,0
85.46749,27.79711,0
85.46729,27.79713,0
85.46703,27.79699,0
85.46684,27.79697,0
85.46668,27.79705,0
85.4666,27.79714,0
85.4666,27.79725,0
85.46676,27.7974,0
85.4668,27.79749,0
85.4668,27.79772,0
85.46692,27.79787,0
85.46691,27.79799,0
85.4668,27.79805,0
85.46674,27.79805,0
85.46656,27.79796,0
85.46646,27.79796,0
85.4664,27.79801,0
85.46634,27.79824,0
85.46637,27.79834,0
85.46649,27.7984,0
85.46682,27.79878,0
85.46712,27.79896,0
85.4672,27.79904,0
85.4672,27.79915,0
85.46712,27.79919,0
85.46667,27.79917,0
85.46653,27.79905,0
85.46633,27.79897,0
85.46616,27.79893,0
85.46606,27.79895,0
85.46601,27.79901,0
85.46598,27.79912,0
85.46567,27.79976,0
85.46544,27.8001,0
85.46544,27.80021,0
85.46546,27.80028,0
85.46543,27.80035,0
85.46537,27.80039,0
85.4653,27.80037,0
85.46519,27.80026,0
85.46518,27.80021,0
85.46516,27.79984,0
85.46509,27.79965,0
85.46511,27.79948,0
85.465,27.7992,0
85.46497,27.79891,0
85.46502,27.79851,0
85.46493,27.79846,0
85.46464,27.7984,0
85.46448,27.79846,0
85.46441,27.79853,0
85.46442,27.79859,0
85.46457,27.79864,0
85.46463,27.79872,0
85.46479,27.79982,0
85.4647,27.80004,0
85.46476,27.80021,0
85.46476,27.8003,0
85.4646,27.80066,0
85.46461,27.80085,0
85.46439,27.80113,0
85.46415,27.80169,0
85.46424,27.80183,0
85.46418,27.80191,0
85.46378,27.80197,0
85.46363,27.80215,0
85.46356,27.80235,0
85.46366,27.80244,0
85.46385,27.80243,0
85.46396,27.80249,0
85.46405,27.80271,0
85.46443,27.80274,0
85.46456,27.80278,0
85.46461,27.80333,0
85.46454,27.80354,0
85.46449,27.80405,0
85.46456,27.8041,0
85.46464,27.80406,0
85.4648437357775,27.8038982098237,0
85.4648399440628,27.8039012209726,0
85.46498,27.80379,0
85.46509,27.80361,0
85.46534,27.8035,0
85.46556,27.80368,0
85.46555,27.80388,0
85.46563,27.80402,0
85.46578,27.80406,0
85.46588,27.80439,0
85.46596,27.80444,0
85.46601,27.80452,0
85.46601,27.80461,0
85.46598,27.8047,0
85.46547,27.80514,0
85.46521,27.80554,0
85.4647,27.80605,0
85.46435,27.80599,0
85.46416,27.80588,0
85.46407,27.80594,0
85.46412,27.806,0
85.46414,27.80617,0
85.46404,27.80628,0
85.46388,27.80629,0
85.4637,27.80632,0
85.46351,27.80634,0
85.4633,27.80646,0
85.4632,27.80658,0
85.46306,27.80714,0
85.46281,27.80729,0
85.4628,27.80749,0
85.46273,27.80763,0
85.46259,27.80775,0
85.46237,27.80854,0
85.46252,27.80867,0
85.46277,27.80915,0
85.46277,27.80925,0
85.46271,27.80933,0
85.46255,27.80937,0
85.46152,27.81023,0
85.4615,27.81037,0
85.46162,27.81058,0
85.46145,27.81077,0
85.46133,27.81073,0
85.46122,27.81084,0
85.4609,27.81093,0
85.46082,27.8109,0
85.46065,27.81075,0
</coordinates>
</LineString>
</Placemark>
<Placemark>
<name>13.66</name>
<description><![CDATA[Statistics computed from imported data<br><br>Distance: 8.5 miles]]></description>
<styleUrl>#line-0288D1-5000</styleUrl>
<LineString>
<tessellate>1</tessellate>
<coordinates>
85.4968070983887,27.7491838896358,0
85.4966632451918,27.7492859948093,0
85.49683,27.74947,0
85.49686,27.74954,0
85.49685,27.74965,0
85.4967,27.74991,0
85.49669,27.75037,0
85.4966,27.75073,0
85.49653,27.75104,0
85.49651,27.75127,0
85.49655,27.7515,0
85.49662,27.75163,0
85.49664,27.75175,0
85.49698,27.75187,0
85.4971,27.75195,0
85.49702,27.75221,0
85.49699,27.75243,0
85.49704,27.75252,0
85.49717,27.75254,0
85.49789,27.75237,0
85.49798,27.7524,0
85.49806,27.75242,0
85.49811,27.75251,0
85.49811,27.75257,0
85.49817,27.75269,0
85.49828,27.75274,0
85.49822,27.75287,0
85.49824,27.75321,0
85.49835,27.75343,0
85.49833,27.75359,0
85.49836,27.75371,0
85.49833,27.75379,0
85.4984,27.75413,0
85.49845,27.75427,0
85.49864,27.75446,0
85.4987,27.75463,0
85.4987909207944,27.7551376411023,0
85.4987934558188,27.7551517949884,0
85.4987958286002,27.7551650430181,0
85.49882,27.7553,0
85.49895,27.75572,0
85.4989795390004,27.7557975398761,0
85.49911,27.75614,0
85.4994,27.75665,0
85.49948,27.75686,0
85.49957,27.75699,0
85.4996,27.75723,0
85.49956,27.75726,0
85.49952,27.75734,0
85.49915,27.75738,0
85.49881,27.75779,0
85.49878,27.75808,0
85.49864,27.75833,0
85.49879,27.75881,0
85.49875,27.75915,0
85.49851,27.75945,0
85.49822,27.75956,0
85.49811,27.7595,0
85.4979113739145,27.7594565505438,0
85.4979164341061,27.7594576574661,0
85.49779,27.75943,0
85.49787,27.75953,0
85.49775,27.75982,0
85.49737,27.76012,0
85.49732,27.76012,0
85.49719,27.76035,0
85.49735,27.76051,0
85.49754,27.76053,0
85.4976,27.76061,0
85.49734,27.76067,0
85.49694,27.76055,0
85.49686,27.76052,0
85.49676,27.76044,0
85.49662,27.76039,0
85.49648,27.76038,0
85.49636,27.76042,0
85.49616,27.76059,0
85.49612,27.76072,0
85.49616,27.76093,0
85.49624,27.76103,0
85.49648,27.76121,0
85.4965,27.76128,0
85.49647,27.76133,0
85.49639,27.76153,0
85.49647,27.762,0
85.49645,27.76205,0
85.496,27.76224,0
85.49598,27.76233,0
85.49611,27.76259,0
85.49641,27.76272,0
85.49657,27.76272,0
85.49688,27.76288,0
85.49691,27.76296,0
85.49701,27.76301,0
85.49715,27.76321,0
85.4973,27.76331,0
85.4974,27.76328,0
85.49747,27.7633,0
85.4974828799471,27.7633240425678,0
85.49762,27.76358,0
85.49771,27.76363,0
85.49786,27.76365,0
85.49792,27.7637,0
85.49809,27.764,0
85.49791,27.76405,0
85.49776,27.76401,0
85.49766,27.76403,0
85.49724,27.76435,0
85.49713,27.76436,0
85.49707,27.76443,0
85.49696,27.7649,0
85.49686,27.76501,0
85.49682,27.76515,0
85.49668,27.76527,0
85.49662,27.76529,0
85.4966,27.76515,0
85.49656,27.76509,0
85.49646,27.76507,0
85.49633,27.7653,0
85.49633,27.76554,0
85.49621,27.76618,0
85.49598,27.76657,0
85.49567,27.76691,0
85.49566,27.76704,0
85.49573,27.76704,0
85.4957324625242,27.7670412628329,0
85.4957339198543,27.7670420101835,0
85.49573,27.76704,0
85.49566,27.76704,0
85.49561,27.7671,0
85.49558,27.76717,0
85.49561,27.76723,0
85.4958,27.76748,0
85.49587,27.76769,0
85.49612,27.7679,0
85.49614,27.76801,0
85.49603,27.76832,0
85.49594,27.76845,0
85.49571,27.76859,0
85.49561,27.76863,0
85.49547,27.76866,0
85.49545,27.76871,0
85.49561,27.76908,0
85.49564,27.76915,0
85.49563,27.76952,0
85.49561,27.76954,0
85.49541,27.76971,0
85.49536,27.76979,0
85.49539,27.77008,0
85.49536,27.77021,0
85.49525,27.77028,0
85.49497,27.77036,0
85.49488,27.77043,0
85.49481,27.77068,0
85.4948,27.7709,0
85.49484,27.77098,0
85.49504,27.77109,0
85.49514,27.7712,0
85.4952,27.77133,0
85.49512,27.77158,0
85.49513,27.77166,0
85.49517,27.77176,0
85.49542,27.77204,0
85.4954,27.77212,0
85.49522,27.77229,0
85.4952,27.77238,0
85.49547,27.77267,0
85.49539,27.77293,0
85.49532,27.77296,0
85.49524,27.77296,0
85.49516,27.77303,0
85.4951,27.77329,0
85.49515,27.77358,0
85.49531,27.77369,0
85.49535,27.77386,0
85.49561,27.77406,0
85.49563,27.77408,0
85.49561,27.77415,0
85.49543,27.77414,0
85.49534,27.77419,0
85.4953,27.77418,0
85.49529,27.7741,0
85.4952,27.77403,0
85.49485,27.77382,0
85.49474,27.77382,0
85.49457,27.77387,0
85.4944,27.77386,0
85.49427,27.77364,0
85.49409,27.7736,0
85.494,27.77362,0
85.4939,27.77375,0
85.49382,27.77376,0
85.49371,27.77373,0
85.4936,27.7736,0
85.49351,27.77355,0
85.49342,27.77357,0
85.4931,27.77385,0
85.49304,27.77395,0
85.49303,27.77403,0
85.4930639517935,27.7740882030745,0
85.49306,27.77409,0
85.49318,27.77393,0
85.49329,27.77387,0
85.49346,27.77385,0
85.49356,27.77389,0
85.49359,27.77398,0
85.49355,27.77413,0
85.49369,27.77438,0
85.49367,27.77453,0
85.49376,27.77475,0
85.49403,27.775,0
85.49416,27.77521,0
85.49417,27.77529,0
85.49393,27.77551,0
85.49389,27.77568,0
85.49389,27.77587,0
85.49381,27.77593,0
85.4937,27.77616,0
85.49349,27.7764,0
85.49338,27.7764,0
85.49335,27.77646,0
85.49317,27.77654,0
85.4929579903872,27.7768098304162,0
85.4929377013258,27.7768276866714,0
85.49279,27.77692,0
85.4928,27.77696,0
85.49266,27.77717,0
85.49239,27.7773,0
85.49232,27.77727,0
85.49222,27.77735,0
85.4922,27.77742,0
85.49244,27.7776,0
85.4924,27.77764,0
85.49233,27.77765,0
85.49218,27.7776,0
85.49205,27.77768,0
85.49201,27.77787,0
85.49191,27.77793,0
85.49166,27.77819,0
85.49157,27.77823,0
85.49131,27.7784,0
85.4913015562717,27.7784014485622,0
85.4912959325574,27.7783691122049,0
85.49129,27.77837,0
85.49127,27.77832,0
85.49108,27.77819,0
85.49094,27.77814,0
85.49088,27.77816,0
85.4909,27.77823,0
85.49103,27.77832,0
85.49109,27.77847,0
85.49101,27.77858,0
85.49089,27.77865,0
85.49075,27.77883,0
85.49049,27.77904,0
85.49037,27.77904,0
85.4903,27.77902,0
85.4903,27.77897,0
85.49048,27.77882,0
85.49054,27.77871,0
85.49051,27.77866,0
85.49028,27.77876,0
85.49011,27.77877,0
85.4899428557364,27.7788164289621,0
85.4899194559278,27.7788104715293,0
85.48977,27.77894,0
85.48965,27.779,0
85.48957,27.77914,0
85.48952,27.77941,0
85.48942,27.77946,0
85.48925,27.77944,0
85.48904,27.77948,0
85.48852,27.7797,0
85.48846,27.77976,0
85.48822,27.77958,0
85.48783,27.77957,0
85.48768,27.77966,0
85.4874,27.77969,0
85.4872667009089,27.7797617764337,0
85.4872649454839,27.779762721685,0
85.48714,27.77983,0
85.48715,27.77987,0
85.48704,27.78005,0
85.48702,27.78038,0
85.48698,27.78045,0
85.48683,27.78059,0
85.48675,27.78064,0
85.48644,27.78061,0
85.48632,27.78064,0
85.48621,27.78074,0
85.48605,27.78077,0
85.48592,27.78077,0
85.48585,27.78077,0
85.48558,27.7809,0
85.48543,27.78103,0
85.48529,27.78107,0
85.48448,27.78106,0
85.48427,27.78112,0
85.48404,27.7814,0
85.48385,27.78159,0
85.48367,27.78162,0
85.4834,27.78154,0
85.48321,27.78153,0
85.483,27.7816,0
85.48271,27.78179,0
85.48265,27.7819,0
85.48264,27.78209,0
85.48259,27.78223,0
85.48241,27.78249,0
85.48235,27.78278,0
85.48248,27.78326,0
85.48245,27.78341,0
85.4822,27.78368,0
85.48206,27.78373,0
85.48182,27.78376,0
85.48171,27.78385,0
85.48169,27.78395,0
85.48184,27.78414,0
85.48185,27.78422,0
85.48168,27.78446,0
85.48166,27.78474,0
85.48152,27.78485,0
85.48135,27.78493,0
85.48115,27.78496,0
85.48103,27.78501,0
85.48085,27.78541,0
85.48058,27.78573,0
85.4805,27.78578,0
85.48035,27.78584,0
85.48022,27.78578,0
85.48012,27.7857,0
85.4801,27.78562,0
85.47999,27.78551,0
85.4799,27.7855,0
85.47981,27.78556,0
85.47972,27.78586,0
85.47976,27.78623,0
85.47987,27.78645,0
85.47984,27.78674,0
85.47989,27.7869,0
85.48007,27.78697,0
85.4801,27.78704,0
85.48009,27.78726,0
85.48018,27.78743,0
85.48017,27.7875,0
85.47992,27.78765,0
85.47989,27.78774,0
85.47991,27.78791,0
85.47987,27.788,0
85.47975,27.78805,0
85.47961,27.78803,0
85.47948,27.78807,0
85.4794,27.78804,0
85.47938,27.7879,0
85.47929,27.78786,0
85.47881,27.7878,0
85.47874,27.78776,0
85.4787,27.78767,0
85.47877,27.78752,0
85.47879,27.78737,0
85.47848,27.78695,0
85.47853,27.78674,0
85.47853,27.78663,0
85.47844,27.78659,0
85.4783,27.78665,0
85.47814,27.78684,0
85.47816,27.78705,0
85.47783,27.78756,0
85.47782,27.78768,0
85.47796,27.78785,0
85.47797,27.78791,0
85.47779,27.78828,0
85.47778,27.78842,0
85.47792,27.78853,0
85.47805,27.78874,0
85.47811,27.78895,0
85.47822,27.78913,0
85.47829,27.78944,0
85.4784,27.78958,0
85.47843,27.78966,0
85.47838,27.78974,0
85.47826,27.78976,0
85.47815,27.78969,0
85.47795,27.78945,0
85.47771,27.78929,0
85.47756,27.78926,0
85.47752,27.78935,0
85.47765,27.78968,0
85.47767,27.78997,0
85.4776,27.79016,0
85.47748,27.79028,0
85.4774,27.79035,0
85.47725,27.79038,0
85.47714,27.79029,0
85.47697,27.79002,0
85.47683,27.78996,0
85.47667,27.78973,0
85.47646,27.78978,0
85.47633,27.78989,0
85.47627,27.79001,0
85.47626,27.79019,0
85.4764,27.79073,0
85.4764,27.79085,0
85.47629,27.79098,0
85.47607,27.79114,0
85.47605,27.79123,0
85.47596,27.79137,0
85.47594,27.79149,0
85.47588,27.79155,0
85.47563,27.79157,0
85.47554,27.79164,0
85.47542,27.79184,0
85.47534,27.79193,0
85.47524,27.79192,0
85.47514,27.79186,0
85.47505,27.79173,0
85.47507,27.79165,0
85.4752,27.79159,0
85.47538,27.79133,0
85.47553,27.79124,0
85.47557,27.79116,0
85.4755,27.7911,0
85.4752,27.79118,0
85.47495,27.79116,0
85.47486,27.79108,0
85.47492,27.79078,0
85.47525,27.79063,0
85.47531,27.79049,0
85.47528,27.79037,0
85.47515,27.79034,0
85.47499,27.79039,0
85.47481,27.7904,0
85.47468,27.79033,0
85.47467,27.79011,0
85.47451,27.78998,0
85.47453,27.78981,0
85.47443,27.78962,0
85.47439,27.7896,0
85.47432,27.78959,0
85.47426,27.78962,0
85.47415,27.79017,0
85.4743,27.79049,0
85.47428,27.79057,0
85.47396,27.79079,0
85.47363,27.79095,0
85.47355,27.79102,0
85.47344,27.79125,0
85.47303,27.79166,0
85.473,27.79176,0
85.47312,27.79203,0
85.47327,27.79279,0
85.47333,27.79292,0
85.47338,27.79297,0
85.47346,27.79298,0
85.47363,27.79292,0
85.47368,27.79293,0
85.47371,27.79297,0
85.47369,27.79301,0
85.47363,27.79306,0
85.47359,27.79309,0
85.47337,27.79319,0
85.47322,27.79319,0
85.47313,27.79295,0
85.47305,27.79296,0
85.47296,27.79316,0
85.47294,27.79344,0
85.47288,27.79355,0
85.47264,27.79374,0
85.47211,27.79439,0
85.47195,27.79456,0
85.47175,27.7946,0
85.47157,27.79481,0
85.47114,27.79502,0
85.47097,27.79508,0
85.47083,27.79503,0
85.47062,27.79489,0
85.47051,27.79487,0
85.47033,27.79489,0
85.47019,27.79485,0
85.47007,27.79477,0
85.4698,27.79439,0
85.46974,27.79437,0
85.46967,27.7944,0
85.46964,27.79449,0
85.46966,27.79465,0
85.46976,27.79486,0
85.4699,27.795,0
85.47035,27.79528,0
85.4706,27.79548,0
85.47064,27.79559,0
85.47062,27.79568,0
85.46976,27.79621,0
85.46956,27.79622,0
85.46942,27.79627,0
85.46925,27.79649,0
85.46909,27.79658,0
85.46893,27.7966,0
85.46863,27.79654,0
85.46855,27.79657,0
85.46824,27.79684,0
85.46807,27.79717,0
85.46801,27.79724,0
85.46791,27.79727,0
85.46783,27.79726,0
85.46749,27.79711,0
85.46729,27.79713,0
85.46703,27.79699,0
85.46684,27.79697,0
85.46668,27.79705,0
85.4666,27.79714,0
85.4666,27.79725,0
85.46676,27.7974,0
85.4668,27.79749,0
85.4668,27.79772,0
85.46692,27.79787,0
85.46691,27.79799,0
85.4668,27.79805,0
85.46674,27.79805,0
85.46656,27.79796,0
85.46646,27.79796,0
85.4664,27.79801,0
85.46634,27.79824,0
85.46637,27.79834,0
85.46649,27.7984,0
85.46682,27.79878,0
85.46712,27.79896,0
85.4672,27.79904,0
85.4672,27.79915,0
85.46735,27.79967,0
85.46725,27.79974,0
85.46715,27.79989,0
85.46714,27.80018,0
85.46711,27.80021,0
85.467,27.80034,0
85.46708,27.80037,0
85.46726,27.80021,0
85.46747,27.79992,0
85.46753,27.79993,0
85.46752,27.80012,0
85.46755,27.80021,0
85.4675,27.80038,0
85.46739,27.80052,0
85.46722,27.80097,0
85.46696,27.80146,0
85.46698,27.80159,0
85.46716,27.80165,0
85.46722,27.80176,0
85.46713,27.80194,0
85.46717,27.80258,0
85.46723,27.8027,0
85.46735,27.80284,0
85.46743,27.80303,0
85.46751,27.80306,0
85.46763,27.80318,0
85.4678,27.80356,0
85.46794,27.80375,0
85.46805,27.80399,0
85.46847,27.80458,0
85.46862,27.80464,0
85.4688,27.80458,0
85.46894,27.80458,0
85.46959,27.80475,0
85.46955,27.80499,0
85.47011,27.80541,0
85.47007,27.80549,0
85.46993,27.80559,0
85.4699316596067,27.8055888167919,0
85.46988,27.80547,0
85.46979,27.80537,0
85.46967,27.80529,0
85.46947,27.80526,0
85.4689,27.80535,0
85.4685,27.80539,0
85.46814,27.80539,0
85.46783,27.8053,0
85.46751,27.80518,0
85.46715,27.80511,0
85.46683,27.8051,0
85.46628,27.80518,0
85.46624,27.80516,0
85.46626,27.8051,0
85.46642,27.8049,0
85.46651,27.80466,0
85.46649,27.80456,0
85.46636,27.80438,0
85.46632,27.80437,0
85.4663,27.80443,0
85.46634,27.80451,0
85.46632,27.80457,0
85.46615,27.80471,0
85.46598,27.8047,0
85.46547,27.80514,0
85.46521,27.80554,0
85.4647,27.80605,0
85.46435,27.80599,0
85.46416,27.80588,0
85.46407,27.80594,0
85.46412,27.806,0
85.46414,27.80617,0
85.46404,27.80628,0
85.46388,27.80629,0
85.4637,27.80632,0
85.46351,27.80634,0
85.4633,27.80646,0
85.4632,27.80658,0
85.46306,27.80714,0
85.46281,27.80729,0
85.4628,27.80749,0
85.46273,27.80763,0
85.46259,27.80775,0
85.46237,27.80854,0
85.46252,27.80867,0
85.46277,27.80915,0
85.46277,27.80925,0
85.46271,27.80933,0
85.46255,27.80937,0
85.46152,27.81023,0
85.4615,27.81037,0
85.46162,27.81058,0
85.46145,27.81077,0
85.46133,27.81073,0
85.46122,27.81084,0
85.4609,27.81093,0
85.46082,27.8109,0
</coordinates>
</LineString>
</Placemark>
<Placemark>
<name>19.4</name>
<description><![CDATA[Statistics computed from imported data<br><br>Distance: 12.0 miles]]></description>
<styleUrl>#line-0288D1-5000</styleUrl>
<LineString>
<tessellate>1</tessellate>
<coordinates>
85.3702068328857,27.7907091858954,0
85.3701787433587,27.7908310361936,0
85.37041,27.79107,0
85.370681419234,27.7911699965599,0
85.3706967511505,27.7911756451607,0
85.3707120729375,27.7911812900296,0
85.37098,27.79128,0
85.37125,27.79133,0
85.37214,27.79155,0
85.37229,27.79151,0
85.37241,27.79137,0
85.3724,27.79121,0
85.37227,27.79104,0
85.37229,27.79089,0
85.3724,27.79078,0
85.37282,27.79051,0
85.37346,27.79025,0
85.37352,27.79032,0
85.3735,27.79036,0
85.37315,27.79063,0
85.37309,27.79072,0
85.37307,27.7909,0
85.37325,27.79104,0
85.37369,27.79125,0
85.37386,27.79126,0
85.3738638033401,27.7912586933487,0
85.37379,27.79109,0
85.37379,27.79087,0
85.3742092351975,27.7906475486707,0
85.3742017707677,27.7906515094303,0
85.37428,27.79061,0
85.37455,27.79032,0
85.3748,27.79026,0
85.37492,27.79008,0
85.37496,27.7899,0
85.37516,27.78977,0
85.37539,27.78966,0
85.37569,27.78974,0
85.37589,27.78948,0
85.37608,27.78942,0
85.37656,27.78919,0
85.3771,27.789,0
85.3771,27.78893,0
85.37677,27.78884,0
85.37637,27.78893,0
85.3762,27.78878,0
85.37611,27.7886,0
85.37587,27.78843,0
85.37542,27.78833,0
85.37515,27.78814,0
85.37469,27.78812,0
85.37444,27.78797,0
85.37401,27.78797,0
85.37376,27.78785,0
85.37377,27.78769,0
85.37366,27.78742,0
85.37369,27.7873,0
85.37394,27.78701,0
85.37399,27.78669,0
85.37454,27.78641,0
85.37482,27.78635,0
85.37518,27.7864,0
85.37577,27.78669,0
85.37583,27.78678,0
85.3757,27.78682,0
85.37526,27.78664,0
85.37509,27.78661,0
85.37491,27.78663,0
85.37491,27.7867,0
85.37528,27.78675,0
85.37607,27.78723,0
85.37626,27.78749,0
85.37732,27.78751,0
85.37772,27.78727,0
85.37887,27.78683,0
85.37907,27.78679,0
85.37933,27.78679,0
85.3795,27.78673,0
85.37973,27.78672,0
85.38028,27.78678,0
85.38049,27.7869,0
85.38071,27.78692,0
85.38104,27.78683,0
85.38131,27.78663,0
85.38138,27.78651,0
85.38138,27.78599,0
85.38117,27.78575,0
85.38101,27.78568,0
85.38082,27.78565,0
85.38069,27.7857,0
85.3806,27.78564,0
85.38059,27.78541,0
85.38042,27.78471,0
85.38047,27.78447,0
85.38031,27.78404,0
85.38015,27.78379,0
85.37978,27.78361,0
85.37942,27.78318,0
85.37944,27.78307,0
85.37948,27.78306,0
85.37951,27.78313,0
85.37958,27.78313,0
85.37966,27.78319,0
85.37969,27.78309,0
85.37978,27.78314,0
85.37972,27.78305,0
85.37984,27.78285,0
85.37992,27.78278,0
85.37996,27.78281,0
85.38,27.78294,0
85.38009,27.78303,0
85.38048,27.78263,0
85.3806,27.78254,0
85.38071,27.78257,0
85.38088,27.78269,0
85.38105,27.78289,0
85.38119,27.78288,0
85.38129,27.7829,0
85.38131,27.78301,0
85.38142,27.78302,0
85.3816,27.78308,0
85.3818,27.78323,0
85.3822,27.7833,0
85.38231,27.78341,0
85.38248,27.78336,0
85.38263,27.78347,0
85.3827,27.78343,0
85.38279,27.7835,0
85.38277,27.78364,0
85.38259,27.7839,0
85.38259,27.78404,0
85.38276,27.78409,0
85.3829,27.784,0
85.38306,27.78405,0
85.3832,27.78422,0
85.38321,27.78438,0
85.38311,27.78448,0
85.38329,27.78452,0
85.3833,27.78463,0
85.38355,27.78472,0
85.38383,27.78491,0
85.38417,27.78494,0
85.38447,27.78519,0
85.38466,27.78523,0
85.38479,27.78539,0
85.38499,27.78538,0
85.38523,27.78549,0
85.38528,27.78561,0
85.38513,27.78572,0
85.38509,27.7859,0
85.38498,27.78603,0
85.38519,27.78601,0
85.38531,27.78609,0
85.38546,27.78624,0
85.3855,27.78648,0
85.38565,27.78649,0
85.38574,27.78661,0
85.38589,27.7868,0
85.3859,27.78689,0
85.38613,27.78699,0
85.38617,27.78715,0
85.38682,27.78716,0
85.38696,27.78729,0
85.38702,27.78744,0
85.38683,27.78771,0
85.38691,27.78791,0
85.38713,27.78808,0
85.38723,27.78807,0
85.38734,27.78818,0
85.38743,27.7886,0
85.38739,27.78882,0
85.3873,27.78896,0
85.3874,27.7891,0
85.3875,27.78947,0
85.38723,27.78974,0
85.38741,27.79,0
85.38756,27.79004,0
85.38763,27.79012,0
85.3876,27.79031,0
85.38777,27.79037,0
85.38779,27.79054,0
85.38771,27.79064,0
85.38771,27.79086,0
85.38792,27.79115,0
85.38781,27.79123,0
85.38788,27.79144,0
85.38785,27.79164,0
85.38807,27.7921,0
85.38802,27.79226,0
85.38789,27.79244,0
85.38784,27.79266,0
85.38738,27.79305,0
85.38738,27.79331,0
85.38743,27.79339,0
85.38731,27.79356,0
85.3872956001308,27.7937279984739,0
85.3872944766712,27.793741105643,0
85.38728,27.79391,0
85.38752,27.79421,0
85.38763,27.79448,0
85.38752,27.79477,0
85.38763,27.79489,0
85.38737,27.79516,0
85.38717,27.79553,0
85.3872,27.7956,0
85.38685,27.796,0
85.38683,27.79625,0
85.38669,27.7965,0
85.3867,27.79672,0
85.3866,27.79694,0
85.38661,27.79726,0
85.38649,27.7975,0
85.38655,27.79798,0
85.38649,27.79805,0
85.3866,27.79829,0
85.38655,27.79845,0
85.38662,27.79877,0
85.38673,27.7991,0
85.38703,27.79968,0
85.38694,27.80009,0
85.387,27.80021,0
85.38708,27.80036,0
85.38708,27.80059,0
85.38695,27.80084,0
85.38706,27.80112,0
85.38748,27.8018,0
85.38748,27.80197,0
85.38775,27.80239,0
85.38783,27.80261,0
85.38796,27.80268,0
85.38801,27.80287,0
85.38795,27.80299,0
85.38803,27.80313,0
85.38815,27.80315,0
85.38812,27.80346,0
85.38833,27.80344,0
85.3884,27.80367,0
85.38859,27.80386,0
85.38862,27.80403,0
85.38855,27.80424,0
85.38862,27.80459,0
85.38871,27.80465,0
85.38878,27.80447,0
85.3891,27.80538,0
85.38934,27.80574,0
85.38966,27.80596,0
85.3897,27.8061,0
85.38958,27.80629,0
85.38969,27.80667,0
85.3899,27.80669,0
85.39006,27.80706,0
85.39004,27.80715,0
85.39037,27.80763,0
85.39065,27.8078,0
85.3908,27.80778,0
85.39089,27.80794,0
85.39092,27.8081,0
85.39056,27.8083,0
85.39088,27.80851,0
85.39088,27.80866,0
85.39097,27.80878,0
85.39129,27.80901,0
85.39136,27.80925,0
85.39155,27.80936,0
85.39149,27.80952,0
85.39135,27.80969,0
85.39123,27.80971,0
85.39116,27.80964,0
85.39113,27.80975,0
85.39121,27.81002,0
85.39103,27.8101,0
85.39097,27.81021,0
85.39106,27.81054,0
85.39121,27.81079,0
85.39106,27.81093,0
85.3908,27.81088,0
85.39069,27.81101,0
85.39054,27.81099,0
85.39082,27.81114,0
85.39082,27.81133,0
85.3909,27.81147,0
85.3909,27.81158,0
85.39103,27.81175,0
85.39081,27.81169,0
85.3908,27.81181,0
85.39077,27.81176,0
85.39072,27.8118,0
85.39077,27.81181,0
85.39072,27.81186,0
85.39054,27.81192,0
85.39054,27.81197,0
85.3905,27.81199,0
85.3905,27.81205,0
85.39044,27.81207,0
85.39038,27.81206,0
85.39024,27.81213,0
85.39017,27.81212,0
85.39015,27.81216,0
85.3901,27.81219,0
85.39004,27.81213,0
85.38987,27.81214,0
85.38984,27.81209,0
85.38976,27.81212,0
85.38976,27.81221,0
85.38971,27.81226,0
85.38972,27.8123,0
85.38981,27.81235,0
85.3898,27.81241,0
85.38968,27.81248,0
85.38961,27.81246,0
85.38954,27.81254,0
85.38941,27.81256,0
85.38947,27.81268,0
85.38941,27.81275,0
85.38932,27.81278,0
85.38906,27.81276,0
85.38886,27.81265,0
85.38875,27.81269,0
85.38864,27.81248,0
85.38856,27.81256,0
85.38837,27.81256,0
85.38829,27.81244,0
85.38816,27.81242,0
85.38808,27.81232,0
85.38799,27.81228,0
85.38795,27.8123,0
85.38761,27.81207,0
85.38752,27.81207,0
85.38742,27.81195,0
85.38716,27.81205,0
85.38701,27.81223,0
85.38702,27.81231,0
85.38692,27.81237,0
85.38687,27.81233,0
85.38678,27.81232,0
85.38681,27.8124,0
85.38677,27.8124,0
85.38673,27.81229,0
85.38651,27.81237,0
85.38629,27.81267,0
85.38618,27.81267,0
85.38611,27.8126,0
85.38585,27.81247,0
85.38581,27.81236,0
85.38585,27.81233,0
85.38574,27.81226,0
85.38569,27.81224,0
85.38566,27.81218,0
85.38569,27.81213,0
85.38565,27.81207,0
85.38554,27.81207,0
85.3855,27.81213,0
85.38527,27.81217,0
85.38512,27.81224,0
85.38487,27.81222,0
85.38465,27.81226,0
85.3846167947591,27.8122588549917,0
85.38465,27.81226,0
85.38487,27.81222,0
85.38512,27.81224,0
85.38527,27.81217,0
85.3855,27.81213,0
85.38554,27.81207,0
85.38565,27.81207,0
85.38569,27.81213,0
85.38566,27.81218,0
85.38569,27.81224,0
85.38574,27.81226,0
85.38585,27.81233,0
85.38581,27.81236,0
85.38585,27.81247,0
85.38611,27.8126,0
85.38618,27.81267,0
85.38629,27.81267,0
85.38651,27.81237,0
85.38673,27.81229,0
85.38677,27.8124,0
85.38681,27.8124,0
85.38678,27.81232,0
85.38687,27.81233,0
85.38692,27.81237,0
85.38702,27.81231,0
85.38701,27.81223,0
85.38716,27.81205,0
85.38742,27.81195,0
85.38752,27.81207,0
85.38761,27.81207,0
85.38795,27.8123,0
85.38799,27.81228,0
85.38808,27.81232,0
85.38816,27.81242,0
85.38829,27.81244,0
85.38837,27.81256,0
85.38856,27.81256,0
85.38864,27.81248,0
85.38875,27.81269,0
85.38886,27.81265,0
85.38906,27.81276,0
85.38932,27.81278,0
85.38941,27.81275,0
85.38947,27.81268,0
85.38941,27.81256,0
85.38954,27.81254,0
85.38961,27.81246,0
85.38968,27.81248,0
85.3898,27.81241,0
85.38981,27.81235,0
85.38972,27.8123,0
85.38971,27.81226,0
85.38976,27.81221,0
85.38976,27.81212,0
85.38984,27.81209,0
85.38987,27.81214,0
85.39004,27.81213,0
85.3901,27.81219,0
85.39015,27.81216,0
85.39017,27.81212,0
85.39024,27.81213,0
85.39038,27.81206,0
85.39044,27.81207,0
85.3905,27.81205,0
85.3905,27.81199,0
85.39054,27.81197,0
85.39054,27.81192,0
85.39072,27.81186,0
85.39077,27.81181,0
85.39072,27.8118,0
85.39077,27.81176,0
85.3908,27.81181,0
85.39081,27.81169,0
85.39103,27.81175,0
85.39099,27.81203,0
85.39075,27.81239,0
85.39074,27.81264,0
85.39087,27.81276,0
85.39134,27.81303,0
85.39166,27.81313,0
85.39174,27.81332,0
85.39183,27.81376,0
85.39192,27.814,0
85.392,27.81406,0
85.39242,27.81421,0
85.39263,27.8145,0
85.39296,27.8147,0
85.39304,27.8148,0
85.39315,27.81523,0
85.39342,27.81553,0
85.39357,27.8156,0
85.39372,27.81556,0
85.39412,27.81532,0
85.39467,27.81509,0
85.39517,27.81511,0
85.39548,27.81504,0
85.39569,27.8149,0
85.39581,27.81456,0
85.39596,27.81439,0
85.39619,27.81427,0
85.39632,27.81424,0
85.39667,27.81418,0
85.39702,27.81407,0
85.39731,27.81403,0
85.39776,27.81401,0
85.39833,27.81406,0
85.39893,27.81406,0
85.39946,27.81396,0
85.39983,27.81395,0
85.40031,27.81385,0
85.40072,27.81367,0
85.40102,27.8135,0
85.40126,27.81344,0
85.40164,27.81324,0
85.40216,27.81305,0
85.40259,27.81284,0
85.40298,27.81269,0
85.40369,27.81232,0
85.40389,27.81212,0
85.40419,27.81168,0
85.40452,27.8115,0
85.40466,27.81148,0
85.40476,27.8115,0
85.40539,27.81176,0
85.4059,27.81182,0
85.40628,27.81197,0
85.40637,27.81199,0
85.40662,27.8119,0
85.40708,27.81164,0
85.40718,27.81163,0
85.4073,27.81166,0
85.40751,27.8118,0
85.40759,27.81182,0
85.40769,27.8118,0
85.40771,27.81177,0
85.40781,27.81145,0
85.40795,27.81127,0
85.40909,27.8107,0
85.40928,27.81063,0
85.40967,27.81059,0
85.41,27.81044,0
85.41042,27.81021,0
85.41056,27.81017,0
85.41135,27.81011,0
85.41179,27.81011,0
85.41236,27.80996,0
85.41269,27.80994,0
85.41314,27.80977,0
85.41341,27.80973,0
85.414,27.80981,0
85.4145,27.80965,0
85.41491,27.80969,0
85.41521,27.80959,0
85.41542,27.80957,0
85.41594,27.80938,0
85.4163,27.80939,0
85.4166,27.80932,0
85.4169,27.80931,0
85.41741,27.8094,0
85.41775,27.80956,0
85.41829,27.80958,0
85.41906,27.8094,0
85.41925,27.80931,0
85.41953,27.80902,0
85.41978,27.80889,0
85.41994,27.80886,0
85.42015,27.80894,0
85.42043,27.80934,0
85.42099,27.80959,0
85.42116,27.80956,0
85.4213,27.80966,0
85.42179,27.80958,0
85.42219,27.80962,0
85.42276,27.8099,0
85.42412,27.81077,0
85.42463,27.81085,0
85.42543,27.81068,0
85.4259,27.81072,0
85.4265,27.81087,0
85.42754,27.81118,0
85.42869,27.81127,0
85.42969,27.8112,0
85.43122,27.81108,0
85.43245,27.81088,0
85.43301,27.81106,0
85.43335,27.811,0
85.43391,27.81113,0
85.43458,27.81124,0
85.43518,27.81094,0
85.43571,27.81082,0
85.43624,27.811,0
85.43641,27.81117,0
85.43702,27.81128,0
85.43719,27.81129,0
85.4371851691504,27.8112924729412,0
85.43732,27.81152,0
85.43733,27.81171,0
85.43746,27.81213,0
85.4376,27.81232,0
85.43766,27.81253,0
85.43788,27.81274,0
85.43843,27.81281,0
85.43907,27.8134,0
85.44008,27.81335,0
85.44109,27.81315,0
85.44177,27.81319,0
85.44217,27.81342,0
85.44243,27.81344,0
85.44276,27.81332,0
85.44299,27.81331,0
85.44326,27.8134,0
85.44349,27.81353,0
85.44377,27.81377,0
85.44422,27.81394,0
85.44474,27.81391,0
85.44549,27.81413,0
85.44592,27.81421,0
85.44634,27.81476,0
85.44659,27.81498,0
85.44683,27.81512,0
85.4469,27.81528,0
85.44722,27.81559,0
85.44737,27.81578,0
85.4475,27.81622,0
85.44736,27.81692,0
85.44741,27.81711,0
85.44753,27.81728,0
85.44758,27.8176,0
85.44771,27.81792,0
85.44764,27.81804,0
85.44771,27.81814,0
85.44767,27.8182,0
85.44771,27.81849,0
85.44765,27.81863,0
85.44768,27.81882,0
85.447584268597,27.8189426558602,0
85.44758,27.81894,0
85.44758,27.81939,0
85.44752,27.81953,0
85.44755,27.81964,0
85.44757,27.81994,0
85.4479,27.82005,0
85.44759,27.82028,0
85.4475,27.82049,0
85.44778,27.82085,0
85.44802,27.82092,0
85.44817,27.82101,0
85.4481,27.82118,0
85.44804,27.82163,0
85.44792,27.82184,0
85.4479046383585,27.8218912054715,0
85.44786,27.82204,0
85.44795,27.82219,0
85.44791,27.82238,0
85.44794,27.82244,0
85.44814,27.82255,0
85.44819,27.82281,0
85.44828,27.82287,0
85.44838,27.823,0
85.44844,27.82297,0
85.44875,27.82294,0
85.44904,27.82274,0
85.44929,27.8227,0
85.44981,27.82234,0
85.44991,27.82232,0
85.45006,27.8224,0
85.45017,27.8224,0
85.45047,27.8222,0
85.45081,27.8221,0
85.45094,27.82203,0
85.4512,27.8218,0
85.45137,27.82155,0
85.4515,27.82132,0
85.45156,27.82106,0
85.45166,27.82088,0
85.45197,27.8206,0
85.45206,27.82047,0
85.45271,27.82018,0
85.45278,27.82017,0
85.45286,27.8202,0
85.45297,27.82035,0
85.45313,27.82048,0
85.45314,27.82058,0
85.45311,27.82076,0
85.45319,27.821,0
85.45328,27.82104,0
85.45343,27.82103,0
85.45361,27.82086,0
85.45388,27.82086,0
85.45449,27.82068,0
85.45483,27.8204,0
85.45498,27.82014,0
85.45514,27.81995,0
85.45534,27.81984,0
85.45545,27.81971,0
85.45573,27.81964,0
85.45627,27.81945,0
85.45648,27.81928,0
85.4565,27.81922,0
85.45649,27.81913,0
85.45629,27.81897,0
85.45616,27.8188,0
85.45606,27.81879,0
85.45591,27.81875,0
85.45562,27.8186,0
85.45559,27.81844,0
85.45584,27.81781,0
85.4558,27.81764,0
85.45585,27.8175,0
85.45601,27.81737,0
85.45604,27.81716,0
85.45611,27.81703,0
85.45642,27.81684,0
85.45647,27.81664,0
85.45658,27.81642,0
85.45656,27.81617,0
85.45663,27.81598,0
85.45647,27.81563,0
85.45642,27.81536,0
85.45627,27.81527,0
85.45592,27.81534,0
85.45574,27.8152,0
85.45559,27.81516,0
85.45549,27.81518,0
85.45537,27.81527,0
85.45526,27.81528,0
85.45523,27.81519,0
85.45537,27.81497,0
85.45542,27.81482,0
85.45571,27.81459,0
85.45574,27.8144,0
85.4558,27.81434,0
85.45616,27.81434,0
85.45635,27.81428,0
85.4566,27.81431,0
85.45705,27.81417,0
85.45753,27.81392,0
85.45763,27.81361,0
85.45774,27.81352,0
85.45792,27.81317,0
85.45828,27.81281,0
85.4585,27.8127,0
85.45858,27.81244,0
85.45866,27.81234,0
85.4587562759198,27.8116586627216,0
</coordinates>
</LineString>
</Placemark>
<Placemark>
<name>ssddj</name>
<description><![CDATA[Statistics computed from imported data<br><br>Distance: 12.6 miles]]></description>
<styleUrl>#line-0288D1-5000</styleUrl>
<LineString>
<tessellate>1</tessellate>
<coordinates>
85.4205894470215,27.7589013312764,0
85.4206857132638,27.7589177190388,0
85.42067,27.75899,0
85.42067,27.75907,0
85.42118,27.76026,0
85.42121,27.76045,0
85.42122,27.76083,0
85.42124,27.76096,0
85.42151,27.76133,0
85.4216037663635,27.7614635728386,0
85.42257,27.76284,0
85.42286,27.76332,0
85.42314,27.76385,0
85.42344,27.76454,0
85.42361,27.76501,0
85.42376,27.76509,0
85.42387,27.7657,0
85.42385,27.76587,0
85.42392,27.76663,0
85.42378,27.76702,0
85.42376,27.76736,0
85.42377,27.76769,0
85.4238,27.76787,0
85.42416,27.76828,0
85.42395,27.76839,0
85.42368,27.76841,0
85.42376,27.76852,0
85.42369,27.76858,0
85.42376,27.76871,0
85.42402,27.76877,0
85.42406,27.76906,0
85.42424,27.76912,0
85.4244,27.76908,0
85.42484,27.76949,0
85.42493,27.76968,0
85.42516,27.76988,0
85.42557,27.77015,0
85.4257,27.77046,0
85.42569,27.77078,0
85.42613,27.77093,0
85.42634,27.77113,0
85.42628,27.77132,0
85.42588,27.77136,0
85.42586,27.77152,0
85.42596,27.77166,0
85.42632,27.77198,0
85.42663,27.77214,0
85.4272,27.77233,0
85.42735,27.77241,0
85.42742,27.77237,0
85.42746,27.7724,0
85.42766,27.77236,0
85.42784,27.7722,0
85.42804,27.77224,0
85.42816,27.77222,0
85.42827,27.77236,0
85.42828,27.77242,0
85.42871,27.7727,0
85.42901,27.77288,0
85.42939,27.77285,0
85.42969,27.77302,0
85.4297318458842,27.7730367383537,0
85.43009,27.77318,0
85.4301003903013,27.773237146657,0
85.430104049927,27.77325727461,0
85.43009,27.77318,0
85.4297318458842,27.7730367383537,0
85.42973,27.77304,0
85.43011,27.77301,0
85.43031,27.77307,0
85.4305,27.77302,0
85.43069,27.77305,0
85.43091,27.77294,0
85.43098,27.77295,0
85.43112,27.77304,0
85.43141,27.77332,0
85.4315,27.77335,0
85.43161,27.77327,0
85.43171,27.7729,0
85.43184,27.77271,0
85.43207,27.77256,0
85.43231,27.77246,0
85.43261,27.77238,0
85.43276,27.77207,0
85.43296,27.77197,0
85.4332,27.77196,0
85.43348,27.77199,0
85.4338341719994,27.772169219566,0
85.4338634402012,27.7721840299813,0
85.43431,27.77241,0
85.4345,27.77231,0
85.43448,27.77202,0
85.43436,27.77177,0
85.43418,27.7716,0
85.434,27.77116,0
85.43376,27.77119,0
85.43331,27.77088,0
85.43296,27.77076,0
85.43255,27.77085,0
85.43242,27.77073,0
85.43243,27.77046,0
85.43185,27.77046,0
85.43163,27.77034,0
85.43169,27.77024,0
85.43215,27.76983,0
85.43226,27.7697,0
85.43193,27.76947,0
85.43178,27.76941,0
85.4317,27.76932,0
85.43186,27.76915,0
85.43236,27.76912,0
85.43273,27.76902,0
85.43313,27.769,0
85.43332,27.76907,0
85.43345,27.76915,0
85.4336,27.76939,0
85.43391,27.7694,0
85.43411,27.76959,0
85.43432,27.76962,0
85.43452,27.7695,0
85.43485,27.76923,0
85.43539,27.76918,0
85.43558,27.76908,0
85.43575,27.76911,0
85.43604,27.76935,0
85.43648,27.7696,0
85.4369,27.7697,0
85.43742,27.76972,0
85.43757,27.76966,0
85.43758,27.76955,0
85.43746,27.76939,0
85.43735,27.76932,0
85.4374,27.76921,0
85.43754,27.76926,0
85.43779,27.76938,0
85.43816,27.76971,0
85.43811,27.76986,0
85.43794,27.77004,0
85.43773,27.77016,0
85.43778,27.7704,0
85.43805,27.7706,0
85.43806,27.77088,0
85.43825,27.7711,0
85.43811,27.77116,0
85.43801,27.77126,0
85.43805,27.77146,0
85.43816,27.77163,0
85.43835,27.77172,0
85.43859,27.77169,0
85.43872,27.77149,0
85.43877,27.77116,0
85.43871,27.77096,0
85.43847,27.77074,0
85.43828,27.77045,0
85.43828,27.77037,0
85.43852,27.7701,0
85.43886,27.76986,0
85.43891,27.76976,0
85.43901,27.76973,0
85.43915,27.76976,0
85.43942,27.76968,0
85.43961,27.76955,0
85.43979,27.76952,0
85.43994,27.7696,0
85.44015,27.76963,0
85.44046,27.76959,0
85.44127,27.76918,0
85.44147,27.76912,0
85.44155,27.76906,0
85.44186,27.76906,0
85.44212,27.76902,0
85.44235,27.76901,0
85.44254,27.76895,0
85.44286,27.7686,0
85.44324,27.76865,0
85.44345,27.76871,0
85.44369,27.76912,0
85.4437,27.76936,0
85.44393,27.76962,0
85.44439,27.76994,0
85.44457,27.77,0
85.44465,27.77006,0
85.44478,27.77009,0
85.44492,27.77006,0
85.44517,27.76987,0
85.4453,27.76986,0
85.4456,27.7699,0
85.44574,27.76986,0
85.44601,27.76964,0
85.44612,27.76958,0
85.44624,27.76956,0
85.44636,27.76958,0
85.44656,27.76967,0
85.44664,27.76961,0
85.4467,27.76942,0
85.44655,27.76931,0
85.44648,27.76922,0
85.44646,27.76911,0
85.44628,27.76897,0
85.44624,27.7689,0
85.44626,27.76878,0
85.44634,27.76872,0
85.44644,27.76871,0
85.44661,27.76878,0
85.44677,27.76895,0
85.44704,27.76909,0
85.44711,27.76902,0
85.44719,27.76887,0
85.44727,27.76884,0
85.4474,27.76887,0
85.44765,27.76912,0
85.4477,27.76913,0
85.44776,27.76909,0
85.44782,27.76881,0
85.44785,27.76876,0
85.4479,27.76876,0
85.44806,27.76884,0
85.44815,27.76878,0
85.44853,27.76902,0
85.44861,27.7691,0
85.4487,27.76915,0
85.44883,27.76914,0
85.449,27.76925,0
85.44906,27.76919,0
85.44914,27.76916,0
85.4493,27.7692,0
85.44939,27.76928,0
85.44945,27.76938,0
85.44953,27.7696,0
85.44962,27.7697,0
85.44971,27.77001,0
85.44975,27.77005,0
85.44983,27.77001,0
85.44989,27.76991,0
85.44994,27.76981,0
85.44994,27.76954,0
85.45003,27.76947,0
85.45044,27.76955,0
85.45059,27.76965,0
85.4507,27.76968,0
85.45076,27.76963,0
85.45081,27.76957,0
85.45082,27.76949,0
85.45061,27.7692,0
85.45061,27.76912,0
85.45074,27.76903,0
85.45099,27.76896,0
85.45117,27.76897,0
85.45156,27.76937,0
85.45163,27.76936,0
85.45166,27.76932,0
85.45171,27.76926,0
85.45177,27.76908,0
85.45182,27.76904,0
85.45189,27.76905,0
85.4521,27.76918,0
85.45229,27.7692,0
85.45243,27.76927,0
85.45264,27.76958,0
85.45272,27.76986,0
85.4528,27.76989,0
85.45317,27.76991,0
85.45327,27.76999,0
85.45328,27.77005,0
85.45323,27.77033,0
85.45351,27.77033,0
85.45355,27.77036,0
85.45357,27.77044,0
85.45356,27.77071,0
85.45359,27.77073,0
85.45364,27.77072,0
85.45381,27.77051,0
85.45421,27.77029,0
85.45441,27.77023,0
85.4546,27.77029,0
85.4547,27.77035,0
85.45488,27.77052,0
85.45506,27.77065,0
85.45545,27.77068,0
85.45584,27.77079,0
85.4564,27.77109,0
85.4566,27.77103,0
85.45678,27.77093,0
85.45721,27.77062,0
85.45739,27.77058,0
85.45757,27.7706,0
85.45764,27.77064,0
85.4578,27.77097,0
85.45799,27.77119,0
85.4581,27.7714,0
85.45816,27.77148,0
85.45821,27.77148,0
85.45826,27.77144,0
85.45825,27.77124,0
85.45829,27.77112,0
85.45846,27.77103,0
85.45892,27.77108,0
85.45935,27.77108,0
85.45938,27.77091,0
85.45926,27.77078,0
85.45917,27.7706,0
85.45914,27.77054,0
85.45917,27.77031,0
85.45899,27.77007,0
85.45901,27.76999,0
85.45908,27.76992,0
85.45949,27.76987,0
85.45977,27.76997,0
85.46003,27.77027,0
85.46016,27.77034,0
85.46048,27.77044,0
85.46063,27.77053,0
85.46096,27.77088,0
85.46108,27.77091,0
85.46124,27.77091,0
85.46159,27.77067,0
85.46189,27.77073,0
85.46207,27.77054,0
85.46216,27.77054,0
85.46227,27.77059,0
85.46247,27.77084,0
85.46255,27.77083,0
85.46258,27.77076,0
85.46254,27.77042,0
85.46256,27.77034,0
85.4626,27.77032,0
85.46283,27.7704,0
85.46291,27.77036,0
85.46295,27.77022,0
85.46319,27.77009,0
85.46324,27.77,0
85.46327,27.7699,0
85.46323,27.76932,0
85.46332,27.76923,0
85.46416,27.76917,0
85.46442,27.76898,0
85.4647,27.76898,0
85.46483,27.76894,0
85.46499,27.76886,0
85.46573,27.76863,0
85.46586,27.76855,0
85.46595,27.76841,0
85.46605,27.76837,0
85.46632,27.76837,0
85.46655,27.76843,0
85.467,27.76842,0
85.46708,27.76836,0
85.4671404759367,27.7682802817198,0
85.4673,27.76807,0
85.46742,27.76801,0
85.46751,27.76801,0
85.46764,27.76808,0
85.4677,27.76815,0
85.46772,27.76822,0
85.46764,27.76859,0
85.46771,27.76882,0
85.46786,27.76895,0
85.46804,27.76899,0
85.46844,27.76884,0
85.46851,27.76886,0
85.46853,27.76894,0
85.46834,27.76927,0
85.46835,27.76934,0
85.46842,27.76939,0
85.46854,27.76938,0
85.46874,27.7692,0
85.46902,27.76905,0
85.46918,27.76884,0
85.46924,27.76882,0
85.4693,27.76883,0
85.46947,27.76893,0
85.46951,27.76898,0
85.46956,27.76925,0
85.46976,27.76942,0
85.46994,27.76947,0
85.47023,27.76945,0
85.47072,27.76929,0
85.47079,27.7693,0
85.47088,27.76937,0
85.47091,27.76943,0
85.47084,27.76965,0
85.47086,27.76977,0
85.47114,27.76989,0
85.47129,27.77,0
85.47154,27.77,0
85.47176,27.77022,0
85.47191,27.77059,0
85.47234,27.77083,0
85.47261,27.77085,0
85.47282,27.77083,0
85.47298,27.77078,0
85.47332,27.7706,0
85.4735599940777,27.7707699953575,0
85.47358,27.77097,0
85.47363,27.77102,0
85.4738,27.77119,0
85.47363,27.77149,0
85.47357,27.77162,0
85.47363,27.77195,0
85.47374,27.77204,0
85.4741,27.77192,0
85.47452,27.77198,0
85.47459,27.77208,0
85.47454,27.77219,0
85.47456,27.77232,0
85.47488,27.77239,0
85.47491,27.77256,0
85.47504,27.77287,0
85.47485,27.77324,0
85.47438,27.77373,0
85.47484,27.77406,0
85.47521,27.7742,0
85.47556,27.77421,0
85.4757,27.77429,0
85.4758,27.77461,0
85.47614,27.77468,0
85.47662,27.7751,0
85.47701,27.77522,0
85.47721,27.77551,0
85.47746,27.7758,0
85.47775,27.77601,0
85.47836,27.77609,0
85.4786,27.77629,0
85.47905,27.77628,0
85.47915,27.77645,0
85.47937,27.77701,0
85.47993,27.77738,0
85.47992,27.7779,0
85.48023,27.77833,0
85.48069,27.77828,0
85.48179,27.77874,0
85.48283,27.77881,0
85.48298,27.77873,0
85.48313,27.77875,0
85.48401,27.7793,0
85.48417,27.77957,0
85.48455,27.77982,0
85.48492,27.77983,0
85.48521,27.77995,0
85.48601,27.77986,0
85.48622,27.7799,0
85.48674,27.77979,0
85.48709,27.7798,0
85.48714,27.77983,0
85.48715,27.77987,0
85.48704,27.78005,0
85.48715,27.77987,0
85.48704,27.78005,0
85.48702,27.78038,0
85.48698,27.78045,0
85.48683,27.78059,0
85.48675,27.78064,0
85.48644,27.78061,0
85.48632,27.78064,0
85.48621,27.78074,0
85.48605,27.78077,0
85.48592,27.78077,0
85.48585,27.78077,0
85.48558,27.7809,0
85.48543,27.78103,0
85.48529,27.78107,0
85.48448,27.78106,0
85.48427,27.78112,0
85.48404,27.7814,0
85.48385,27.78159,0
85.48367,27.78162,0
85.4834,27.78154,0
85.48321,27.78153,0
85.483,27.7816,0
85.48271,27.78179,0
85.48265,27.7819,0
85.48264,27.78209,0
85.48259,27.78223,0
85.48241,27.78249,0
85.48235,27.78278,0
85.48248,27.78326,0
85.48245,27.78341,0
85.4822,27.78368,0
85.48206,27.78373,0
85.48182,27.78376,0
85.48171,27.78385,0
85.48169,27.78395,0
85.48184,27.78414,0
85.48185,27.78422,0
85.48168,27.78446,0
85.48166,27.78474,0
85.48152,27.78485,0
85.48135,27.78493,0
85.48115,27.78496,0
85.48103,27.78501,0
85.48085,27.78541,0
85.48058,27.78573,0
85.4805,27.78578,0
85.48035,27.78584,0
85.48022,27.78578,0
85.48012,27.7857,0
85.4801,27.78562,0
85.47999,27.78551,0
85.4799,27.7855,0
85.47981,27.78556,0
85.47972,27.78586,0
85.47976,27.78623,0
85.47987,27.78645,0
85.47984,27.78674,0
85.47989,27.7869,0
85.48007,27.78697,0
85.4801,27.78704,0
85.48009,27.78726,0
85.48018,27.78743,0
85.48017,27.7875,0
85.47992,27.78765,0
85.47989,27.78774,0
85.47991,27.78791,0
85.47987,27.788,0
85.47975,27.78805,0
85.47961,27.78803,0
85.47948,27.78807,0
85.4794,27.78804,0
85.47938,27.7879,0
85.47929,27.78786,0
85.47881,27.7878,0
85.47874,27.78776,0
85.4787,27.78767,0
85.47877,27.78752,0
85.47879,27.78737,0
85.47848,27.78695,0
85.47853,27.78674,0
85.47853,27.78663,0
85.47844,27.78659,0
85.4783,27.78665,0
85.47814,27.78684,0
85.47816,27.78705,0
85.47783,27.78756,0
85.47782,27.78768,0
85.47796,27.78785,0
85.47797,27.78791,0
85.47779,27.78828,0
85.47778,27.78842,0
85.47792,27.78853,0
85.47805,27.78874,0
85.47811,27.78895,0
85.47822,27.78913,0
85.47829,27.78944,0
85.4784,27.78958,0
85.47843,27.78966,0
85.47838,27.78974,0
85.47826,27.78976,0
85.47815,27.78969,0
85.47795,27.78945,0
85.47771,27.78929,0
85.47756,27.78926,0
85.47752,27.78935,0
85.47765,27.78968,0
85.47767,27.78997,0
85.4776,27.79016,0
85.47748,27.79028,0
85.4774,27.79035,0
85.47725,27.79038,0
85.47714,27.79029,0
85.47697,27.79002,0
85.47683,27.78996,0
85.47667,27.78973,0
85.47646,27.78978,0
85.47633,27.78989,0
85.47627,27.79001,0
85.47626,27.79019,0
85.4764,27.79073,0
85.4764,27.79085,0
85.47629,27.79098,0
85.47607,27.79114,0
85.47605,27.79123,0
85.47596,27.79137,0
85.47594,27.79149,0
85.47588,27.79155,0
85.47563,27.79157,0
85.47554,27.79164,0
85.47542,27.79184,0
85.47534,27.79193,0
85.47524,27.79192,0
85.47514,27.79186,0
85.47505,27.79173,0
85.47507,27.79165,0
85.4752,27.79159,0
85.47538,27.79133,0
85.47553,27.79124,0
85.47557,27.79116,0
85.4755,27.7911,0
85.4752,27.79118,0
85.47495,27.79116,0
85.47486,27.79108,0
85.47492,27.79078,0
85.47525,27.79063,0
85.47531,27.79049,0
85.47528,27.79037,0
85.47515,27.79034,0
85.47499,27.79039,0
85.47481,27.7904,0
85.47468,27.79033,0
85.47467,27.79011,0
85.47451,27.78998,0
85.47453,27.78981,0
85.47443,27.78962,0
85.47439,27.7896,0
85.47432,27.78959,0
85.47426,27.78962,0
85.47415,27.79017,0
85.4743,27.79049,0
85.47428,27.79057,0
85.47396,27.79079,0
85.47363,27.79095,0
85.47355,27.79102,0
85.47344,27.79125,0
85.47303,27.79166,0
85.473,27.79176,0
85.47312,27.79203,0
85.47327,27.79279,0
85.47333,27.79292,0
85.47338,27.79297,0
85.47346,27.79298,0
85.47363,27.79292,0
85.47368,27.79293,0
85.47371,27.79297,0
85.47369,27.79301,0
85.47363,27.79306,0
85.47359,27.79309,0
85.47337,27.79319,0
85.47322,27.79319,0
85.47313,27.79295,0
85.47305,27.79296,0
85.47296,27.79316,0
85.47294,27.79344,0
85.47288,27.79355,0
85.47264,27.79374,0
85.47211,27.79439,0
85.47195,27.79456,0
85.47175,27.7946,0
85.47157,27.79481,0
85.47114,27.79502,0
85.47097,27.79508,0
85.47083,27.79503,0
85.47062,27.79489,0
85.47051,27.79487,0
85.47033,27.79489,0
85.47019,27.79485,0
85.47007,27.79477,0
85.4698,27.79439,0
85.46974,27.79437,0
85.46967,27.7944,0
85.46964,27.79449,0
85.46966,27.79465,0
85.46976,27.79486,0
85.4699,27.795,0
85.47035,27.79528,0
85.4706,27.79548,0
85.47064,27.79559,0
85.47062,27.79568,0
85.46976,27.79621,0
85.46956,27.79622,0
85.46942,27.79627,0
85.46925,27.79649,0
85.46909,27.79658,0
85.46893,27.7966,0
85.46863,27.79654,0
85.46855,27.79657,0
85.46824,27.79684,0
85.46807,27.79717,0
85.46801,27.79724,0
85.46791,27.79727,0
85.46783,27.79726,0
85.46749,27.79711,0
85.46729,27.79713,0
85.46703,27.79699,0
85.46684,27.79697,0
85.46668,27.79705,0
85.4666,27.79714,0
85.4666,27.79725,0
85.46676,27.7974,0
85.4668,27.79749,0
85.4668,27.79772,0
85.46692,27.79787,0
85.46691,27.79799,0
85.4668,27.79805,0
85.46674,27.79805,0
85.46656,27.79796,0
85.46646,27.79796,0
85.4664,27.79801,0
85.46634,27.79824,0
85.46637,27.79834,0
85.46649,27.7984,0
85.46682,27.79878,0
85.46712,27.79896,0
85.4672,27.79904,0
85.4672,27.79915,0
85.46735,27.79967,0
85.46725,27.79974,0
85.46715,27.79989,0
85.46714,27.80018,0
85.46711,27.80021,0
85.467,27.80034,0
85.46708,27.80037,0
85.46726,27.80021,0
85.46747,27.79992,0
85.46753,27.79993,0
85.46752,27.80012,0
85.46755,27.80021,0
85.4675,27.80038,0
85.46739,27.80052,0
85.46722,27.80097,0
85.46696,27.80146,0
85.46698,27.80159,0
85.46716,27.80165,0
85.46722,27.80176,0
85.46713,27.80194,0
85.46717,27.80258,0
85.46723,27.8027,0
85.46735,27.80284,0
85.46743,27.80303,0
85.46751,27.80306,0
85.46763,27.80318,0
85.4678,27.80356,0
85.46794,27.80375,0
85.46805,27.80399,0
85.46847,27.80458,0
85.46862,27.80464,0
85.4688,27.80458,0
85.46894,27.80458,0
85.46959,27.80475,0
85.46955,27.80499,0
85.47011,27.80541,0
85.47007,27.80549,0
85.46993,27.80559,0
85.4699316596067,27.8055888167919,0
85.46988,27.80547,0
85.46979,27.80537,0
85.46967,27.80529,0
85.46947,27.80526,0
85.4689,27.80535,0
85.4685,27.80539,0
85.46814,27.80539,0
85.46783,27.8053,0
85.46751,27.80518,0
85.46715,27.80511,0
85.46683,27.8051,0
85.46628,27.80518,0
85.46624,27.80516,0
85.46626,27.8051,0
85.46642,27.8049,0
85.46651,27.80466,0
85.46649,27.80456,0
85.46636,27.80438,0
85.46632,27.80437,0
85.4663,27.80443,0
85.46634,27.80451,0
85.46632,27.80457,0
85.46615,27.80471,0
85.46598,27.8047,0
85.46547,27.80514,0
85.46521,27.80554,0
85.4647,27.80605,0
85.46435,27.80599,0
85.46416,27.80588,0
85.46407,27.80594,0
85.46412,27.806,0
85.46414,27.80617,0
85.46404,27.80628,0
85.46388,27.80629,0
85.4637,27.80632,0
85.46351,27.80634,0
85.4633,27.80646,0
85.4632,27.80658,0
85.46306,27.80714,0
85.46281,27.80729,0
85.4628,27.80749,0
85.46273,27.80763,0
85.46259,27.80775,0
85.46237,27.80854,0
85.46252,27.80867,0
85.46277,27.80915,0
85.46277,27.80925,0
85.46271,27.80933,0
85.46255,27.80937,0
85.46152,27.81023,0
85.4615,27.81037,0
85.46162,27.81058,0
85.46145,27.81077,0
85.46133,27.81073,0
85.46122,27.81084,0
85.4609,27.81093,0
85.46082,27.8109,0
85.46065,27.81075,0
85.46045,27.81072,0
85.46027,27.81074,0
85.459736608012,27.8109276749587,0
85.4597344220382,27.810928444099,0
85.4597322448938,27.8109292101306,0
</coordinates>
</LineString>
</Placemark>
<Placemark>
<name>ssdd</name>
<description><![CDATA[Statistics computed from imported data<br><br>Distance: 6.9 miles]]></description>
<styleUrl>#line-0288D1-5000</styleUrl>
<LineString>
<tessellate>1</tessellate>
<coordinates>
85.4206324,27.7587166,0
85.42072,27.7587166,0
85.42072,27.75876,0
85.42067,27.75899,0
85.42067,27.75907,0
85.42118,27.76026,0
85.42121,27.76045,0
85.42122,27.76083,0
85.42124,27.76096,0
85.42151,27.76133,0
85.4216038,27.7614636,0
85.42257,27.76284,0
85.42286,27.76332,0
85.42314,27.76385,0
85.42344,27.76454,0
85.42361,27.76501,0
85.42376,27.76509,0
85.42387,27.7657,0
85.42385,27.76587,0
85.42392,27.76663,0
85.42378,27.76702,0
85.42376,27.76736,0
85.42377,27.76769,0
85.4238,27.76787,0
85.42416,27.76828,0
85.42395,27.76839,0
85.42368,27.76841,0
85.42376,27.76852,0
85.42369,27.76858,0
85.42376,27.76871,0
85.42402,27.76877,0
85.42406,27.76906,0
85.42424,27.76912,0
85.4244,27.76908,0
85.42484,27.76949,0
85.42493,27.76968,0
85.42516,27.76988,0
85.42557,27.77015,0
85.4257,27.77046,0
85.42569,27.77078,0
85.42613,27.77093,0
85.42634,27.77113,0
85.42628,27.77132,0
85.42588,27.77136,0
85.42586,27.77152,0
85.42596,27.77166,0
85.42632,27.77198,0
85.42663,27.77214,0
85.4272,27.77233,0
85.42706,27.77252,0
85.427195,27.772574,0
85.4271957,27.7725743,0
85.42736,27.77264,0
85.42767,27.77256,0
85.42793,27.77238,0
85.42813,27.77233,0
85.42827,27.77236,0
85.42828,27.77242,0
85.42871,27.7727,0
85.42901,27.77288,0
85.42939,27.77285,0
85.42969,27.77302,0
85.4297318,27.7730367,0
85.43009,27.77318,0
85.43011,27.77329,0
85.43032,27.77353,0
85.43053,27.77361,0
85.43048,27.77382,0
85.43067,27.77412,0
85.43064,27.77423,0
85.43082,27.77441,0
85.43089,27.77464,0
85.43105,27.77477,0
85.43127,27.77511,0
85.43123,27.77523,0
85.43148,27.77532,0
85.43166,27.77534,0
85.43188,27.77553,0
85.4320393,27.7755403,0
85.43219,27.77555,0
85.43247,27.77566,0
85.4328,27.77559,0
85.43303,27.77572,0
85.43325,27.77574,0
85.43342,27.77584,0
85.43353,27.77602,0
85.43347,27.77614,0
85.43348,27.77625,0
85.4336178,27.7763342,0
85.43366,27.77636,0
85.43363,27.77657,0
85.43371,27.77683,0
85.43371,27.77695,0
85.43392,27.77704,0
85.43425,27.77713,0
85.43429,27.77717,0
85.43426,27.77727,0
85.43552,27.77735,0
85.43566,27.77738,0
85.43582,27.77755,0
85.43583,27.77775,0
85.43614,27.77778,0
85.43633,27.77772,0
85.4368,27.7777,0
85.437,27.77781,0
85.43717,27.77803,0
85.43723,27.77822,0
85.43781,27.77918,0
85.43839,27.77937,0
85.43884,27.7794,0
85.43888,27.77946,0
85.43889,27.77961,0
85.43898,27.77977,0
85.43897,27.77981,0
85.43864,27.78004,0
85.43857,27.7802,0
85.43866,27.78036,0
85.43895,27.78035,0
85.4392,27.78038,0
85.43945,27.78054,0
85.43967,27.78059,0
85.4398407,27.7807513,0
85.4398639,27.7807623,0
85.43991,27.78077,0
85.43994,27.78077,0
85.4404,27.78062,0
85.44074,27.78062,0
85.44089,27.78077,0
85.44102,27.7809,0
85.44089,27.78127,0
85.4406,27.78164,0
85.44068,27.78168,0
85.44093,27.78159,0
85.44136,27.78149,0
85.44158,27.78152,0
85.44186,27.78146,0
85.44232,27.78166,0
85.44255,27.78196,0
85.44293,27.782,0
85.44313,27.78219,0
85.44275,27.7824,0
85.44263,27.78263,0
85.44287,27.78265,0
85.44324,27.78249,0
85.44355,27.7825,0
85.44373,27.78264,0
85.44369,27.78306,0
85.44322,27.78323,0
85.44314,27.78356,0
85.44294,27.78389,0
85.44293,27.78431,0
85.44354,27.78452,0
85.4439,27.78458,0
85.44412,27.78467,0
85.44433,27.78485,0
85.4447,27.78506,0
85.44571,27.78594,0
85.44579,27.78618,0
85.44582,27.78669,0
85.4453,27.78731,0
85.44514,27.7925096,0
85.44525,27.78821,0
85.44547,27.78836,0
85.44581,27.78832,0
85.44628,27.78816,0
85.44702,27.78843,0
85.44742,27.78862,0
85.44781,27.78914,0
85.44871,27.78994,0
85.44914,27.79015,0
85.44882,27.79075,0
85.44875,27.79135,0
85.44902,27.79158,0
85.44984,27.79145,0
85.4501,27.79129,0
85.45057,27.79132,0
85.45066,27.7915,0
85.45095,27.79166,0
85.45108,27.79186,0
85.45156,27.79187,0
85.45166,27.79185,0
85.4518,27.79181,0
85.45212,27.79215,0
85.45247,27.79218,0
85.45301,27.79238,0
85.45377,27.793,0
85.45412,27.79315,0
85.45486,27.79328,0
85.4553,27.79355,0
85.45568,27.79397,0
85.45572,27.79462,0
85.45582,27.79503,0
85.45653,27.7956,0
85.45653,27.79587,0
85.4567,27.79597,0
85.45678,27.79619,0
85.45712,27.79643,0
85.45716,27.79653,0
85.45733,27.7966,0
85.45749,27.79655,0
85.45777,27.79644,0
85.45794,27.79644,0
85.45821,27.79647,0
85.45846,27.79667,0
85.45926,27.79663,0
85.45964,27.7968,0
85.45977,27.79694,0
85.4598,27.79708,0
85.45984,27.79709,0
85.46,27.79696,0
85.46035,27.79693,0
85.4605,27.79707,0
85.4609,27.79691,0
85.46108,27.79701,0
85.4613,27.79728,0
85.46174,27.79738,0
85.46189,27.79738,0
85.46204,27.79731,0
85.46251,27.79693,0
85.46281,27.79688,0
85.46304,27.79675,0
85.46342,27.797,0
85.46368,27.79703,0
85.46378,27.79722,0
85.46386,27.79727,0
85.46454,27.79746,0
85.46479,27.79736,0
85.46491,27.79754,0
85.46521,27.79763,0
85.46527,27.79769,0
85.46531,27.79794,0
85.46544,27.79807,0
85.46555,27.79815,0
85.46577,27.79824,0
85.46584,27.79842,0
85.4658,27.79856,0
85.46581,27.79864,0
85.46586,27.79869,0
85.46607,27.79865,0
85.46623,27.79874,0
85.46648,27.79879,0
85.46681,27.79901,0
85.4672,27.79915,0
85.46735,27.79967,0
85.46725,27.79974,0
85.46715,27.79989,0
85.46714,27.80018,0
85.46711,27.80021,0
85.467,27.80034,0
85.46708,27.80037,0
85.46726,27.80021,0
85.46747,27.79992,0
85.46753,27.79993,0
85.46752,27.80012,0
85.46755,27.80021,0
85.4675,27.80038,0
85.46739,27.80052,0
85.46722,27.80097,0
85.46696,27.80146,0
85.46698,27.80159,0
85.46716,27.80165,0
85.46722,27.80176,0
85.46713,27.80194,0
85.46717,27.80258,0
85.46723,27.8027,0
85.46735,27.80284,0
85.46743,27.80303,0
85.46751,27.80306,0
85.46763,27.80318,0
85.4678,27.80356,0
85.46794,27.80375,0
85.46805,27.80399,0
85.46847,27.80458,0
85.46862,27.80464,0
85.4688,27.80458,0
85.46894,27.80458,0
85.46959,27.80475,0
85.46955,27.80499,0
85.47011,27.80541,0
85.47007,27.80549,0
85.46993,27.80559,0
85.4699317,27.8055888,0
85.46988,27.80547,0
85.46979,27.80537,0
85.46967,27.80529,0
85.46947,27.80526,0
85.4689,27.80535,0
85.4685,27.80539,0
85.46814,27.80539,0
85.46783,27.8053,0
85.46751,27.80518,0
85.46715,27.80511,0
85.46683,27.8051,0
85.46628,27.80518,0
85.46624,27.80516,0
85.46626,27.8051,0
85.46642,27.8049,0
85.46651,27.80466,0
85.46649,27.80456,0
85.46636,27.80438,0
85.46632,27.80437,0
85.4663,27.80443,0
85.46634,27.80451,0
85.46632,27.80457,0
85.46615,27.80471,0
85.46598,27.8047,0
85.46547,27.80514,0
85.46521,27.80554,0
85.4647,27.80605,0
85.46435,27.80599,0
85.46416,27.80588,0
85.46407,27.80594,0
85.46412,27.806,0
85.46414,27.80617,0
85.46404,27.80628,0
85.46388,27.80629,0
85.4637,27.80632,0
85.46351,27.80634,0
85.4633,27.80646,0
85.4632,27.80658,0
85.46306,27.80714,0
85.46281,27.80729,0
85.4628,27.80749,0
85.46273,27.80763,0
85.46259,27.80775,0
85.46237,27.80854,0
85.46252,27.80867,0
85.46277,27.80915,0
85.46277,27.80925,0
85.46271,27.80933,0
85.46255,27.80937,0
85.46152,27.81023,0
85.4615,27.81037,0
85.46162,27.81058,0
85.46145,27.81077,0
85.46133,27.81073,0
85.46122,27.81084,0
85.4609,27.81093,0
85.46082,27.8109,0
85.46065,27.81075,0
85.46045,27.81072,0
85.46027,27.81074,0
85.4599724,27.8108447,0
</coordinates>
</LineString>
</Placemark>
<Placemark>
<name>ssddj</name>
<description><![CDATA[Statistics computed from imported data<br><br>Distance: 7.4 miles]]></description>
<styleUrl>#line-0288D1-5000</styleUrl>
<LineString>
<tessellate>1</tessellate>
<coordinates>
85.4597322448938,27.8109292101306,0
85.45973,27.81093,0
85.45934,27.81122,0
85.45893,27.81122,0
85.45885,27.81127,0
85.45879,27.81142,0
85.45866,27.81234,0
85.45858,27.81244,0
85.4585,27.8127,0
85.45828,27.81281,0
85.45792,27.81317,0
85.45774,27.81352,0
85.45763,27.81361,0
85.45753,27.81392,0
85.45705,27.81417,0
85.4566,27.81431,0
85.45635,27.81428,0
85.45616,27.81434,0
85.4558,27.81434,0
85.45574,27.8144,0
85.45571,27.81459,0
85.45542,27.81482,0
85.45537,27.81497,0
85.45523,27.81519,0
85.45526,27.81528,0
85.45537,27.81527,0
85.45549,27.81518,0
85.45559,27.81516,0
85.45574,27.8152,0
85.45592,27.81534,0
85.45627,27.81527,0
85.45642,27.81536,0
85.45647,27.81563,0
85.45663,27.81598,0
85.45656,27.81617,0
85.45658,27.81642,0
85.45647,27.81664,0
85.45642,27.81684,0
85.45611,27.81703,0
85.45604,27.81716,0
85.45601,27.81737,0
85.45585,27.8175,0
85.4558,27.81764,0
85.45584,27.81781,0
85.45559,27.81844,0
85.45562,27.8186,0
85.45591,27.81875,0
85.45606,27.81879,0
85.45616,27.8188,0
85.45629,27.81897,0
85.45649,27.81913,0
85.4565,27.81922,0
85.45648,27.81928,0
85.45627,27.81945,0
85.45573,27.81964,0
85.45545,27.81971,0
85.45534,27.81984,0
85.45514,27.81995,0
85.45498,27.82014,0
85.45483,27.8204,0
85.45449,27.82068,0
85.45388,27.82086,0
85.45361,27.82086,0
85.45343,27.82103,0
85.45328,27.82104,0
85.45319,27.821,0
85.45311,27.82076,0
85.45314,27.82058,0
85.45313,27.82048,0
85.45297,27.82035,0
85.45286,27.8202,0
85.45278,27.82017,0
85.45271,27.82018,0
85.45206,27.82047,0
85.45197,27.8206,0
85.45166,27.82088,0
85.45156,27.82106,0
85.4515,27.82132,0
85.45137,27.82155,0
85.4512,27.8218,0
85.45094,27.82203,0
85.45081,27.8221,0
85.45047,27.8222,0
85.45017,27.8224,0
85.45006,27.8224,0
85.44991,27.82232,0
85.44981,27.82234,0
85.44929,27.8227,0
85.44904,27.82274,0
85.44875,27.82294,0
85.44844,27.82297,0
85.4483799999874,27.8230000000063,0
85.44828,27.82287,0
85.44819,27.82281,0
85.44814,27.82255,0
85.44794,27.82244,0
85.44791,27.82238,0
85.44795,27.82219,0
85.44786,27.82204,0
85.4479046383585,27.8218912054715,0
85.44792,27.82184,0
85.44804,27.82163,0
85.4481,27.82118,0
85.44817,27.82101,0
85.44802,27.82092,0
85.44778,27.82085,0
85.4475,27.82049,0
85.44759,27.82028,0
85.4479,27.82005,0
85.44757,27.81994,0
85.44755,27.81964,0
85.44752,27.81953,0
85.44758,27.81939,0
85.44758,27.81894,0
85.447584268597,27.8189426558602,0
85.44768,27.81882,0
85.44765,27.81863,0
85.44771,27.81849,0
85.44767,27.8182,0
85.44771,27.81814,0
85.44764,27.81804,0
85.44771,27.81792,0
85.44758,27.8176,0
85.44753,27.81728,0
85.44741,27.81711,0
85.44736,27.81692,0
85.4475,27.81622,0
85.44737,27.81578,0
85.44722,27.81559,0
85.4469,27.81528,0
85.44683,27.81512,0
85.44659,27.81498,0
85.44634,27.81476,0
85.44592,27.81421,0
85.44549,27.81413,0
85.44474,27.81391,0
85.44422,27.81394,0
85.44377,27.81377,0
85.44349,27.81353,0
85.44326,27.8134,0
85.44299,27.81331,0
85.44276,27.81332,0
85.44243,27.81344,0
85.44217,27.81342,0
85.44177,27.81319,0
85.44109,27.81315,0
85.44008,27.81335,0
85.43907,27.8134,0
85.43843,27.81281,0
85.43788,27.81274,0
85.43766,27.81253,0
85.4376,27.81232,0
85.43746,27.81213,0
85.43733,27.81171,0
85.43732,27.81152,0
85.4371851691504,27.8112924729412,0
85.43716,27.81125,0
85.43696,27.81113,0
85.43699,27.81091,0
85.43751,27.81032,0
85.43771,27.80985,0
85.43781,27.80831,0
85.43741,27.80691,0
85.43704,27.80669,0
85.43651,27.80601,0
85.43639,27.8057,0
85.43567,27.80534,0
85.43561,27.80432,0
85.43554,27.80375,0
85.43519,27.80313,0
85.43481,27.80273,0
85.43484,27.8023,0
85.43478,27.80198,0
85.43446,27.80171,0
85.43441,27.80131,0
85.43406,27.80102,0
85.43417,27.80057,0
85.43443,27.80021,0
85.43448,27.80014,0
85.43442,27.79983,0
85.4343,27.7997,0
85.43409,27.79964,0
85.43394,27.79955,0
85.43418,27.79928,0
85.43424,27.79907,0
85.43419,27.79894,0
85.43423,27.79873,0
85.43418,27.79829,0
85.43403,27.79814,0
85.43412,27.79793,0
85.43403,27.79786,0
85.43398,27.7974,0
85.43333,27.79673,0
85.43357,27.79616,0
85.43377,27.79591,0
85.43402,27.7958,0
85.43426,27.79502,0
85.43457,27.79474,0
85.43472,27.79444,0
85.43517,27.79398,0
85.43537,27.79355,0
85.43532,27.79341,0
85.43541,27.79312,0
85.43559,27.79284,0
85.43549,27.7925,0
85.43564,27.79206,0
85.43565,27.79166,0
85.43658,27.7909,0
85.43664,27.7906,0
85.43655,27.79036,0
85.43653,27.79021,0
85.4364,27.78995,0
85.43625,27.78983,0
85.43601,27.78972,0
85.43599,27.78955,0
85.4361,27.78945,0
85.43612,27.78928,0
85.4361,27.78911,0
85.43617,27.78879,0
85.4359,27.78805,0
85.43591,27.78777,0
85.43576,27.78761,0
85.43586,27.78735,0
85.43617,27.78705,0
85.4362,27.78684,0
85.43608,27.7867,0
85.43594,27.78663,0
85.43592,27.78618,0
85.43559,27.78585,0
85.43506,27.78507,0
85.43496,27.78484,0
85.43495,27.7846,0
85.43506,27.78418,0
85.43531,27.78384,0
85.43553,27.78337,0
85.43543,27.78314,0
85.43556,27.7829,0
85.4355,27.78276,0
85.43552,27.78255,0
85.43543,27.78236,0
85.43542,27.78215,0
85.43535,27.78195,0
85.43521,27.78182,0
85.43515,27.78166,0
85.43495,27.78158,0
85.43486,27.78151,0
85.43476,27.7813,0
85.43463,27.78133,0
85.43454,27.7813,0
85.43442,27.78117,0
85.43429,27.78112,0
85.43426,27.78106,0
85.4342,27.78105,0
85.43413,27.78099,0
85.43402,27.78099,0
85.43401,27.78104,0
85.43375,27.781,0
85.43344,27.78077,0
85.43339,27.78075,0
85.43343,27.78064,0
85.43342,27.7806,0
85.43337,27.78055,0
85.43328,27.78056,0
85.43272,27.78025,0
85.43251,27.78017,0
85.43228,27.7802,0
85.43211,27.7802,0
85.43207,27.78018,0
85.43203,27.78008,0
85.43199,27.77975,0
85.43206,27.7797,0
85.43208,27.77965,0
85.4320205723421,27.7795794282703,0
85.43192,27.77946,0
85.43146,27.77926,0
85.43125,27.779,0
85.43114,27.77893,0
85.43119,27.77886,0
85.43116,27.77877,0
85.43122,27.77872,0
85.43085,27.77853,0
85.43095,27.7785,0
85.43123,27.77848,0
85.43127,27.77845,0
85.43079,27.77807,0
85.4306,27.77798,0
85.43046,27.77791,0
85.43055,27.77789,0
85.43052,27.77757,0
85.43045,27.77738,0
85.43042,27.77708,0
85.43036,27.77691,0
85.43019,27.77663,0
85.4301856115787,27.7765202894669,0
85.43018,27.77638,0
85.43002,27.7763,0
85.42969,27.77611,0
85.42965,27.77608,0
85.42928,27.77585,0
85.42929,27.77537,0
85.42908,27.7752,0
85.42895,27.77491,0
85.4289,27.77467,0
85.42883,27.77459,0
85.42877,27.77458,0
85.42873,27.77447,0
85.42884,27.77422,0
85.42881,27.774,0
85.42852,27.77403,0
85.42832,27.77389,0
85.42813,27.77366,0
85.42801,27.77344,0
85.42773,27.77317,0
85.4276388910049,27.7730257440911,0
85.4276523137073,27.7730469967411,0
85.42761,27.77298,0
85.42762,27.77281,0
85.42749,27.77282,0
85.42736,27.77264,0
85.42706,27.77252,0
85.4272,27.77233,0
85.42663,27.77214,0
85.42632,27.77198,0
85.42596,27.77166,0
85.42586,27.77152,0
85.42588,27.77136,0
85.42628,27.77132,0
85.42634,27.77113,0
85.42613,27.77093,0
85.42569,27.77078,0
85.4257,27.77046,0
85.42557,27.77015,0
85.42516,27.76988,0
85.42493,27.76968,0
85.42484,27.76949,0
85.4244,27.76908,0
85.42424,27.76912,0
85.42406,27.76906,0
85.42402,27.76877,0
85.42376,27.76871,0
85.42369,27.76858,0
85.42376,27.76852,0
85.42368,27.76841,0
85.42395,27.76839,0
85.42416,27.76828,0
85.4238,27.76787,0
85.42377,27.76769,0
85.42376,27.76736,0
85.42378,27.76702,0
85.42392,27.76663,0
85.42385,27.76587,0
85.42387,27.7657,0
85.42376,27.76509,0
85.42361,27.76501,0
85.42344,27.76454,0
85.42314,27.76385,0
85.42286,27.76332,0
85.42257,27.76284,0
85.4216037663635,27.7614635728386,0
85.42151,27.76133,0
85.42124,27.76096,0
85.42122,27.76083,0
85.42121,27.76045,0
85.42118,27.76026,0
85.42067,27.75907,0
</coordinates>
</LineString>
</Placemark>
</Folder>
</Document>
</kml>
