<?xml version="1.0" encoding="UTF-8"?>
<kml xmlns="http://www.opengis.net/kml/2.2">
<Document>
<name>WNW_47.Lakhinswari waterfall</name>
<description/>
<Style id="icon-1899-DB4436-normal">
<IconStyle>
<color>ff3644db</color>
<scale>1</scale>
<Icon>
<href>https://www.gstatic.com/mapspro/images/stock/503-wht-blank_maps.png</href>
</Icon>
<hotSpot x="32" xunits="pixels" y="64" yunits="insetPixels"/>
</IconStyle>
<LabelStyle>
<scale>0</scale>
</LabelStyle>
</Style>
<Style id="icon-1899-DB4436-highlight">
<IconStyle>
<color>ff3644db</color>
<scale>1</scale>
<Icon>
<href>https://www.gstatic.com/mapspro/images/stock/503-wht-blank_maps.png</href>
</Icon>
<hotSpot x="32" xunits="pixels" y="64" yunits="insetPixels"/>
</IconStyle>
<LabelStyle>
<scale>1</scale>
</LabelStyle>
</Style>
<StyleMap id="icon-1899-DB4436">
<Pair>
<key>normal</key>
<styleUrl>#icon-1899-DB4436-normal</styleUrl>
</Pair>
<Pair>
<key>highlight</key>
<styleUrl>#icon-1899-DB4436-highlight</styleUrl>
</Pair>
</StyleMap>
<Style id="icon-1899-E65100-nodesc-normal">
<IconStyle>
<color>ff0051e6</color>
<scale>1</scale>
<Icon>
<href>https://www.gstatic.com/mapspro/images/stock/503-wht-blank_maps.png</href>
</Icon>
<hotSpot x="32" xunits="pixels" y="64" yunits="insetPixels"/>
</IconStyle>
<LabelStyle>
<scale>0</scale>
</LabelStyle>
<BalloonStyle>
<text><![CDATA[<h3>$[name]</h3>]]></text>
</BalloonStyle>
</Style>
<Style id="icon-1899-E65100-nodesc-highlight">
<IconStyle>
<color>ff0051e6</color>
<scale>1</scale>
<Icon>
<href>https://www.gstatic.com/mapspro/images/stock/503-wht-blank_maps.png</href>
</Icon>
<hotSpot x="32" xunits="pixels" y="64" yunits="insetPixels"/>
</IconStyle>
<LabelStyle>
<scale>1</scale>
</LabelStyle>
<BalloonStyle>
<text><![CDATA[<h3>$[name]</h3>]]></text>
</BalloonStyle>
</Style>
<StyleMap id="icon-1899-E65100-nodesc">
<Pair>
<key>normal</key>
<styleUrl>#icon-1899-E65100-nodesc-normal</styleUrl>
</Pair>
<Pair>
<key>highlight</key>
<styleUrl>#icon-1899-E65100-nodesc-highlight</styleUrl>
</Pair>
</StyleMap>
<Style id="line-0000FF-2000-nodesc-normal">
<LineStyle>
<color>ffff0000</color>
<width>2</width>
</LineStyle>
<BalloonStyle>
<text><![CDATA[<h3>$[name]</h3>]]></text>
</BalloonStyle>
</Style>
<Style id="line-0000FF-2000-nodesc-highlight">
<LineStyle>
<color>ffff0000</color>
<width>3</width>
</LineStyle>
<BalloonStyle>
<text><![CDATA[<h3>$[name]</h3>]]></text>
</BalloonStyle>
</Style>
<StyleMap id="line-0000FF-2000-nodesc">
<Pair>
<key>normal</key>
<styleUrl>#line-0000FF-2000-nodesc-normal</styleUrl>
</Pair>
<Pair>
<key>highlight</key>
<styleUrl>#line-0000FF-2000-nodesc-highlight</styleUrl>
</Pair>
</StyleMap>
<Style id="line-00CD00-2000-nodesc-normal">
<LineStyle>
<color>ff00cd00</color>
<width>2</width>
</LineStyle>
<BalloonStyle>
<text><![CDATA[<h3>$[name]</h3>]]></text>
</BalloonStyle>
</Style>
<Style id="line-00CD00-2000-nodesc-highlight">
<LineStyle>
<color>ff00cd00</color>
<width>3</width>
</LineStyle>
<BalloonStyle>
<text><![CDATA[<h3>$[name]</h3>]]></text>
</BalloonStyle>
</Style>
<StyleMap id="line-00CD00-2000-nodesc">
<Pair>
<key>normal</key>
<styleUrl>#line-00CD00-2000-nodesc-normal</styleUrl>
</Pair>
<Pair>
<key>highlight</key>
<styleUrl>#line-00CD00-2000-nodesc-highlight</styleUrl>
</Pair>
</StyleMap>
<Style id="line-FF0000-2000-nodesc-normal">
<LineStyle>
<color>ff0000ff</color>
<width>2</width>
</LineStyle>
<BalloonStyle>
<text><![CDATA[<h3>$[name]</h3>]]></text>
</BalloonStyle>
</Style>
<Style id="line-FF0000-2000-nodesc-highlight">
<LineStyle>
<color>ff0000ff</color>
<width>3</width>
</LineStyle>
<BalloonStyle>
<text><![CDATA[<h3>$[name]</h3>]]></text>
</BalloonStyle>
</Style>
<StyleMap id="line-FF0000-2000-nodesc">
<Pair>
<key>normal</key>
<styleUrl>#line-FF0000-2000-nodesc-normal</styleUrl>
</Pair>
<Pair>
<key>highlight</key>
<styleUrl>#line-FF0000-2000-nodesc-highlight</styleUrl>
</Pair>
</StyleMap>
<Folder>
<name>Points</name>
<Placemark>
<name>Lakhenchuli Jharna ( waterfall)</name>
<description>Lakenshwory jharana, Sikre, sivapuri-4, Nepal</description>
<styleUrl>#icon-1899-DB4436</styleUrl>
<Point>
<coordinates>
85.387824,27.83894,0
</coordinates>
</Point>
</Placemark>
<Placemark>
<name>Kathmandu 44600</name>
<description>Ranibari Ring Rd Track N, Kathmandu 44600, Nepal</description>
<styleUrl>#icon-1899-DB4436</styleUrl>
<Point>
<coordinates>
85.318504,27.735467,0
</coordinates>
</Point>
</Placemark>
</Folder>
<Folder>
<name>LineStrings</name>
<Placemark>
<name>Kathmandu 44600 to Lakhenchuli Jharna ( waterfall)</name>
<styleUrl>#line-0000FF-2000-nodesc</styleUrl>
<LineString>
<tessellate>1</tessellate>
<coordinates>
85.318414,27.735505,0
85.31851,27.73568,0
85.31859,27.73582,0
85.31865,27.73591,0
85.31869,27.73596,0
85.31873,27.73603,0
85.31881,27.73611,0
85.31896,27.73626,0
85.31903,27.73635,0
85.3191,27.73645,0
85.31914,27.73656,0
85.31918,27.73666,0
85.31924,27.73679,0
85.31928,27.73688,0
85.31933,27.73696,0
85.31936,27.737,0
85.3194,27.73708,0
85.31943,27.73714,0
85.31946,27.73729,0
85.31947,27.73738,0
85.31948,27.73748,0
85.3195,27.73765,0
85.31951,27.7377,0
85.31953,27.73773,0
85.31959,27.7378,0
85.31978,27.73799,0
85.31985,27.73807,0
85.3199,27.73813,0
85.31993,27.73818,0
85.31996,27.73823,0
85.32,27.73833,0
85.32004,27.7384,0
85.32012,27.73858,0
85.32015,27.73866,0
85.32024,27.73876,0
85.32031,27.73883,0
85.32038,27.73889,0
85.32054,27.73902,0
85.3206,27.73907,0
85.32062,27.7391,0
85.32073,27.73921,0
85.32076,27.73925,0
85.32078,27.73928,0
85.32083,27.73937,0
85.32086,27.73943,0
85.32093,27.73957,0
85.32094,27.73959,0
85.321,27.73969,0
85.32101,27.73971,0
85.32107,27.73981,0
85.32112,27.74003,0
85.32113,27.74007,0
85.32128,27.74041,0
85.3214,27.74071,0
85.32141,27.74073,0
85.32143,27.74079,0
85.32147,27.74095,0
85.32156,27.74123,0
85.32162,27.74133,0
85.32168,27.74149,0
85.32174,27.74158,0
85.32187,27.74176,0
85.32192,27.74181,0
85.32198,27.74187,0
85.32208,27.74196,0
85.32212,27.74201,0
85.32215,27.74205,0
85.32216,27.74206,0
85.32219,27.7421,0
85.32222,27.74215,0
85.32223,27.74219,0
85.32225,27.74224,0
85.32225,27.74227,0
85.32226,27.74232,0
85.32227,27.74236,0
85.32229,27.74258,0
85.32229,27.74268,0
85.3223,27.74272,0
85.32235,27.74313,0
85.32236,27.74337,0
85.32238,27.7435,0
85.32238,27.74353,0
85.32239,27.74371,0
85.3224,27.74388,0
85.3224,27.74401,0
85.32241,27.74408,0
85.32243,27.74413,0
85.32246,27.74418,0
85.32252,27.74427,0
85.32262,27.74441,0
85.3229,27.74471,0
85.32326,27.7452,0
85.32335,27.74533,0
85.32336,27.74534,0
85.32348,27.74548,0
85.32366,27.74567,0
85.32372,27.74574,0
85.32376,27.74581,0
85.32381,27.7459,0
85.32384,27.74598,0
85.32387,27.74605,0
85.32395,27.74628,0
85.32397,27.74637,0
85.3241,27.74663,0
85.32419,27.74681,0
85.32422,27.74686,0
85.32431,27.74709,0
85.32438,27.74726,0
85.32441,27.74731,0
85.32446,27.74738,0
85.32455,27.74751,0
85.32461,27.74763,0
85.32471,27.74805,0
85.32472,27.74824,0
85.32472,27.74825,0
85.32473,27.74853,0
85.32474,27.74865,0
85.32474,27.74866,0
85.32475,27.74868,0
85.32478,27.74882,0
85.32482,27.74893,0
85.32482,27.74894,0
85.32487,27.74905,0
85.32489,27.74909,0
85.32492,27.74915,0
85.32497,27.74924,0
85.32509,27.74942,0
85.32513,27.74948,0
85.32517,27.74955,0
85.32522,27.74963,0
85.32525,27.74969,0
85.32526,27.74974,0
85.32527,27.74977,0
85.32528,27.74986,0
85.32529,27.74998,0
85.32529,27.7502,0
85.32531,27.7503,0
85.32532,27.75034,0
85.32534,27.75047,0
85.32543,27.75071,0
85.32548,27.75083,0
85.32561,27.75111,0
85.32568,27.75123,0
85.32573,27.7513,0
85.32577,27.75134,0
85.32588,27.75143,0
85.32596,27.75151,0
85.32604,27.75159,0
85.32613,27.75169,0
85.32624,27.75182,0
85.32627,27.75185,0
85.32632,27.75189,0
85.32647,27.75203,0
85.32662,27.75217,0
85.32675,27.75233,0
85.32688,27.75254,0
85.327,27.75275,0
85.32716,27.75306,0
85.32732,27.75339,0
85.32734,27.75341,0
85.32755,27.75378,0
85.32774,27.75411,0
85.32788,27.75435,0
85.32798,27.75455,0
85.32806,27.75476,0
85.32811,27.75492,0
85.3282,27.75518,0
85.3282,27.75523,0
85.3282,27.75527,0
85.32818,27.75533,0
85.32817,27.75539,0
85.32815,27.75543,0
85.32813,27.75546,0
85.32809,27.75551,0
85.32803,27.75555,0
85.32758,27.75593,0
85.3275,27.756,0
85.32741,27.75606,0
85.3273,27.75614,0
85.32727,27.75616,0
85.32721,27.75618,0
85.32716,27.7562,0
85.32702,27.75622,0
85.32683,27.75624,0
85.32671,27.75624,0
85.32664,27.75624,0
85.3265,27.75625,0
85.32646,27.75626,0
85.32644,27.75626,0
85.32641,27.75627,0
85.3264,27.75628,0
85.32638,27.7563,0
85.32637,27.75633,0
85.32636,27.75636,0
85.32637,27.7564,0
85.32637,27.75641,0
85.32639,27.75652,0
85.3264,27.75658,0
85.32642,27.75666,0
85.32643,27.75669,0
85.32644,27.7567,0
85.32645,27.75671,0
85.32646,27.75672,0
85.3265,27.75674,0
85.32652,27.75674,0
85.32655,27.75674,0
85.32657,27.75674,0
85.3266,27.75673,0
85.32665,27.75671,0
85.32669,27.7567,0
85.32673,27.75668,0
85.32677,27.75668,0
85.32681,27.75667,0
85.32686,27.75668,0
85.32691,27.75671,0
85.32695,27.75675,0
85.32699,27.75681,0
85.32712,27.75699,0
85.32716,27.75704,0
85.32722,27.75712,0
85.32736,27.75733,0
85.32748,27.75754,0
85.32753,27.75764,0
85.32754,27.75768,0
85.32755,27.75772,0
85.32757,27.75777,0
85.32758,27.75781,0
85.32758,27.75787,0
85.32758,27.75793,0
85.32758,27.75801,0
85.32758,27.75805,0
85.32761,27.75823,0
85.32762,27.75827,0
85.32762,27.75833,0
85.32763,27.75837,0
85.32764,27.75842,0
85.32769,27.75853,0
85.32775,27.75864,0
85.32787,27.75879,0
85.32792,27.75887,0
85.32795,27.7589,0
85.32807,27.75901,0
85.32827,27.75918,0
85.32835,27.75924,0
85.32861,27.75943,0
85.3288,27.75957,0
85.32885,27.75961,0
85.32912,27.75991,0
85.32928,27.76013,0
85.32933,27.7602,0
85.32944,27.76037,0
85.3296,27.76062,0
85.3297,27.76077,0
85.32986,27.76103,0
85.32996,27.76119,0
85.33,27.76127,0
85.33012,27.76148,0
85.33019,27.76163,0
85.33029,27.76184,0
85.3304,27.76206,0
85.33042,27.7621,0
85.33043,27.76213,0
85.33048,27.76224,0
85.33051,27.76235,0
85.33054,27.76251,0
85.33055,27.7626,0
85.33058,27.76276,0
85.33059,27.76308,0
85.33059,27.76323,0
85.3306,27.76352,0
85.33056,27.7638,0
85.33055,27.76391,0
85.33052,27.76405,0
85.33051,27.76411,0
85.33042,27.76433,0
85.33037,27.76442,0
85.33032,27.7645,0
85.33029,27.76457,0
85.33028,27.7646,0
85.33028,27.76462,0
85.33028,27.76463,0
85.33028,27.76467,0
85.33028,27.7647,0
85.33029,27.76474,0
85.33036,27.76492,0
85.33042,27.76504,0
85.33043,27.76507,0
85.33045,27.7651,0
85.33046,27.76516,0
85.33049,27.76526,0
85.33048,27.76549,0
85.33057,27.76591,0
85.33057,27.76594,0
85.3306,27.76605,0
85.3306,27.76611,0
85.33059,27.76615,0
85.33058,27.76623,0
85.33058,27.76626,0
85.33056,27.76639,0
85.33055,27.76642,0
85.33055,27.76645,0
85.33054,27.76647,0
85.33047,27.76678,0
85.33046,27.76684,0
85.33045,27.76686,0
85.33045,27.76688,0
85.33038,27.76724,0
85.33037,27.76732,0
85.33036,27.76738,0
85.33031,27.76782,0
85.33029,27.76806,0
85.33027,27.76842,0
85.33026,27.76878,0
85.3302,27.76882,0
85.32987,27.76908,0
85.32958,27.76933,0
85.32951,27.76938,0
85.32947,27.76941,0
85.32942,27.76944,0
85.3294,27.76947,0
85.32937,27.7695,0
85.32935,27.76953,0
85.32933,27.76956,0
85.32932,27.76959,0
85.32932,27.76962,0
85.32932,27.76966,0
85.32932,27.76967,0
85.32931,27.76986,0
85.3293,27.77006,0
85.3293,27.7701,0
85.3293,27.77014,0
85.3293,27.7702,0
85.3293,27.7703,0
85.32931,27.77043,0
85.32937,27.77056,0
85.32943,27.77068,0
85.32946,27.77073,0
85.32951,27.77079,0
85.32959,27.77102,0
85.32964,27.77129,0
85.32966,27.77134,0
85.32968,27.77137,0
85.3297,27.77141,0
85.32976,27.77148,0
85.32985,27.77156,0
85.32992,27.77163,0
85.33001,27.77173,0
85.33004,27.77176,0
85.33006,27.77179,0
85.33007,27.77184,0
85.3301,27.77188,0
85.33011,27.77194,0
85.33018,27.77212,0
85.33028,27.77236,0
85.33029,27.77243,0
85.3303,27.77246,0
85.3303,27.77249,0
85.3303,27.77252,0
85.3303,27.77254,0
85.3303,27.77257,0
85.33029,27.77264,0
85.33027,27.77269,0
85.33026,27.77272,0
85.33026,27.77274,0
85.33026,27.77277,0
85.33027,27.77281,0
85.33028,27.77284,0
85.3303,27.7729,0
85.33034,27.77302,0
85.33042,27.77327,0
85.33044,27.77339,0
85.33045,27.77344,0
85.33046,27.77364,0
85.33046,27.77374,0
85.33045,27.77379,0
85.33043,27.77383,0
85.3304,27.77387,0
85.3303,27.77396,0
85.33015,27.7741,0
85.33005,27.77418,0
85.33,27.77424,0
85.32999,27.77425,0
85.32996,27.7743,0
85.32994,27.77432,0
85.32993,27.77434,0
85.32991,27.77441,0
85.32989,27.77449,0
85.32986,27.77461,0
85.3298,27.77462,0
85.32977,27.77462,0
85.32974,27.77463,0
85.32971,27.77464,0
85.32968,27.77465,0
85.32965,27.77467,0
85.32962,27.77469,0
85.32959,27.77472,0
85.32957,27.77474,0
85.32955,27.77477,0
85.32953,27.7748,0
85.32951,27.77482,0
85.32949,27.77484,0
85.32946,27.77486,0
85.32944,27.77487,0
85.32942,27.77489,0
85.32937,27.77492,0
85.32935,27.77493,0
85.32933,27.77494,0
85.32931,27.77494,0
85.32929,27.77495,0
85.32919,27.77501,0
85.32911,27.77506,0
85.32909,27.77508,0
85.32908,27.77511,0
85.32906,27.77514,0
85.32902,27.77518,0
85.32899,27.77521,0
85.32895,27.77523,0
85.32891,27.77525,0
85.32887,27.77525,0
85.32882,27.77524,0
85.32872,27.77522,0
85.32868,27.77521,0
85.32864,27.7752,0
85.32858,27.77519,0
85.32851,27.77518,0
85.3284,27.77521,0
85.32833,27.77523,0
85.32818,27.7753,0
85.32809,27.77533,0
85.32802,27.77537,0
85.32798,27.77541,0
85.32796,27.77542,0
85.32789,27.7755,0
85.32785,27.77555,0
85.32778,27.77566,0
85.32771,27.77576,0
85.32761,27.77592,0
85.32741,27.77616,0
85.32739,27.77619,0
85.32728,27.77635,0
85.32726,27.77639,0
85.32725,27.77642,0
85.32722,27.77654,0
85.32721,27.7766,0
85.32719,27.77667,0
85.32715,27.77675,0
85.32711,27.77683,0
85.32708,27.77688,0
85.32704,27.77693,0
85.32697,27.777,0
85.32677,27.77715,0
85.32674,27.77718,0
85.32666,27.77723,0
85.3266,27.77726,0
85.32648,27.77733,0
85.32637,27.77739,0
85.32633,27.77741,0
85.32615,27.7775,0
85.32612,27.77751,0
85.32593,27.77765,0
85.32588,27.77769,0
85.32582,27.77774,0
85.32575,27.77782,0
85.32565,27.77797,0
85.32564,27.77801,0
85.32563,27.77804,0
85.32563,27.77815,0
85.32567,27.7783,0
85.32568,27.7783,0
85.32572,27.77845,0
85.32573,27.77849,0
85.32573,27.77852,0
85.32573,27.77855,0
85.32573,27.77858,0
85.32572,27.77861,0
85.32572,27.77863,0
85.32571,27.77866,0
85.3257,27.77868,0
85.32566,27.77875,0
85.3256,27.77881,0
85.32553,27.77888,0
85.32551,27.7789,0
85.32549,27.77893,0
85.32548,27.77896,0
85.32546,27.77904,0
85.32539,27.77929,0
85.32534,27.77942,0
85.32526,27.77958,0
85.32523,27.77965,0
85.32519,27.77988,0
85.32517,27.78012,0
85.32517,27.78027,0
85.32517,27.78044,0
85.32516,27.78058,0
85.32516,27.78062,0
85.32515,27.78066,0
85.32515,27.78068,0
85.32515,27.78069,0
85.32513,27.78077,0
85.3251,27.78086,0
85.32506,27.78094,0
85.32499,27.78107,0
85.32492,27.7812,0
85.3249,27.78127,0
85.32489,27.7813,0
85.32488,27.78134,0
85.32487,27.78138,0
85.32486,27.78147,0
85.32486,27.7816,0
85.32489,27.78192,0
85.32491,27.78198,0
85.32492,27.78202,0
85.32497,27.78225,0
85.32501,27.78235,0
85.32509,27.78247,0
85.32519,27.78258,0
85.32525,27.78265,0
85.32529,27.7827,0
85.32531,27.78275,0
85.32548,27.78301,0
85.32555,27.78314,0
85.32556,27.78315,0
85.3256,27.78323,0
85.32562,27.78326,0
85.32563,27.78328,0
85.32565,27.7833,0
85.32577,27.78339,0
85.32594,27.78351,0
85.32596,27.78352,0
85.32606,27.7836,0
85.32617,27.7837,0
85.32633,27.78387,0
85.32645,27.78406,0
85.3265,27.78418,0
85.32653,27.78428,0
85.32654,27.78431,0
85.32655,27.78434,0
85.32655,27.78438,0
85.32655,27.78454,0
85.32655,27.78463,0
85.32655,27.78467,0
85.32656,27.7847,0
85.32656,27.78473,0
85.32657,27.78475,0
85.32658,27.78478,0
85.32659,27.78479,0
85.3266,27.78481,0
85.32663,27.78483,0
85.32667,27.78487,0
85.32688,27.78497,0
85.32712,27.78505,0
85.32721,27.78508,0
85.32732,27.78512,0
85.32738,27.78516,0
85.32744,27.78524,0
85.3275,27.7853,0
85.32753,27.78535,0
85.32767,27.78552,0
85.32771,27.78556,0
85.32776,27.7856,0
85.32781,27.78564,0
85.32787,27.78568,0
85.32788,27.78569,0
85.32792,27.78573,0
85.32797,27.78578,0
85.32805,27.78592,0
85.3281,27.78599,0
85.32822,27.78619,0
85.32832,27.78642,0
85.32837,27.78653,0
85.32843,27.78659,0
85.32845,27.78661,0
85.32853,27.78667,0
85.32854,27.78668,0
85.32869,27.78679,0
85.32883,27.78692,0
85.32887,27.78695,0
85.3289,27.78697,0
85.32895,27.787,0
85.32899,27.78702,0
85.32904,27.78703,0
85.32908,27.78703,0
85.32911,27.78703,0
85.32921,27.78701,0
85.3293,27.78699,0
85.32933,27.78698,0
85.32935,27.78697,0
85.32938,27.78697,0
85.3294,27.78697,0
85.32943,27.78696,0
85.32949,27.78697,0
85.32952,27.78697,0
85.32954,27.78698,0
85.32956,27.78698,0
85.32958,27.787,0
85.32961,27.78702,0
85.32965,27.78707,0
85.32969,27.78715,0
85.32971,27.78717,0
85.32976,27.78725,0
85.3298,27.7873,0
85.32988,27.7874,0
85.32991,27.78745,0
85.32992,27.78748,0
85.32993,27.7875,0
85.32993,27.78753,0
85.32992,27.78756,0
85.32992,27.78758,0
85.32991,27.7876,0
85.32986,27.78769,0
85.32983,27.78772,0
85.32974,27.78781,0
85.32971,27.78785,0
85.32968,27.7879,0
85.32967,27.78792,0
85.32966,27.78797,0
85.32965,27.788,0
85.32965,27.78803,0
85.32965,27.78808,0
85.32965,27.78811,0
85.32966,27.78814,0
85.3298,27.78837,0
85.32988,27.78848,0
85.32994,27.78864,0
85.32997,27.78875,0
85.32998,27.78876,0
85.33002,27.78884,0
85.33005,27.78888,0
85.33008,27.78891,0
85.3301,27.78894,0
85.33011,27.78896,0
85.33013,27.78897,0
85.33014,27.78899,0
85.33017,27.78901,0
85.33021,27.78909,0
85.33025,27.78915,0
85.33029,27.78925,0
85.33032,27.78935,0
85.33036,27.78946,0
85.33036,27.7895,0
85.33036,27.78953,0
85.33036,27.78956,0
85.33034,27.7896,0
85.33033,27.78961,0
85.33022,27.7897,0
85.33012,27.78981,0
85.33,27.78999,0
85.32997,27.79004,0
85.32996,27.79007,0
85.32995,27.79009,0
85.32994,27.79013,0
85.32994,27.79017,0
85.32994,27.7902,0
85.32995,27.79023,0
85.32996,27.79026,0
85.32998,27.79029,0
85.32999,27.79032,0
85.33001,27.79035,0
85.33002,27.79038,0
85.33003,27.7904,0
85.33004,27.79042,0
85.33005,27.79046,0
85.33006,27.79052,0
85.33006,27.79054,0
85.33007,27.79061,0
85.33006,27.79066,0
85.33005,27.7907,0
85.33004,27.79074,0
85.33004,27.79078,0
85.33005,27.79084,0
85.33006,27.79087,0
85.33007,27.79091,0
85.33009,27.79095,0
85.33014,27.79102,0
85.33022,27.79111,0
85.33028,27.79116,0
85.33034,27.79122,0
85.33046,27.79132,0
85.33048,27.79136,0
85.33049,27.79138,0
85.33049,27.79141,0
85.33049,27.79143,0
85.33049,27.79146,0
85.33048,27.79148,0
85.33047,27.79149,0
85.33045,27.79151,0
85.33041,27.79154,0
85.33036,27.79156,0
85.33034,27.79157,0
85.33031,27.79158,0
85.33029,27.79159,0
85.33026,27.79161,0
85.33024,27.79163,0
85.33023,27.79165,0
85.33021,27.79167,0
85.3302,27.79169,0
85.33019,27.79172,0
85.33019,27.79174,0
85.33018,27.79182,0
85.33012,27.79207,0
85.33006,27.79235,0
85.33005,27.79236,0
85.33004,27.79245,0
85.33004,27.79254,0
85.33003,27.79287,0
85.33,27.79313,0
85.32998,27.79331,0
85.32998,27.79339,0
85.32999,27.79355,0
85.33001,27.79367,0
85.32999,27.79379,0
85.32999,27.79382,0
85.32999,27.79384,0
85.33,27.79387,0
85.33002,27.79393,0
85.33005,27.79398,0
85.33005,27.794,0
85.33006,27.79403,0
85.33006,27.79406,0
85.33007,27.7941,0
85.33007,27.79412,0
85.33007,27.79414,0
85.33007,27.79415,0
85.33006,27.79417,0
85.33005,27.7942,0
85.33004,27.79421,0
85.33003,27.79423,0
85.33001,27.79426,0
85.32997,27.7943,0
85.32994,27.79433,0
85.32992,27.79436,0
85.3299,27.79439,0
85.32988,27.79443,0
85.32987,27.79445,0
85.32985,27.79456,0
85.32984,27.79467,0
85.32981,27.79487,0
85.32977,27.79501,0
85.3297,27.79515,0
85.32967,27.79519,0
85.32966,27.79522,0
85.32965,27.79525,0
85.32963,27.79529,0
85.32963,27.79531,0
85.32963,27.79536,0
85.32964,27.7955,0
85.32964,27.79555,0
85.32964,27.79556,0
85.32964,27.79562,0
85.32963,27.79565,0
85.32962,27.79568,0
85.32961,27.79571,0
85.3296,27.79574,0
85.32955,27.79588,0
85.32954,27.79591,0
85.32954,27.79592,0
85.32954,27.79595,0
85.32954,27.79599,0
85.32953,27.79602,0
85.32953,27.79605,0
85.32955,27.79621,0
85.32959,27.79634,0
85.3296,27.79638,0
85.32961,27.79641,0
85.32962,27.79642,0
85.32962,27.79644,0
85.32962,27.79645,0
85.32963,27.7965,0
85.32962,27.79654,0
85.3296,27.79659,0
85.32959,27.79662,0
85.32956,27.79673,0
85.32951,27.7969,0
85.3295,27.79704,0
85.3295,27.79711,0
85.32951,27.79718,0
85.32966,27.79746,0
85.3297,27.79763,0
85.32973,27.79781,0
85.32974,27.79793,0
85.32974,27.79809,0
85.32974,27.79824,0
85.32974,27.79828,0
85.32975,27.79833,0
85.32975,27.79836,0
85.32976,27.79843,0
85.32978,27.79847,0
85.32984,27.79869,0
85.32992,27.79888,0
85.32997,27.79906,0
85.32998,27.7991,0
85.32999,27.79912,0
85.33003,27.7992,0
85.33011,27.79932,0
85.33015,27.79942,0
85.33016,27.79944,0
85.33017,27.79948,0
85.33017,27.79952,0
85.33017,27.79959,0
85.33017,27.79967,0
85.33019,27.79982,0
85.33022,27.79995,0
85.33024,27.80008,0
85.33024,27.80012,0
85.33024,27.80015,0
85.33024,27.80017,0
85.33024,27.8002,0
85.33024,27.80023,0
85.33023,27.80026,0
85.3302,27.80032,0
85.33014,27.80044,0
85.33012,27.80047,0
85.3301,27.8005,0
85.33008,27.80051,0
85.33007,27.80052,0
85.32999,27.80059,0
85.32995,27.8006,0
85.32993,27.80061,0
85.32992,27.80061,0
85.3299,27.80061,0
85.32988,27.80061,0
85.32985,27.80061,0
85.3298,27.80059,0
85.32977,27.80057,0
85.32975,27.80055,0
85.32972,27.80053,0
85.32969,27.80051,0
85.32967,27.80049,0
85.32964,27.80048,0
85.32961,27.80046,0
85.32958,27.80046,0
85.32956,27.80045,0
85.32953,27.80045,0
85.32951,27.80044,0
85.3294,27.80044,0
85.3292,27.80045,0
85.32911,27.80049,0
85.32908,27.8005,0
85.32907,27.80052,0
85.32905,27.80054,0
85.32904,27.80056,0
85.32902,27.80058,0
85.32896,27.80068,0
85.32888,27.80078,0
85.32884,27.80081,0
85.3288,27.80084,0
85.32875,27.80085,0
85.32871,27.80085,0
85.32866,27.80085,0
85.3285,27.80085,0
85.32836,27.80087,0
85.32826,27.80093,0
85.32824,27.80094,0
85.32823,27.80095,0
85.32822,27.80096,0
85.3282,27.80098,0
85.32818,27.801,0
85.32816,27.80104,0
85.32814,27.80107,0
85.32812,27.8011,0
85.32811,27.80113,0
85.3281,27.80115,0
85.32809,27.80118,0
85.32803,27.80128,0
85.32794,27.80137,0
85.32792,27.80139,0
85.32788,27.80141,0
85.32785,27.80142,0
85.3278,27.80144,0
85.32776,27.80146,0
85.32768,27.80152,0
85.3276,27.80153,0
85.32757,27.80152,0
85.32754,27.80152,0
85.3275,27.80152,0
85.32746,27.80151,0
85.32743,27.80149,0
85.32741,27.80148,0
85.32738,27.80146,0
85.32733,27.80139,0
85.32729,27.80135,0
85.32705,27.80111,0
85.32699,27.80105,0
85.32695,27.80103,0
85.32691,27.80101,0
85.32686,27.801,0
85.3268,27.80099,0
85.32674,27.80099,0
85.3267,27.80099,0
85.32663,27.80099,0
85.3263,27.80099,0
85.32626,27.801,0
85.32624,27.801,0
85.32621,27.80102,0
85.32619,27.80103,0
85.32616,27.80105,0
85.32614,27.80108,0
85.32612,27.80112,0
85.3261,27.80116,0
85.32609,27.8012,0
85.32607,27.80124,0
85.32606,27.80128,0
85.32605,27.80131,0
85.32603,27.80134,0
85.32602,27.80136,0
85.32595,27.8014,0
85.32592,27.80141,0
85.32588,27.80143,0
85.32584,27.80145,0
85.32574,27.80152,0
85.32555,27.80167,0
85.32543,27.80174,0
85.32536,27.80177,0
85.32532,27.80178,0
85.32527,27.80179,0
85.32521,27.80179,0
85.32517,27.80179,0
85.32513,27.80178,0
85.32508,27.80177,0
85.325,27.80173,0
85.32496,27.8017,0
85.32493,27.8017,0
85.32489,27.80169,0
85.32487,27.80169,0
85.32483,27.8017,0
85.32481,27.8017,0
85.32466,27.8018,0
85.32449,27.80191,0
85.32442,27.80194,0
85.32438,27.80196,0
85.32433,27.80198,0
85.3243,27.80198,0
85.32426,27.80198,0
85.32425,27.80198,0
85.32423,27.80198,0
85.32422,27.80197,0
85.3242,27.80195,0
85.32418,27.80192,0
85.32417,27.8019,0
85.32413,27.80183,0
85.32412,27.80179,0
85.32411,27.80176,0
85.3241,27.80172,0
85.32409,27.8017,0
85.32407,27.80168,0
85.32405,27.80166,0
85.32397,27.80156,0
85.32391,27.80154,0
85.32388,27.80154,0
85.32384,27.80154,0
85.3238,27.80154,0
85.32376,27.80154,0
85.32372,27.80155,0
85.32368,27.80157,0
85.32364,27.80161,0
85.3236,27.80165,0
85.32342,27.80187,0
85.32338,27.80192,0
85.32331,27.80198,0
85.3233,27.802,0
85.32328,27.80201,0
85.32327,27.80201,0
85.32324,27.80201,0
85.3232,27.80201,0
85.32317,27.80201,0
85.32314,27.80199,0
85.32313,27.80199,0
85.32309,27.80196,0
85.323,27.80185,0
85.32296,27.80182,0
85.32289,27.80179,0
85.3228,27.80176,0
85.32271,27.80174,0
85.3226,27.80173,0
85.32256,27.80172,0
85.32251,27.80172,0
85.32248,27.80173,0
85.32243,27.80173,0
85.32241,27.80174,0
85.32238,27.80175,0
85.32236,27.80177,0
85.32232,27.80181,0
85.3223,27.80183,0
85.32228,27.80187,0
85.32224,27.80195,0
85.3222,27.80207,0
85.32219,27.80214,0
85.32219,27.80219,0
85.32219,27.80221,0
85.32218,27.80258,0
85.32216,27.80279,0
85.322,27.80296,0
85.32195,27.80302,0
85.32192,27.80304,0
85.32189,27.80307,0
85.32188,27.80309,0
85.32186,27.80312,0
85.32185,27.80314,0
85.32185,27.80316,0
85.32185,27.80321,0
85.32185,27.80326,0
85.32187,27.80332,0
85.32189,27.80336,0
85.32189,27.80338,0
85.32189,27.8034,0
85.32188,27.80342,0
85.32187,27.80345,0
85.32187,27.80347,0
85.32186,27.80349,0
85.32184,27.80351,0
85.32182,27.80353,0
85.32178,27.80355,0
85.32175,27.80356,0
85.32171,27.80357,0
85.32169,27.80357,0
85.32165,27.80357,0
85.32162,27.80357,0
85.32158,27.80357,0
85.32154,27.80355,0
85.32147,27.8035,0
85.32136,27.80341,0
85.32134,27.80339,0
85.32132,27.80335,0
85.32131,27.80332,0
85.3213,27.80329,0
85.32129,27.80325,0
85.32128,27.80322,0
85.32127,27.80319,0
85.32125,27.80316,0
85.32119,27.80311,0
85.32103,27.80297,0
85.32092,27.80288,0
85.3209,27.80287,0
85.32087,27.80283,0
85.32085,27.80281,0
85.32084,27.80278,0
85.32084,27.80276,0
85.32084,27.80273,0
85.32085,27.80271,0
85.32086,27.80268,0
85.32089,27.80264,0
85.32091,27.80261,0
85.32092,27.8026,0
85.32092,27.80259,0
85.32093,27.80256,0
85.32093,27.80255,0
85.32092,27.80254,0
85.32092,27.80253,0
85.32092,27.80252,0
85.32091,27.80251,0
85.3209,27.8025,0
85.32088,27.8025,0
85.32086,27.80249,0
85.32083,27.80248,0
85.32072,27.80247,0
85.32057,27.80244,0
85.32046,27.80242,0
85.32002,27.80234,0
85.31962,27.80224,0
85.31941,27.80213,0
85.31937,27.8021,0
85.31933,27.80207,0
85.31928,27.80203,0
85.31927,27.80201,0
85.31925,27.80199,0
85.31924,27.80197,0
85.31923,27.80195,0
85.31923,27.80192,0
85.31922,27.80189,0
85.31922,27.80186,0
85.31921,27.80173,0
85.31918,27.80163,0
85.31916,27.80157,0
85.31915,27.80154,0
85.31914,27.80152,0
85.31913,27.8015,0
85.31911,27.80149,0
85.31908,27.80147,0
85.31901,27.80145,0
85.31897,27.80144,0
85.31893,27.80144,0
85.31892,27.80144,0
85.31882,27.80144,0
85.31877,27.80145,0
85.3187,27.80148,0
85.31862,27.80151,0
85.318545,27.80154,0
</coordinates>
</LineString>
</Placemark>
<Placemark>
<name>Kathmandu 44600 to Lakhenchuli Jharna ( waterfall)</name>
<styleUrl>#line-FF0000-2000-nodesc</styleUrl>
<LineString>
<tessellate>1</tessellate>
<coordinates>
85.318545,27.80154,0
85.31852,27.80155,0
85.31833,27.80165,0
85.31831,27.80168,0
85.31831,27.80169,0
85.3183,27.80171,0
85.3183,27.80173,0
85.3183,27.80175,0
85.3183,27.80177,0
85.3183,27.80179,0
85.31831,27.8018,0
85.31832,27.80181,0
85.31834,27.80183,0
85.31837,27.80184,0
85.3184,27.80185,0
85.31843,27.80185,0
85.31846,27.80185,0
85.31848,27.80184,0
85.31862,27.80178,0
85.31865,27.80176,0
85.31868,27.80176,0
85.3187,27.80176,0
85.31871,27.80176,0
85.31873,27.80176,0
85.31874,27.80177,0
85.31876,27.80177,0
85.31878,27.80179,0
85.31879,27.8018,0
85.31881,27.80183,0
85.31886,27.80195,0
85.31888,27.80208,0
85.31892,27.80227,0
85.31896,27.80239,0
85.31897,27.8024,0
85.31899,27.80245,0
85.319,27.80247,0
85.31902,27.80249,0
85.31904,27.80251,0
85.31907,27.80252,0
85.31911,27.80254,0
85.31915,27.80256,0
85.31919,27.80257,0
85.31925,27.80262,0
85.31928,27.80264,0
85.3193,27.80266,0
85.31937,27.80274,0
85.31938,27.80278,0
85.31938,27.80279,0
85.31939,27.80283,0
85.31938,27.80287,0
85.31937,27.8029,0
85.31934,27.80296,0
85.3193,27.803,0
85.31919,27.80308,0
85.31915,27.80312,0
85.31912,27.80315,0
85.31908,27.80319,0
85.31907,27.80322,0
85.31903,27.8033,0
85.31903,27.80334,0
85.31903,27.80336,0
85.31903,27.80338,0
85.31905,27.80341,0
85.31907,27.80344,0
85.3191,27.80346,0
85.31913,27.80348,0
85.31916,27.8035,0
85.31925,27.80354,0
85.31928,27.80356,0
85.31932,27.80359,0
85.31935,27.80362,0
85.31937,27.80364,0
85.3194,27.80371,0
85.31943,27.8038,0
85.31945,27.80386,0
85.31946,27.8039,0
85.31946,27.80393,0
85.31946,27.80396,0
85.31945,27.80398,0
85.31943,27.80402,0
85.31941,27.80406,0
85.31939,27.80409,0
85.31934,27.80413,0
85.31932,27.80415,0
85.31928,27.80419,0
85.31925,27.80421,0
85.31923,27.80424,0
85.31921,27.80427,0
85.31919,27.80431,0
85.31918,27.80435,0
85.31917,27.80439,0
85.31916,27.80442,0
85.31914,27.80444,0
85.31912,27.80446,0
85.31911,27.80447,0
85.31908,27.80448,0
85.31904,27.80449,0
85.31901,27.80449,0
85.31898,27.80449,0
85.31895,27.80448,0
85.31892,27.80447,0
85.31889,27.80445,0
85.31887,27.80442,0
85.31883,27.80439,0
85.3188,27.80436,0
85.31876,27.80433,0
85.31872,27.80432,0
85.31869,27.80431,0
85.31865,27.80431,0
85.3186,27.80431,0
85.31857,27.80432,0
85.31854,27.80432,0
85.31852,27.80434,0
85.3185,27.80435,0
85.31848,27.80436,0
85.31846,27.80438,0
85.31845,27.80442,0
85.31844,27.80443,0
85.31843,27.8045,0
85.31843,27.8046,0
85.31843,27.80462,0
85.31841,27.80466,0
85.31839,27.80469,0
85.31836,27.80473,0
85.31835,27.80476,0
85.31833,27.8048,0
85.31833,27.80483,0
85.31832,27.80494,0
85.31829,27.80505,0
85.31828,27.80509,0
85.31827,27.80513,0
85.31826,27.80517,0
85.31826,27.80521,0
85.31826,27.80525,0
85.31826,27.80527,0
85.31831,27.80539,0
85.31835,27.80545,0
85.31839,27.80558,0
85.3184,27.80562,0
85.3184,27.80564,0
85.3184,27.80568,0
85.3184,27.80572,0
85.31838,27.80575,0
85.31836,27.80578,0
85.31834,27.8058,0
85.31831,27.80582,0
85.31818,27.80588,0
85.31814,27.80589,0
85.31811,27.8059,0
85.31806,27.8059,0
85.31802,27.8059,0
85.31797,27.80589,0
85.31792,27.80589,0
85.31786,27.80587,0
85.31779,27.80586,0
85.31772,27.80584,0
85.31766,27.80582,0
85.3176,27.80582,0
85.31754,27.80582,0
85.31753,27.80582,0
85.31752,27.80583,0
85.31749,27.80584,0
85.31747,27.80586,0
85.31746,27.80587,0
85.31745,27.80589,0
85.31744,27.80592,0
85.31743,27.80599,0
85.31743,27.80612,0
85.31744,27.8062,0
85.31745,27.80625,0
85.31746,27.80629,0
85.31746,27.80633,0
85.31746,27.80637,0
85.31744,27.80639,0
85.31741,27.80644,0
85.31737,27.80648,0
85.31733,27.8065,0
85.3173,27.80653,0
85.31727,27.80654,0
85.31722,27.80657,0
85.31717,27.80659,0
85.31713,27.8066,0
85.31709,27.80661,0
85.31704,27.80661,0
85.317,27.80661,0
85.31696,27.80662,0
85.31694,27.80664,0
85.31692,27.80665,0
85.31691,27.80668,0
85.31689,27.8067,0
85.31688,27.80672,0
85.31688,27.80674,0
85.31688,27.80679,0
85.3169,27.80684,0
85.31693,27.80689,0
85.31703,27.80699,0
85.31705,27.80702,0
85.31707,27.80705,0
85.31708,27.80708,0
85.31708,27.8071,0
85.31708,27.80712,0
85.31708,27.80716,0
85.31707,27.8072,0
85.31705,27.80722,0
85.31703,27.80724,0
85.317,27.80727,0
85.31691,27.80736,0
85.31681,27.80747,0
85.31674,27.80755,0
85.31669,27.80763,0
85.31668,27.80765,0
85.31666,27.80769,0
85.31666,27.80772,0
85.31666,27.80774,0
85.31666,27.80777,0
85.31665,27.80782,0
85.31662,27.80792,0
85.31659,27.808,0
85.31658,27.80802,0
85.31657,27.80804,0
85.31656,27.80805,0
85.31654,27.80806,0
85.31652,27.80806,0
85.31649,27.80806,0
85.31645,27.80806,0
85.31642,27.80806,0
85.31639,27.80805,0
85.31634,27.80804,0
85.31631,27.80803,0
85.31627,27.80802,0
85.31624,27.80801,0
85.31621,27.80801,0
85.3162,27.80801,0
85.31619,27.80802,0
85.31618,27.80802,0
85.31617,27.80803,0
85.31616,27.80805,0
85.31614,27.80808,0
85.31611,27.80813,0
85.31608,27.80819,0
85.31602,27.80835,0
85.31596,27.80848,0
85.31592,27.8086,0
85.31591,27.80864,0
85.31591,27.80867,0
85.3159,27.80871,0
85.31591,27.80874,0
85.31594,27.80883,0
85.31596,27.80887,0
85.316,27.80899,0
85.316,27.80911,0
85.316,27.80914,0
85.31598,27.80921,0
85.31597,27.80926,0
85.31595,27.80929,0
85.31593,27.80932,0
85.31588,27.80938,0
85.31578,27.8095,0
85.3157,27.80957,0
85.31563,27.8096,0
85.31559,27.80962,0
85.31554,27.80963,0
85.31548,27.80964,0
85.31543,27.80965,0
85.31538,27.80966,0
85.31533,27.80967,0
85.3153,27.80969,0
85.31527,27.80972,0
85.31524,27.80975,0
85.31523,27.80976,0
85.31523,27.80977,0
85.31521,27.80981,0
85.31521,27.80983,0
85.31522,27.80984,0
85.31522,27.80985,0
85.31523,27.80986,0
85.31524,27.80987,0
85.31526,27.80989,0
85.3153,27.80992,0
85.31533,27.80994,0
85.31543,27.80997,0
85.31554,27.81001,0
85.3157,27.81007,0
85.31581,27.81012,0
85.31586,27.81015,0
85.31588,27.81017,0
85.3159,27.81021,0
85.31593,27.81026,0
85.31595,27.81033,0
85.31599,27.81051,0
85.31601,27.81058,0
85.31602,27.81063,0
85.31601,27.81068,0
85.31599,27.81074,0
85.31597,27.81081,0
85.31597,27.81084,0
85.31595,27.81095,0
85.31594,27.81102,0
85.31593,27.81105,0
85.31587,27.81113,0
85.31584,27.81117,0
85.31568,27.81131,0
85.31561,27.81138,0
85.31557,27.81142,0
85.31552,27.81146,0
85.3155,27.81149,0
85.31547,27.81154,0
85.31546,27.81156,0
85.31546,27.81158,0
85.31546,27.8116,0
85.31547,27.81162,0
85.31548,27.81163,0
85.31549,27.81165,0
85.31551,27.81166,0
85.31553,27.81167,0
85.31556,27.81167,0
85.31558,27.81167,0
85.31562,27.81167,0
85.31566,27.81167,0
85.31577,27.81166,0
85.3158,27.81167,0
85.31582,27.81168,0
85.31586,27.8117,0
85.31589,27.81172,0
85.31591,27.81174,0
85.31592,27.81177,0
85.31592,27.8118,0
85.31592,27.81183,0
85.31591,27.81189,0
85.31589,27.81203,0
85.31586,27.81211,0
85.31581,27.81221,0
85.31579,27.81225,0
85.31575,27.81234,0
85.3157,27.81245,0
85.3157,27.8125,0
85.31569,27.81253,0
85.31569,27.8127,0
85.31569,27.81273,0
85.3157,27.81282,0
85.31572,27.81287,0
85.31574,27.8129,0
85.31576,27.81293,0
85.31579,27.81295,0
85.31585,27.81297,0
85.31588,27.81297,0
85.3159,27.81298,0
85.31592,27.81297,0
85.31595,27.81296,0
85.31596,27.81296,0
85.316,27.81294,0
85.31608,27.81288,0
85.3162,27.81278,0
85.31626,27.81275,0
85.31634,27.81271,0
85.31651,27.81266,0
85.31655,27.81265,0
85.31659,27.81266,0
85.31661,27.81266,0
85.31663,27.81267,0
85.31664,27.81268,0
85.31665,27.81269,0
85.31667,27.81272,0
85.31673,27.81286,0
85.3168,27.813,0
85.31683,27.81307,0
85.31684,27.81308,0
85.31685,27.81311,0
85.31686,27.81317,0
85.31686,27.81321,0
85.31686,27.81327,0
85.31686,27.81341,0
85.31686,27.81344,0
85.31687,27.81346,0
85.31688,27.81349,0
85.3169,27.81351,0
85.31691,27.81352,0
85.31692,27.81353,0
85.31694,27.81354,0
85.31695,27.81354,0
85.317,27.81355,0
85.31706,27.81357,0
85.3171,27.81358,0
85.31714,27.8136,0
85.31719,27.81364,0
85.31733,27.81378,0
85.31744,27.81384,0
85.31749,27.81386,0
85.31753,27.81387,0
85.31757,27.81387,0
85.31764,27.81388,0
85.31768,27.81388,0
85.31772,27.81388,0
85.31776,27.81388,0
85.31779,27.81388,0
85.31781,27.81389,0
85.31782,27.81389,0
85.31783,27.81389,0
85.31783,27.8139,0
85.31784,27.81391,0
85.31784,27.81393,0
85.31785,27.81396,0
85.317849,27.813962,0
</coordinates>
</LineString>
</Placemark>
<Placemark>
<name>Kathmandu 44600 to Lakhenchuli Jharna ( waterfall)</name>
<styleUrl>#line-00CD00-2000-nodesc</styleUrl>
<LineString>
<tessellate>1</tessellate>
<coordinates>
85.317849,27.813962,0
85.31784,27.81399,0
85.31772,27.81402,0
85.31764,27.81404,0
85.31757,27.81406,0
85.31754,27.81408,0
85.31751,27.81408,0
85.31749,27.81409,0
85.31744,27.8141,0
85.31739,27.81411,0
85.31723,27.81412,0
85.31712,27.81411,0
85.31702,27.8141,0
85.31695,27.81409,0
85.31691,27.81409,0
85.31689,27.81408,0
85.31678,27.81406,0
85.31662,27.814,0
85.31657,27.81397,0
85.31653,27.81396,0
85.31648,27.81394,0
85.31639,27.81391,0
85.31627,27.81389,0
85.31622,27.81387,0
85.31616,27.81385,0
85.31608,27.81382,0
85.31603,27.81379,0
85.31594,27.81372,0
85.31591,27.81369,0
85.31589,27.81367,0
85.31587,27.81364,0
85.31584,27.81362,0
85.3158,27.81359,0
85.31578,27.81358,0
85.31575,27.81357,0
85.31573,27.81357,0
85.31571,27.81357,0
85.3157,27.81358,0
85.31566,27.81359,0
85.315656,27.81359,0
85.31573,27.81369,0
85.31593,27.81391,0
85.31609,27.81405,0
85.31614,27.81409,0
85.31618,27.81412,0
85.31623,27.81415,0
85.31629,27.81418,0
85.31635,27.81421,0
85.3164,27.81423,0
85.31644,27.81426,0
85.31649,27.81429,0
85.31651,27.81431,0
85.31654,27.81434,0
85.31656,27.81435,0
85.31659,27.81436,0
85.31663,27.81436,0
85.31679,27.81436,0
85.31702,27.81436,0
85.31708,27.81436,0
85.31715,27.81436,0
85.31722,27.81438,0
85.31727,27.81439,0
85.31732,27.81441,0
85.31735,27.81442,0
85.31739,27.81442,0
85.31742,27.81442,0
85.31748,27.81442,0
85.31752,27.81441,0
85.31755,27.81441,0
85.31758,27.81439,0
85.31762,27.81438,0
85.31765,27.81437,0
85.31771,27.81436,0
85.31788,27.81435,0
85.31806,27.81437,0
85.31815,27.81438,0
85.31822,27.8144,0
85.3183,27.81441,0
85.31836,27.81442,0
85.31837,27.81442,0
85.31844,27.81443,0
85.31848,27.81445,0
85.31853,27.81447,0
85.31857,27.81449,0
85.31859,27.8145,0
85.31863,27.81451,0
85.31867,27.81452,0
85.31873,27.81453,0
85.31878,27.81453,0
85.31888,27.81452,0
85.31896,27.81452,0
85.31902,27.81453,0
85.31907,27.81454,0
85.31914,27.81456,0
85.3192,27.81458,0
85.31926,27.81462,0
85.31931,27.81466,0
85.31955,27.81484,0
85.31976,27.81503,0
85.31987,27.81508,0
85.31992,27.81509,0
85.31997,27.81511,0
85.32002,27.81513,0
85.32012,27.81518,0
85.32016,27.8152,0
85.32022,27.81522,0
85.3203,27.81524,0
85.32039,27.81526,0
85.32044,27.81527,0
85.3205,27.81529,0
85.32058,27.81533,0
85.32063,27.81536,0
85.32067,27.81539,0
85.32073,27.81543,0
85.32078,27.81546,0
85.32081,27.81548,0
85.32083,27.8155,0
85.32084,27.81554,0
85.32086,27.81557,0
85.321,27.81563,0
85.32108,27.81565,0
85.32116,27.81567,0
85.32139,27.81573,0
85.32146,27.81574,0
85.32154,27.81575,0
85.32162,27.81576,0
85.3217,27.81576,0
85.32179,27.81576,0
85.32184,27.81575,0
85.32189,27.81575,0
85.32198,27.81575,0
85.32203,27.81574,0
85.3221,27.81572,0
85.32215,27.8157,0
85.32221,27.81568,0
85.32227,27.81568,0
85.32232,27.81567,0
85.32237,27.81567,0
85.32242,27.81567,0
85.32246,27.81567,0
85.3225,27.81568,0
85.32254,27.8157,0
85.32259,27.81572,0
85.3229,27.81578,0
85.32295,27.81579,0
85.32299,27.8158,0
85.323,27.8158,0
85.32304,27.81581,0
85.32307,27.81583,0
85.32311,27.81585,0
85.32312,27.81586,0
85.32313,27.81587,0
85.32314,27.81589,0
85.32313,27.81591,0
85.32313,27.81594,0
85.32312,27.81595,0
85.32311,27.81596,0
85.32311,27.81597,0
85.32309,27.81597,0
85.32307,27.81598,0
85.32302,27.81599,0
85.323,27.81599,0
85.32295,27.81598,0
85.32291,27.81598,0
85.32259,27.81592,0
85.32256,27.81592,0
85.32247,27.81591,0
85.32241,27.8159,0
85.32235,27.8159,0
85.3223,27.81589,0
85.32226,27.8159,0
85.32222,27.8159,0
85.32221,27.81591,0
85.3222,27.81591,0
85.32218,27.81593,0
85.32217,27.81594,0
85.32216,27.81596,0
85.32216,27.81597,0
85.32216,27.81599,0
85.32217,27.816,0
85.32218,27.81601,0
85.32219,27.81602,0
85.3222,27.81602,0
85.32221,27.81603,0
85.32225,27.81603,0
85.32229,27.81604,0
85.3226,27.81611,0
85.32302,27.81618,0
85.32326,27.81626,0
85.32335,27.81629,0
85.32339,27.8163,0
85.32341,27.81631,0
85.32345,27.81631,0
85.32348,27.81632,0
85.32351,27.81633,0
85.32356,27.81636,0
85.32383,27.81662,0
85.32409,27.81681,0
85.32452,27.81711,0
85.32465,27.81722,0
85.3247,27.81726,0
85.32473,27.81728,0
85.32477,27.81731,0
85.3248,27.81733,0
85.32481,27.81734,0
85.32482,27.81735,0
85.32482,27.81737,0
85.32483,27.81739,0
85.32483,27.81741,0
85.32482,27.81742,0
85.32482,27.81743,0
85.32481,27.81745,0
85.3248,27.81746,0
85.32479,27.81747,0
85.32478,27.81747,0
85.32476,27.81747,0
85.32475,27.81748,0
85.32473,27.81747,0
85.32472,27.81747,0
85.32469,27.81746,0
85.32466,27.81744,0
85.32464,27.81742,0
85.32457,27.81737,0
85.32448,27.81731,0
85.32417,27.8171,0
85.32391,27.81701,0
85.32357,27.81688,0
85.32332,27.81682,0
85.32311,27.81679,0
85.32304,27.81679,0
85.323,27.81678,0
85.32291,27.8168,0
85.32286,27.81681,0
85.32281,27.81682,0
85.32277,27.81683,0
85.32274,27.81684,0
85.32269,27.81686,0
85.32259,27.81688,0
85.32244,27.8169,0
85.32226,27.81688,0
85.32219,27.81687,0
85.32208,27.81686,0
85.32202,27.81684,0
85.32195,27.81681,0
85.32189,27.81678,0
85.32182,27.81676,0
85.32174,27.81675,0
85.32168,27.81675,0
85.32142,27.81672,0
85.32121,27.8167,0
85.32105,27.81667,0
85.32051,27.81658,0
85.32045,27.81658,0
85.32041,27.81658,0
85.32036,27.81659,0
85.3203,27.8166,0
85.32026,27.81662,0
85.32023,27.81664,0
85.3202,27.81667,0
85.32016,27.81669,0
85.32013,27.81671,0
85.32009,27.81673,0
85.32006,27.81675,0
85.32004,27.81675,0
85.31997,27.81675,0
85.3199,27.81675,0
85.31982,27.81673,0
85.31969,27.81672,0
85.319686,27.816722,0
85.319717,27.816799,0
</coordinates>
</LineString>
</Placemark>
<Placemark>
<name>Kathmandu 44600 to Lakhenchuli Jharna ( waterfall)</name>
<styleUrl>#line-FF0000-2000-nodesc</styleUrl>
<LineString>
<tessellate>1</tessellate>
<coordinates>
85.3500745,27.8316579,0
85.35008,27.83171,0
85.35008,27.83175,0
85.35006,27.83183,0
85.35,27.83197,0
85.35,27.832,0
85.34999,27.83203,0
85.35,27.83206,0
85.35001,27.83208,0
85.35004,27.83211,0
85.35011,27.83213,0
85.35015,27.83214,0
85.35034,27.83224,0
85.35038,27.83227,0
85.3504,27.83227,0
85.35043,27.83229,0
85.35045,27.83231,0
85.35047,27.83232,0
85.35047,27.83233,0
85.35048,27.83235,0
85.35048,27.83236,0
85.35047,27.83238,0
85.35045,27.83241,0
85.35042,27.83243,0
85.35042,27.83244,0
85.35037,27.83248,0
85.35035,27.83249,0
85.35033,27.83251,0
85.35032,27.83256,0
85.35032,27.83258,0
85.35033,27.8326,0
85.35045,27.83277,0
85.35053,27.83289,0
85.3506,27.83298,0
85.35064,27.83303,0
85.35071,27.83308,0
85.35074,27.8331,0
85.35077,27.83312,0
85.3508,27.83314,0
85.35081,27.83316,0
85.35082,27.83319,0
85.35082,27.83321,0
85.35082,27.83325,0
85.35079,27.83338,0
85.35079,27.83348,0
85.35079,27.83351,0
85.35079,27.83355,0
85.35081,27.83359,0
85.35086,27.83371,0
85.3509,27.83379,0
85.35092,27.83384,0
85.35097,27.83395,0
85.35105,27.83412,0
85.35108,27.8342,0
85.35112,27.83443,0
85.35115,27.83456,0
85.35116,27.83458,0
85.35117,27.8346,0
85.35118,27.83463,0
85.35119,27.83466,0
85.35118,27.8347,0
85.35117,27.83474,0
85.35117,27.83476,0
85.35117,27.83481,0
85.35117,27.83484,0
85.35118,27.83489,0
85.35118,27.83493,0
85.35117,27.83501,0
85.35114,27.8352,0
85.35114,27.83537,0
85.35115,27.8354,0
85.35116,27.83543,0
85.35118,27.83547,0
85.35127,27.83572,0
85.35128,27.83576,0
85.35131,27.83582,0
85.35132,27.83584,0
85.35134,27.83587,0
85.35134,27.83588,0
85.35135,27.83594,0
85.35135,27.83597,0
85.35135,27.83602,0
85.35132,27.83614,0
85.35132,27.83615,0
85.35132,27.83617,0
85.35133,27.8362,0
85.35134,27.83622,0
85.35135,27.83625,0
85.35135,27.83626,0
85.35135,27.83629,0
85.35134,27.83632,0
85.35133,27.83636,0
85.35131,27.83644,0
85.35131,27.83653,0
85.35132,27.83668,0
85.35132,27.83676,0
85.35133,27.83681,0
85.35132,27.83683,0
85.35132,27.83686,0
85.35131,27.83689,0
85.3513,27.83696,0
85.35131,27.83723,0
85.35136,27.83732,0
85.35139,27.83736,0
85.35142,27.83739,0
85.35145,27.83744,0
85.35148,27.83746,0
85.3515,27.83748,0
85.35153,27.8375,0
85.35155,27.8375,0
85.3516,27.83751,0
85.35163,27.83752,0
85.35168,27.83753,0
85.35171,27.83755,0
85.35174,27.83758,0
85.35175,27.8376,0
85.35177,27.83764,0
85.35177,27.83769,0
85.3518,27.83793,0
85.35181,27.83794,0
85.35181,27.83796,0
85.35182,27.83796,0
85.35183,27.83797,0
85.35184,27.83797,0
85.35185,27.83797,0
85.35187,27.83797,0
85.35189,27.83797,0
85.35191,27.83795,0
85.35194,27.83793,0
85.35199,27.83788,0
85.35211,27.83776,0
85.35213,27.83774,0
85.35214,27.83773,0
85.35217,27.83771,0
85.35221,27.83768,0
85.35226,27.83765,0
85.35229,27.83763,0
85.35231,27.8376,0
85.35233,27.83757,0
85.35234,27.83753,0
85.35241,27.83747,0
85.35242,27.83745,0
85.35248,27.83741,0
85.35254,27.83739,0
85.35258,27.83737,0
85.35261,27.83734,0
85.35274,27.83727,0
85.3528,27.83722,0
85.35283,27.8372,0
85.35288,27.83714,0
85.3529,27.83711,0
85.35293,27.83704,0
85.35294,27.837,0
85.35294,27.83697,0
85.35294,27.83696,0
85.35292,27.83692,0
85.35292,27.83691,0
85.35288,27.83685,0
85.35285,27.83681,0
85.35281,27.83673,0
85.3528,27.8367,0
85.35281,27.83667,0
85.35282,27.83663,0
85.35291,27.83639,0
85.35298,27.83596,0
85.35298,27.83593,0
85.35299,27.83588,0
85.35301,27.83579,0
85.35304,27.83571,0
85.35304,27.8357,0
85.35306,27.83566,0
85.35309,27.83563,0
85.35311,27.83562,0
85.35312,27.83561,0
85.35316,27.83559,0
85.35324,27.83558,0
85.35327,27.83558,0
85.35337,27.83558,0
85.35338,27.83558,0
85.35343,27.83559,0
85.35348,27.8356,0
85.35356,27.83563,0
85.35373,27.83573,0
85.35389,27.83581,0
85.35396,27.83585,0
85.35401,27.83589,0
85.35402,27.8359,0
85.35402,27.83591,0
85.35403,27.83593,0
85.35404,27.83596,0
85.3541,27.83617,0
85.35414,27.83624,0
85.35415,27.83627,0
85.35417,27.83629,0
85.35418,27.83629,0
85.35426,27.83634,0
85.35429,27.83636,0
85.3543,27.83636,0
85.35431,27.83637,0
85.35434,27.83638,0
85.35436,27.8364,0
85.3544,27.83643,0
85.35443,27.83645,0
85.35446,27.83648,0
85.35447,27.83649,0
85.35449,27.83649,0
85.3545,27.8365,0
85.35452,27.83651,0
85.35453,27.83651,0
85.35455,27.83651,0
85.35457,27.83651,0
85.35459,27.8365,0
85.35463,27.83649,0
85.35466,27.83647,0
85.35468,27.83646,0
85.35469,27.83645,0
85.35471,27.83644,0
85.35472,27.83644,0
85.35476,27.83645,0
85.35478,27.83646,0
85.35481,27.83648,0
85.35487,27.8365,0
85.35489,27.83651,0
85.35491,27.83653,0
85.35494,27.83656,0
85.35496,27.83658,0
85.35497,27.83659,0
85.35498,27.83659,0
85.35499,27.8366,0
85.35501,27.83661,0
85.35502,27.83662,0
85.35504,27.83662,0
85.35508,27.83662,0
85.35509,27.83661,0
85.35513,27.8366,0
85.35514,27.8366,0
85.35516,27.83661,0
85.35518,27.83662,0
85.35531,27.83674,0
85.3554,27.83683,0
85.35543,27.83686,0
85.35545,27.83687,0
85.35546,27.83688,0
85.35548,27.83688,0
85.35549,27.83689,0
85.35553,27.83689,0
85.35556,27.83689,0
85.35578,27.83683,0
85.35584,27.83683,0
85.35591,27.83682,0
85.35598,27.83682,0
85.3561,27.83681,0
85.35618,27.8368,0
85.3562,27.8368,0
85.35624,27.83679,0
85.35626,27.83679,0
85.35634,27.83678,0
85.35638,27.83677,0
85.3564,27.83677,0
85.35645,27.83677,0
85.3565,27.83677,0
85.35652,27.83677,0
85.35653,27.83677,0
85.35657,27.83679,0
85.3567,27.8369,0
85.35672,27.83691,0
85.35674,27.83693,0
85.35676,27.83695,0
85.35678,27.83696,0
85.35679,27.83698,0
85.3568,27.837,0
85.3568,27.83703,0
85.35679,27.83705,0
85.35677,27.83709,0
85.35675,27.83716,0
85.35674,27.83724,0
85.35673,27.83728,0
85.35673,27.8373,0
85.35673,27.83733,0
85.35673,27.83739,0
85.35676,27.83748,0
85.35676,27.83749,0
85.35682,27.83759,0
85.35689,27.83774,0
85.35689,27.83775,0
85.3569,27.83775,0
85.3569,27.83776,0
85.35691,27.83776,0
85.35693,27.83776,0
85.35696,27.83776,0
85.35699,27.83776,0
85.35708,27.83777,0
85.35717,27.83776,0
85.35724,27.83776,0
85.35732,27.83779,0
85.35739,27.83783,0
85.35742,27.83785,0
85.35749,27.83788,0
85.35755,27.83792,0
85.35757,27.83793,0
85.35759,27.83794,0
85.35763,27.83795,0
85.35766,27.83795,0
85.3577,27.83795,0
85.35772,27.83795,0
85.35774,27.83794,0
85.35776,27.83792,0
85.35782,27.83785,0
85.35783,27.83784,0
85.35784,27.83784,0
85.35786,27.83783,0
85.357863,27.837833,0
85.35787,27.83783,0
85.35788,27.83784,0
85.35791,27.83785,0
85.35794,27.83788,0
85.35797,27.83789,0
85.358,27.83792,0
85.35804,27.83794,0
85.35805,27.83795,0
85.35809,27.83796,0
85.35812,27.83797,0
85.35821,27.83796,0
85.35824,27.83796,0
85.35827,27.83797,0
85.35828,27.83797,0
85.3583,27.83798,0
85.35832,27.838,0
85.35833,27.83802,0
85.35842,27.83822,0
85.35847,27.83839,0
85.35852,27.83853,0
85.35852,27.83854,0
85.35855,27.83859,0
85.35856,27.83861,0
85.3586,27.83865,0
85.35862,27.83866,0
85.35864,27.83867,0
85.35866,27.83868,0
85.35869,27.83869,0
85.35872,27.8387,0
85.35875,27.8387,0
85.35878,27.8387,0
85.35882,27.8387,0
85.35887,27.83871,0
85.35889,27.83871,0
85.35892,27.83871,0
85.35894,27.83871,0
85.35896,27.83872,0
85.35898,27.83872,0
85.359,27.83874,0
85.35901,27.83875,0
85.35907,27.83889,0
85.35907,27.8389,0
85.35908,27.83893,0
85.35908,27.83895,0
85.35908,27.83899,0
85.35908,27.839,0
85.35909,27.83903,0
85.3591,27.83905,0
85.35912,27.83907,0
85.35914,27.83908,0
85.35916,27.83909,0
85.35928,27.83915,0
85.35932,27.83916,0
85.35934,27.83916,0
85.35939,27.83916,0
85.35944,27.83916,0
85.35948,27.83916,0
85.35952,27.83915,0
85.35955,27.83914,0
85.35957,27.83913,0
85.35961,27.83913,0
85.35964,27.83914,0
85.35967,27.83915,0
85.3597,27.83919,0
85.35971,27.8392,0
85.35974,27.83926,0
85.35977,27.83929,0
85.3598,27.83933,0
85.35981,27.83934,0
85.35982,27.83935,0
85.35994,27.83945,0
85.36032,27.83981,0
85.36053,27.83999,0
85.36064,27.84012,0
85.36065,27.84014,0
85.36075,27.84026,0
85.36094,27.84055,0
85.36098,27.84059,0
85.36103,27.84063,0
85.36109,27.84068,0
85.36114,27.84072,0
85.36121,27.84077,0
85.36127,27.84082,0
85.36128,27.84083,0
85.36156,27.84104,0
85.36183,27.84122,0
85.36195,27.84131,0
85.36209,27.84138,0
85.36214,27.84139,0
85.36226,27.84144,0
85.36227,27.84144,0
85.36241,27.8415,0
85.36245,27.84151,0
85.36247,27.84152,0
85.36251,27.84153,0
85.36254,27.84153,0
85.36257,27.84152,0
85.36261,27.8415,0
85.36276,27.84147,0
85.36281,27.84146,0
85.36288,27.84145,0
85.36293,27.84144,0
85.36296,27.84144,0
85.36304,27.84142,0
85.36313,27.8414,0
85.36319,27.84138,0
85.36323,27.84137,0
85.36325,27.84137,0
85.36328,27.84136,0
85.36334,27.84135,0
85.36342,27.84133,0
85.36347,27.84132,0
85.36354,27.84131,0
85.36368,27.84132,0
85.36371,27.84132,0
85.36377,27.84131,0
85.36381,27.8413,0
85.36385,27.8413,0
85.36389,27.84129,0
85.36395,27.84129,0
85.364,27.84129,0
85.36403,27.8413,0
85.36409,27.8413,0
85.36418,27.84128,0
85.36423,27.84126,0
85.36427,27.84125,0
85.36429,27.84123,0
85.3643,27.84122,0
85.36431,27.84121,0
85.36431,27.8412,0
85.36431,27.84117,0
85.36431,27.84108,0
85.36429,27.84094,0
85.36431,27.84086,0
85.36431,27.84085,0
85.36433,27.84083,0
85.36437,27.84078,0
85.3645,27.84064,0
85.36459,27.84052,0
85.36464,27.84044,0
85.36467,27.84036,0
85.36468,27.84032,0
85.36469,27.84031,0
85.36473,27.84027,0
85.36476,27.84025,0
85.3648,27.84021,0
85.36488,27.84015,0
85.36489,27.84012,0
85.36493,27.84005,0
85.36494,27.84002,0
85.36494,27.84001,0
85.36495,27.84,0
85.36497,27.83998,0
85.36498,27.83998,0
85.36499,27.83997,0
85.36501,27.83997,0
85.36502,27.83997,0
85.36503,27.83998,0
85.36506,27.84001,0
85.36507,27.84002,0
85.36533,27.84037,0
85.36555,27.84058,0
85.36556,27.84058,0
85.36574,27.84078,0
85.36579,27.84081,0
85.36583,27.84083,0
85.36584,27.84084,0
85.36597,27.84088,0
85.36603,27.8409,0
85.36605,27.8409,0
85.36607,27.8409,0
85.36612,27.8409,0
85.36616,27.84088,0
85.36629,27.84084,0
85.3664,27.84081,0
85.36659,27.84073,0
85.36675,27.84066,0
85.36678,27.84063,0
85.36681,27.84061,0
85.36684,27.84058,0
85.36688,27.84048,0
85.36689,27.84045,0
85.36691,27.84031,0
85.36692,27.84013,0
85.36693,27.84009,0
85.36694,27.84008,0
85.36696,27.84007,0
85.36697,27.84006,0
85.36699,27.84006,0
85.367,27.84006,0
85.36717,27.84008,0
85.36722,27.84008,0
85.36724,27.84008,0
85.36725,27.84008,0
85.36725,27.84007,0
85.36728,27.84001,0
85.36728,27.84,0
85.36729,27.83998,0
85.36731,27.83997,0
85.36732,27.83996,0
85.36735,27.83995,0
85.36739,27.83995,0
85.3674,27.83995,0
85.36743,27.83996,0
85.36751,27.84001,0
85.36755,27.84003,0
85.36758,27.84004,0
85.36764,27.84006,0
85.36769,27.84009,0
85.36772,27.8401,0
85.36774,27.84011,0
85.36775,27.84011,0
85.36778,27.8401,0
85.3678,27.84009,0
85.36786,27.84006,0
85.36788,27.84004,0
85.36792,27.83998,0
85.36805,27.83986,0
85.36807,27.83984,0
85.36809,27.83983,0
85.36811,27.83983,0
85.36816,27.83982,0
85.36823,27.83983,0
85.36825,27.83985,0
85.36829,27.83987,0
85.36832,27.8399,0
85.36834,27.83992,0
85.36835,27.83995,0
85.36837,27.84001,0
85.36836,27.84008,0
85.36835,27.84012,0
85.36835,27.84014,0
85.36833,27.84017,0
85.36832,27.84019,0
85.36832,27.84021,0
85.36833,27.84025,0
85.36833,27.84028,0
85.36834,27.84031,0
85.36836,27.84032,0
85.36837,27.84034,0
85.36846,27.84036,0
85.36852,27.84038,0
85.36854,27.84039,0
85.36856,27.84039,0
85.36862,27.84044,0
85.36864,27.84047,0
85.36865,27.84048,0
85.36866,27.84051,0
85.36867,27.84055,0
85.36867,27.84056,0
85.36866,27.84064,0
85.36867,27.84072,0
85.36867,27.84074,0
85.36869,27.84078,0
85.36873,27.84083,0
85.36877,27.8409,0
85.36881,27.84096,0
85.36884,27.84102,0
85.36888,27.8411,0
85.36889,27.84114,0
85.3689,27.84119,0
85.36889,27.84126,0
85.36889,27.8413,0
85.36889,27.84135,0
85.36891,27.84141,0
85.36893,27.84147,0
85.36893,27.84156,0
85.36893,27.84169,0
85.36895,27.84178,0
85.36898,27.8419,0
85.36898,27.84191,0
85.369,27.842,0
85.369,27.8421,0
85.36902,27.84213,0
85.36904,27.84218,0
85.3691,27.84224,0
85.36916,27.84229,0
85.3692,27.84231,0
85.36922,27.84232,0
85.36924,27.84232,0
85.36927,27.84231,0
85.36937,27.84228,0
85.36942,27.84227,0
85.36947,27.84225,0
85.36953,27.84224,0
85.36957,27.84222,0
85.36967,27.84219,0
85.3697,27.84217,0
85.36974,27.84216,0
85.36978,27.84215,0
85.36984,27.84215,0
85.36988,27.84214,0
85.3699,27.84214,0
85.36991,27.84214,0
85.36993,27.84213,0
85.36995,27.84212,0
85.36996,27.84211,0
85.36998,27.84209,0
85.37,27.84206,0
85.37004,27.84199,0
85.37006,27.8419,0
85.37007,27.84183,0
85.37008,27.84178,0
85.37008,27.84173,0
85.37009,27.84169,0
85.37011,27.84165,0
85.37015,27.84157,0
85.37022,27.8415,0
85.37024,27.84147,0
85.37025,27.84145,0
85.37025,27.84142,0
85.37025,27.84137,0
85.37025,27.84113,0
85.37028,27.84101,0
85.3703,27.84088,0
85.37034,27.84074,0
85.37035,27.8406,0
85.37037,27.84048,0
85.37041,27.84034,0
85.37046,27.84024,0
85.37054,27.84017,0
85.37054,27.84016,0
85.37065,27.84011,0
85.37073,27.84002,0
85.37078,27.83998,0
85.37085,27.83996,0
85.37087,27.83995,0
85.37088,27.83995,0
85.371,27.83998,0
85.37109,27.84,0
85.37116,27.84,0
85.3712,27.84,0
85.37122,27.84,0
85.37123,27.83999,0
85.37124,27.83999,0
85.37125,27.83998,0
85.37125,27.83997,0
85.37126,27.83995,0
85.37126,27.83991,0
85.37125,27.83988,0
85.37116,27.83972,0
85.37113,27.83967,0
85.37112,27.83965,0
85.37112,27.83963,0
85.37112,27.83961,0
85.37112,27.8396,0
85.37113,27.83959,0
85.37114,27.83959,0
85.37116,27.83957,0
85.37118,27.83956,0
85.37126,27.83954,0
85.3714,27.8395,0
85.37156,27.83943,0
85.37166,27.83939,0
85.37168,27.83937,0
85.37172,27.83933,0
85.37175,27.83926,0
85.37176,27.83919,0
85.37178,27.8391,0
85.37178,27.83909,0
85.37179,27.83908,0
85.3718,27.83907,0
85.37182,27.83907,0
85.37187,27.83907,0
85.37194,27.83909,0
85.37217,27.83919,0
85.37238,27.83927,0
85.37243,27.83928,0
85.37248,27.83929,0
85.37252,27.83929,0
85.37253,27.83928,0
85.37254,27.83928,0
85.37257,27.83926,0
85.37259,27.83923,0
85.3726,27.83922,0
85.37261,27.83918,0
85.37263,27.83913,0
85.37263,27.83911,0
85.37265,27.83904,0
85.37265,27.83899,0
85.37259,27.83883,0
85.37256,27.83876,0
85.37255,27.8387,0
85.37255,27.83863,0
85.37256,27.83861,0
85.3726,27.83857,0
85.37265,27.83854,0
85.37273,27.83853,0
85.37274,27.83853,0
85.37286,27.83854,0
85.37294,27.83854,0
85.37303,27.83855,0
85.37339,27.83869,0
85.37342,27.83871,0
85.37344,27.83871,0
85.37346,27.83871,0
85.37348,27.8387,0
85.37349,27.83869,0
85.3735,27.83868,0
85.37351,27.83867,0
85.37353,27.83865,0
85.37358,27.83858,0
85.37363,27.83855,0
85.37369,27.83852,0
85.37372,27.83849,0
85.37379,27.83843,0
85.37381,27.83841,0
85.37391,27.8383,0
85.37397,27.8382,0
85.374,27.83813,0
85.37407,27.83804,0
85.37415,27.83798,0
85.37421,27.83793,0
85.37425,27.83791,0
85.37427,27.83788,0
85.37427,27.83787,0
85.3743,27.8378,0
85.3743,27.83778,0
85.3743,27.83776,0
85.37429,27.83775,0
85.3743,27.83775,0
85.3743,27.83774,0
85.37431,27.83773,0
85.37434,27.8377,0
85.3745,27.83759,0
85.37455,27.83755,0
85.37468,27.83744,0
85.37474,27.83739,0
85.37479,27.83735,0
85.37482,27.83735,0
85.37484,27.83734,0
85.37487,27.83734,0
85.3749,27.83735,0
85.37492,27.83736,0
85.37494,27.83737,0
85.37495,27.83739,0
85.37496,27.8374,0
85.37497,27.83741,0
85.37499,27.83744,0
85.37504,27.83752,0
85.37508,27.83757,0
85.37513,27.83771,0
85.37518,27.83784,0
85.37523,27.83796,0
85.37524,27.83806,0
85.37526,27.83812,0
85.37528,27.83816,0
85.37534,27.83822,0
85.37538,27.83827,0
85.37541,27.83834,0
85.37542,27.83836,0
85.37543,27.83837,0
85.37544,27.83838,0
85.37546,27.83838,0
85.37547,27.83838,0
85.37548,27.83838,0
85.3755,27.83837,0
85.37554,27.83835,0
85.37564,27.83828,0
85.37586,27.83818,0
85.37598,27.83812,0
85.37599,27.83811,0
85.37606,27.83807,0
85.37613,27.838,0
85.37618,27.83793,0
85.37623,27.83787,0
85.37624,27.83786,0
85.37627,27.83785,0
85.37641,27.83782,0
85.3765,27.83779,0
85.37658,27.83773,0
85.37662,27.8377,0
85.3767,27.83763,0
85.37675,27.83759,0
85.37682,27.83752,0
85.37684,27.8375,0
85.37686,27.83748,0
85.37687,27.83747,0
85.37689,27.83745,0
85.3769,27.83744,0
85.37691,27.83744,0
85.37694,27.83743,0
85.37696,27.83743,0
85.37697,27.83743,0
85.37698,27.83743,0
85.377,27.83744,0
85.37702,27.83746,0
85.37703,27.83747,0
85.37704,27.8375,0
85.37705,27.83752,0
85.3771,27.83761,0
85.37713,27.83773,0
85.37713,27.83783,0
85.37713,27.83786,0
85.37711,27.83794,0
85.37713,27.83803,0
85.37714,27.83807,0
85.37714,27.83809,0
85.37716,27.83811,0
85.37718,27.83813,0
85.3772,27.83814,0
85.37722,27.83815,0
85.37724,27.83815,0
85.37728,27.83816,0
85.37745,27.83815,0
85.37755,27.83815,0
85.37761,27.83814,0
85.37762,27.83814,0
85.37763,27.83815,0
85.37764,27.83815,0
85.37765,27.83815,0
85.37765,27.83816,0
85.37765,27.83817,0
85.37764,27.83818,0
85.37761,27.83823,0
85.37756,27.8383,0
85.37755,27.83832,0
85.37752,27.8384,0
85.3774,27.83861,0
85.37734,27.83872,0
85.37728,27.8388,0
85.37723,27.83887,0
85.37717,27.83893,0
85.3771,27.839,0
85.37709,27.83903,0
85.37708,27.83906,0
85.37706,27.8391,0
85.37706,27.83914,0
85.37707,27.83919,0
85.37709,27.83924,0
85.37711,27.83928,0
85.37715,27.83932,0
85.37725,27.8394,0
85.37727,27.83941,0
85.37735,27.83945,0
85.37736,27.83946,0
85.37737,27.83946,0
85.37738,27.83948,0
85.37738,27.8395,0
85.37738,27.83952,0
85.37738,27.83953,0
85.37738,27.83955,0
85.37737,27.83957,0
85.37735,27.83959,0
85.3773,27.83962,0
85.37721,27.83969,0
85.37719,27.83971,0
85.37718,27.83973,0
85.37717,27.83974,0
85.37717,27.83975,0
85.37717,27.83977,0
85.37715,27.83983,0
85.37715,27.83992,0
85.37715,27.84003,0
85.37713,27.84012,0
85.37712,27.84022,0
85.37712,27.84031,0
85.37712,27.84034,0
85.37713,27.84044,0
85.37714,27.84054,0
85.37716,27.84059,0
85.37718,27.84063,0
85.37723,27.84068,0
85.37725,27.8407,0
85.3773,27.84073,0
85.3774,27.84078,0
85.37748,27.84083,0
85.37784,27.84104,0
85.37792,27.84107,0
85.37794,27.84107,0
85.37795,27.84107,0
85.37798,27.84107,0
85.378,27.84107,0
85.37802,27.84106,0
85.37804,27.84105,0
85.37807,27.84104,0
85.37811,27.841,0
85.37814,27.84096,0
85.37816,27.84092,0
85.37818,27.84086,0
85.3782,27.84081,0
85.37821,27.84079,0
85.37823,27.84077,0
85.37824,27.84075,0
85.37827,27.84073,0
85.37828,27.84072,0
85.37829,27.84072,0
85.3783,27.84072,0
85.37831,27.84072,0
85.37833,27.84072,0
85.37835,27.84073,0
85.3784,27.84077,0
85.37855,27.84086,0
85.37872,27.841,0
85.37886,27.8411,0
85.37893,27.84117,0
85.37899,27.84121,0
85.37901,27.84122,0
85.37905,27.84123,0
85.37909,27.84124,0
85.37915,27.84125,0
85.37921,27.84125,0
85.37924,27.84124,0
85.37927,27.84123,0
85.37931,27.84122,0
85.37933,27.84122,0
85.37935,27.84123,0
85.3794,27.84125,0
85.37942,27.84127,0
85.37945,27.84128,0
85.37955,27.84135,0
85.3796,27.84138,0
85.37964,27.8414,0
85.37966,27.8414,0
85.37967,27.8414,0
85.37972,27.8414,0
85.37978,27.8414,0
85.3798,27.8414,0
85.37982,27.8414,0
85.37983,27.84139,0
85.379831,27.841394,0
85.37986,27.84138,0
85.3799,27.84134,0
85.38,27.84124,0
85.38008,27.84118,0
85.38014,27.84114,0
85.38024,27.84111,0
85.38034,27.84105,0
85.38041,27.841,0
85.38047,27.84096,0
85.38049,27.84096,0
85.38052,27.84095,0
85.38055,27.84095,0
85.38057,27.84096,0
85.38061,27.84098,0
85.38069,27.84102,0
85.38077,27.84106,0
85.38089,27.84107,0
85.381,27.84106,0
85.38104,27.84104,0
85.38111,27.84101,0
85.38112,27.841,0
85.38114,27.841,0
85.38115,27.841,0
85.38121,27.84101,0
85.38127,27.84103,0
85.38137,27.84106,0
85.38154,27.84111,0
85.38161,27.84112,0
85.38164,27.84112,0
85.38167,27.84112,0
85.38175,27.84108,0
85.38185,27.84103,0
85.38193,27.84101,0
85.38195,27.84101,0
85.38202,27.841,0
85.38208,27.84101,0
85.38213,27.84104,0
85.38227,27.84112,0
85.38233,27.84114,0
85.38236,27.84115,0
85.38237,27.84115,0
85.38239,27.84115,0
85.38254,27.84112,0
85.3826,27.84111,0
85.38278,27.84105,0
85.38299,27.841,0
85.38311,27.84098,0
85.38314,27.84097,0
85.38329,27.84096,0
85.38342,27.84098,0
85.38354,27.84101,0
85.38364,27.84104,0
85.38368,27.84104,0
85.38375,27.84104,0
85.38378,27.84104,0
85.38383,27.84104,0
85.38387,27.84102,0
85.38391,27.841,0
85.38393,27.84098,0
85.38396,27.84096,0
85.38402,27.8409,0
85.38417,27.84073,0
85.3842,27.84066,0
85.38422,27.84056,0
85.38428,27.84044,0
85.38431,27.84039,0
85.38433,27.84038,0
85.38441,27.84031,0
85.38449,27.84029,0
85.38457,27.84029,0
85.38464,27.84028,0
85.3848,27.84022,0
85.38494,27.84016,0
85.38503,27.84007,0
85.38503,27.84006,0
85.38508,27.83993,0
85.38511,27.83989,0
85.38512,27.83988,0
85.38513,27.83987,0
85.38514,27.83987,0
85.38515,27.83986,0
85.38527,27.83984,0
85.38528,27.83984,0
85.3853,27.83985,0
85.38546,27.83994,0
85.38577,27.84009,0
85.38584,27.84015,0
85.38592,27.84018,0
85.38602,27.84018,0
85.38618,27.84016,0
85.3864,27.84013,0
85.38643,27.84013,0
85.38667,27.84013,0
85.38681,27.84009,0
85.38691,27.84001,0
85.38705,27.83992,0
85.38725,27.83987,0
85.38739,27.83985,0
85.38741,27.83985,0
85.38742,27.83984,0
85.38743,27.83984,0
85.38745,27.83983,0
85.38746,27.83982,0
85.38747,27.83981,0
85.38747,27.83979,0
85.38747,27.83977,0
85.38747,27.83976,0
85.38747,27.83971,0
85.38747,27.83965,0
85.38746,27.83961,0
85.38745,27.83959,0
85.38745,27.83957,0
85.38746,27.83956,0
85.38754,27.83951,0
85.38759,27.83944,0
85.38762,27.83938,0
85.38761,27.83932,0
85.38759,27.83922,0
85.3876,27.83914,0
85.3876,27.8391,0
85.3876,27.83905,0
85.38761,27.83902,0
85.38763,27.839,0
85.38764,27.83899,0
85.38769,27.83897,0
85.3877,27.83897,0
85.38772,27.83896,0
85.38775,27.83895,0
85.38776,27.83896,0
85.38779,27.83896,0
85.38779,27.83897,0
85.387795,27.83897,0
</coordinates>
</LineString>
</Placemark>
<Placemark>
<name>Kathmandu 44600 to Lakhenchuli Jharna ( waterfall)</name>
<styleUrl>#line-0000FF-2000-nodesc</styleUrl>
<LineString>
<tessellate>1</tessellate>
<coordinates>
85.319717,27.816799,0
85.31973,27.81683,0
85.31977,27.81687,0
85.31983,27.8169,0
85.31988,27.81694,0
85.31993,27.81696,0
85.31996,27.81696,0
85.31998,27.81697,0
85.32002,27.81697,0
85.32006,27.81697,0
85.32009,27.81696,0
85.32011,27.81696,0
85.32012,27.81695,0
85.32014,27.81694,0
85.32017,27.81691,0
85.32021,27.81689,0
85.32024,27.81686,0
85.32029,27.81683,0
85.32033,27.81682,0
85.3204,27.81682,0
85.32044,27.81682,0
85.32044,27.81683,0
85.32049,27.81684,0
85.32052,27.81685,0
85.3206,27.81687,0
85.32068,27.81692,0
85.32087,27.81708,0
85.32105,27.81723,0
85.32108,27.81725,0
85.32112,27.81727,0
85.32113,27.81727,0
85.32117,27.81729,0
85.32121,27.8173,0
85.32127,27.81731,0
85.32132,27.81732,0
85.32136,27.81733,0
85.32145,27.81734,0
85.32147,27.81734,0
85.32153,27.81734,0
85.32158,27.81735,0
85.32173,27.81737,0
85.32177,27.81737,0
85.32181,27.81739,0
85.32186,27.8174,0
85.3221,27.81749,0
85.32235,27.81761,0
85.32258,27.81773,0
85.32262,27.81775,0
85.32272,27.81782,0
85.32275,27.81783,0
85.32278,27.81786,0
85.3228,27.81789,0
85.32282,27.81793,0
85.32284,27.81796,0
85.32284,27.81799,0
85.32285,27.81802,0
85.32288,27.81806,0
85.3229,27.8181,0
85.32293,27.81812,0
85.323,27.81817,0
85.32304,27.81819,0
85.32324,27.81835,0
85.3235,27.81853,0
85.32375,27.81874,0
85.32392,27.81888,0
85.32398,27.81893,0
85.32401,27.81898,0
85.32404,27.81902,0
85.32411,27.81912,0
85.32412,27.81914,0
85.32414,27.81916,0
85.32417,27.8192,0
85.3242,27.81922,0
85.32427,27.81925,0
85.3243,27.81926,0
85.32434,27.81927,0
85.32439,27.81928,0
85.32448,27.81929,0
85.32449,27.81929,0
85.3245,27.8193,0
85.32451,27.81931,0
85.32452,27.81933,0
85.32452,27.81934,0
85.32451,27.81937,0
85.3245,27.81938,0
85.32449,27.8194,0
85.32447,27.81941,0
85.32437,27.81945,0
85.32421,27.81948,0
85.32401,27.8195,0
85.32398,27.8195,0
85.32386,27.81952,0
85.32383,27.81952,0
85.32381,27.81952,0
85.32379,27.81952,0
85.32376,27.81951,0
85.32373,27.8195,0
85.32356,27.81941,0
85.32333,27.81929,0
85.32317,27.81921,0
85.32308,27.81916,0
85.32306,27.81915,0
85.32304,27.81914,0
85.32302,27.81912,0
85.323,27.8191,0
85.32291,27.81903,0
85.32288,27.81901,0
85.32286,27.81899,0
85.32284,27.81897,0
85.32282,27.81895,0
85.32281,27.81894,0
85.32279,27.81892,0
85.32276,27.81891,0
85.32271,27.8189,0
85.32269,27.81891,0
85.32268,27.81891,0
85.32266,27.81891,0
85.32264,27.81893,0
85.32263,27.81894,0
85.32262,27.81897,0
85.32258,27.81922,0
85.32256,27.81938,0
85.32255,27.81945,0
85.32256,27.81946,0
85.32256,27.81948,0
85.32257,27.81952,0
85.32259,27.81957,0
85.32271,27.8197,0
85.32278,27.8198,0
85.32288,27.81997,0
85.32298,27.8201,0
85.32321,27.8203,0
85.32335,27.82043,0
85.32351,27.82052,0
85.32355,27.82054,0
85.32358,27.82055,0
85.32366,27.82058,0
85.3237,27.82059,0
85.32375,27.8206,0
85.32379,27.8206,0
85.32388,27.82059,0
85.32391,27.82058,0
85.32395,27.82058,0
85.32397,27.82057,0
85.32398,27.82057,0
85.32403,27.82056,0
85.3241,27.82056,0
85.32416,27.82055,0
85.32433,27.82051,0
85.32459,27.82043,0
85.32476,27.82039,0
85.32479,27.82037,0
85.32484,27.82035,0
85.32492,27.82029,0
85.32498,27.82025,0
85.32515,27.82016,0
85.32517,27.82015,0
85.32518,27.82013,0
85.3252,27.82011,0
85.32522,27.82008,0
85.32524,27.82004,0
85.32527,27.81996,0
85.32528,27.81993,0
85.32529,27.81991,0
85.32531,27.81988,0
85.32533,27.81986,0
85.32536,27.81983,0
85.3254,27.81981,0
85.32544,27.8198,0
85.32549,27.8198,0
85.32554,27.8198,0
85.32558,27.81981,0
85.32563,27.81982,0
85.32566,27.81982,0
85.32569,27.81982,0
85.32577,27.8198,0
85.32583,27.81978,0
85.32607,27.81977,0
85.3261,27.81978,0
85.32617,27.81979,0
85.32626,27.8198,0
85.32649,27.81984,0
85.32668,27.81992,0
85.32671,27.81993,0
85.32674,27.81995,0
85.32696,27.82005,0
85.32706,27.82007,0
85.3271,27.82007,0
85.32714,27.82008,0
85.32719,27.82007,0
85.32721,27.82007,0
85.32724,27.82007,0
85.32728,27.82006,0
85.32732,27.82005,0
85.32737,27.82004,0
85.32747,27.81998,0
85.32773,27.81981,0
85.32784,27.81976,0
85.32798,27.81972,0
85.328,27.81971,0
85.32803,27.8197,0
85.32805,27.81968,0
85.32808,27.81966,0
85.32811,27.81964,0
85.32817,27.81961,0
85.32819,27.8196,0
85.32823,27.8196,0
85.32828,27.81963,0
85.3283,27.81964,0
85.32832,27.81967,0
85.32839,27.81981,0
85.32851,27.82002,0
85.32861,27.82014,0
85.3287,27.82024,0
85.32873,27.82027,0
85.32875,27.82028,0
85.32879,27.8203,0
85.32881,27.82031,0
85.32884,27.82031,0
85.32887,27.82031,0
85.32891,27.82031,0
85.3293,27.82032,0
85.3297,27.82036,0
85.32983,27.82037,0
85.32986,27.82037,0
85.32988,27.82038,0
85.3299,27.82039,0
85.32991,27.8204,0
85.32991,27.82041,0
85.32992,27.82042,0
85.32992,27.82044,0
85.32991,27.82045,0
85.32991,27.82047,0
85.32987,27.82049,0
85.32985,27.8205,0
85.32983,27.8205,0
85.3298,27.8205,0
85.32975,27.82048,0
85.32968,27.82047,0
85.32963,27.82047,0
85.32942,27.82046,0
85.32923,27.82049,0
85.32918,27.8205,0
85.3289,27.82056,0
85.32887,27.82057,0
85.32885,27.82058,0
85.32884,27.82059,0
85.32883,27.82061,0
85.32883,27.82063,0
85.32882,27.82065,0
85.32883,27.82066,0
85.32884,27.82067,0
85.32885,27.82068,0
85.32886,27.82068,0
85.32888,27.82068,0
85.32891,27.82068,0
85.32894,27.82068,0
85.32898,27.82068,0
85.32902,27.82068,0
85.32911,27.82067,0
85.32914,27.82067,0
85.32926,27.82067,0
85.32934,27.82067,0
85.32947,27.82068,0
85.32954,27.82069,0
85.3296,27.82071,0
85.32988,27.82082,0
85.32992,27.82082,0
85.32997,27.82083,0
85.33001,27.82083,0
85.33006,27.82083,0
85.3301,27.82082,0
85.33014,27.82082,0
85.33017,27.82082,0
85.33019,27.82083,0
85.33022,27.82084,0
85.33024,27.82087,0
85.33026,27.8209,0
85.33027,27.82093,0
85.33029,27.82097,0
85.33032,27.82101,0
85.33034,27.82102,0
85.33037,27.82103,0
85.33041,27.82103,0
85.33047,27.82102,0
85.3305,27.82101,0
85.33053,27.82099,0
85.33056,27.82098,0
85.3306,27.82098,0
85.33062,27.82098,0
85.33064,27.82099,0
85.33069,27.82102,0
85.33072,27.82105,0
85.33074,27.82109,0
85.33076,27.82114,0
85.33077,27.82118,0
85.33078,27.82122,0
85.3308,27.82124,0
85.33084,27.82126,0
85.33088,27.82127,0
85.33094,27.82127,0
85.33108,27.82128,0
85.33111,27.8213,0
85.33115,27.82132,0
85.33121,27.82138,0
85.33122,27.82139,0
85.33123,27.82141,0
85.33124,27.82143,0
85.33124,27.82147,0
85.33124,27.8215,0
85.33123,27.82154,0
85.33124,27.82157,0
85.33128,27.82165,0
85.33132,27.82169,0
85.33145,27.82185,0
85.33148,27.82188,0
85.33153,27.8219,0
85.3316,27.82193,0
85.33172,27.82196,0
85.33195,27.82198,0
85.33221,27.82201,0
85.33222,27.82201,0
85.33229,27.82202,0
85.33233,27.82202,0
85.33241,27.82202,0
85.33248,27.82202,0
85.33253,27.82201,0
85.33259,27.82201,0
85.33263,27.82201,0
85.33266,27.82202,0
85.33272,27.82206,0
85.33274,27.8221,0
85.33275,27.82214,0
85.33276,27.82219,0
85.33277,27.82224,0
85.33279,27.82228,0
85.33283,27.82233,0
85.33288,27.82238,0
85.33293,27.82242,0
85.33294,27.82242,0
85.33314,27.82258,0
85.33348,27.82287,0
85.33376,27.82307,0
85.3338,27.8231,0
85.33399,27.82324,0
85.33401,27.82326,0
85.33403,27.82329,0
85.33406,27.82333,0
85.33415,27.82353,0
85.3342,27.82362,0
85.33424,27.82368,0
85.33428,27.82372,0
85.33433,27.82377,0
85.3345,27.82387,0
85.33454,27.82391,0
85.33459,27.82394,0
85.33466,27.82401,0
85.33473,27.82415,0
85.33484,27.8243,0
85.3349,27.82435,0
85.33509,27.82447,0
85.33523,27.82456,0
85.33552,27.82473,0
85.33576,27.82489,0
85.33591,27.82502,0
85.336,27.82513,0
85.33605,27.82517,0
85.33608,27.8252,0
85.33615,27.82524,0
85.3363,27.82533,0
85.33634,27.82534,0
85.33639,27.82535,0
85.33642,27.82536,0
85.33644,27.82536,0
85.33647,27.82535,0
85.33651,27.82534,0
85.33654,27.82532,0
85.33667,27.82524,0
85.33682,27.82517,0
85.33686,27.82515,0
85.33688,27.82514,0
85.33691,27.82512,0
85.33693,27.8251,0
85.33696,27.82507,0
85.33697,27.82504,0
85.337,27.825,0
85.33701,27.82496,0
85.33701,27.82494,0
85.33702,27.82491,0
85.33701,27.82489,0
85.33701,27.82485,0
85.337,27.82483,0
85.33699,27.82473,0
85.33699,27.82471,0
85.33699,27.82469,0
85.337,27.82465,0
85.33702,27.82462,0
85.33704,27.82459,0
85.33708,27.82456,0
85.33715,27.82453,0
85.33723,27.82448,0
85.33726,27.82446,0
85.33729,27.82444,0
85.3373,27.82443,0
85.33735,27.82438,0
85.33759,27.82416,0
85.33773,27.82403,0
85.33786,27.82392,0
85.3381,27.82371,0
85.33813,27.82369,0
85.33817,27.82367,0
85.3382,27.82366,0
85.33821,27.82366,0
85.33823,27.82365,0
85.33826,27.82365,0
85.33829,27.82364,0
85.33832,27.82363,0
85.33835,27.82361,0
85.33838,27.82359,0
85.3384,27.82356,0
85.33841,27.82354,0
85.33843,27.82349,0
85.33846,27.82345,0
85.33848,27.82342,0
85.33853,27.82336,0
85.33858,27.8233,0
85.33865,27.82325,0
85.33868,27.82322,0
85.3387,27.8232,0
85.33872,27.82318,0
85.33874,27.82315,0
85.33878,27.82299,0
85.33879,27.82293,0
85.3388,27.82289,0
85.33881,27.82285,0
85.33882,27.82281,0
85.33885,27.82273,0
85.33887,27.82269,0
85.33888,27.82266,0
85.3389,27.82263,0
85.33892,27.8226,0
85.33895,27.82258,0
85.33897,27.82257,0
85.33899,27.82255,0
85.339,27.82254,0
85.33902,27.82253,0
85.33903,27.82251,0
85.33903,27.82249,0
85.33903,27.82247,0
85.33903,27.82245,0
85.33903,27.82243,0
85.33901,27.8224,0
85.339,27.82238,0
85.33896,27.82232,0
85.33895,27.8223,0
85.33895,27.82227,0
85.33895,27.82225,0
85.33896,27.82222,0
85.33898,27.82218,0
85.33902,27.82209,0
85.33905,27.82205,0
85.33915,27.8219,0
85.3393,27.82176,0
85.3395,27.82163,0
85.33956,27.8216,0
85.33958,27.82159,0
85.3396,27.82158,0
85.33964,27.82155,0
85.3397,27.8215,0
85.33975,27.82144,0
85.33979,27.82138,0
85.33984,27.82131,0
85.33999,27.82115,0
85.34001,27.82113,0
85.34004,27.82111,0
85.3401,27.82108,0
85.34013,27.82107,0
85.34015,27.82107,0
85.34021,27.82106,0
85.34028,27.82106,0
85.34034,27.82108,0
85.34046,27.82112,0
85.34048,27.82112,0
85.34052,27.82113,0
85.34054,27.82113,0
85.34055,27.82113,0
85.34056,27.82113,0
85.34057,27.82113,0
85.34058,27.82113,0
85.34059,27.82112,0
85.34061,27.8211,0
85.34063,27.82108,0
85.34068,27.82102,0
85.34071,27.82099,0
85.34078,27.82095,0
85.34082,27.82093,0
85.34086,27.82092,0
85.34093,27.82091,0
85.341,27.8209,0
85.34104,27.82089,0
85.34109,27.82089,0
85.34112,27.82088,0
85.34116,27.82086,0
85.34118,27.82085,0
85.34125,27.82078,0
85.34126,27.82077,0
85.34128,27.82074,0
85.34131,27.82071,0
85.34132,27.82069,0
85.34133,27.82067,0
85.34134,27.82066,0
85.34137,27.82065,0
85.34141,27.82064,0
85.34145,27.82064,0
85.34159,27.82065,0
85.34173,27.82067,0
85.34193,27.82071,0
85.34206,27.82072,0
85.34211,27.82072,0
85.34219,27.82071,0
85.34223,27.82071,0
85.34226,27.8207,0
85.34232,27.82067,0
85.34237,27.82064,0
85.3424,27.82062,0
85.34256,27.8205,0
85.34264,27.82045,0
85.34281,27.82036,0
85.34307,27.82021,0
85.3431,27.82019,0
85.34314,27.82017,0
85.34318,27.82015,0
85.34321,27.82014,0
85.34325,27.82013,0
85.34327,27.82013,0
85.34328,27.82013,0
85.34329,27.82014,0
85.34331,27.82015,0
85.34331,27.82016,0
85.34331,27.82018,0
85.34331,27.82021,0
85.3433,27.82024,0
85.34329,27.82028,0
85.34329,27.82031,0
85.34329,27.82035,0
85.34329,27.82036,0
85.3433,27.82038,0
85.34332,27.82042,0
85.34336,27.82046,0
85.34344,27.8205,0
85.3435,27.82051,0
85.34354,27.82053,0
85.34358,27.82054,0
85.34365,27.82059,0
85.34372,27.82064,0
85.34376,27.82071,0
85.34377,27.82075,0
85.34378,27.8208,0
85.34378,27.82085,0
85.3438,27.82089,0
85.34385,27.82095,0
85.34406,27.8212,0
85.34407,27.82121,0
85.3441,27.82124,0
85.34415,27.82129,0
85.34421,27.82135,0
85.34425,27.82138,0
85.34429,27.82142,0
85.34435,27.82146,0
85.34436,27.82149,0
85.34438,27.82151,0
85.34438,27.82153,0
85.34439,27.82155,0
85.34438,27.82158,0
85.34437,27.82161,0
85.34435,27.82164,0
85.34433,27.82167,0
85.34432,27.82168,0
85.34432,27.82171,0
85.34432,27.82173,0
85.34432,27.82176,0
85.34434,27.82177,0
85.34437,27.82179,0
85.34456,27.82191,0
85.34466,27.82201,0
85.3447,27.82206,0
85.34474,27.8221,0
85.34479,27.82217,0
85.34481,27.82223,0
85.34487,27.82238,0
85.34489,27.82242,0
85.34491,27.82246,0
85.34495,27.8225,0
85.34503,27.82258,0
85.34507,27.8226,0
85.34511,27.82262,0
85.34515,27.82265,0
85.34518,27.82269,0
85.34522,27.82274,0
85.34525,27.82281,0
85.34527,27.8229,0
85.34526,27.82297,0
85.34527,27.82302,0
85.34527,27.82303,0
85.34528,27.82305,0
85.34529,27.82306,0
85.34531,27.82308,0
85.34537,27.82311,0
85.34545,27.82314,0
85.34551,27.82317,0
85.34558,27.82319,0
85.34565,27.8232,0
85.34578,27.82322,0
85.34582,27.82322,0
85.34583,27.82323,0
85.34586,27.82325,0
85.34586,27.82327,0
85.34586,27.82331,0
85.34584,27.82335,0
85.34577,27.82348,0
85.34576,27.82352,0
85.34576,27.82354,0
85.34576,27.82355,0
85.34578,27.82357,0
85.34581,27.82361,0
85.34587,27.82366,0
85.34592,27.82369,0
85.34599,27.82373,0
85.34605,27.82377,0
85.34612,27.8238,0
85.34618,27.82382,0
85.34624,27.82387,0
85.34632,27.82392,0
85.34636,27.82395,0
85.34639,27.82399,0
85.34641,27.82401,0
85.34642,27.82405,0
85.34644,27.82413,0
85.34647,27.82435,0
85.34646,27.82451,0
85.34645,27.82456,0
85.34643,27.8247,0
85.34641,27.82486,0
85.3464,27.825,0
85.34639,27.82504,0
85.34637,27.82508,0
85.34632,27.82513,0
85.34628,27.82515,0
85.34625,27.82518,0
85.34622,27.8252,0
85.34619,27.82523,0
85.34618,27.82527,0
85.34618,27.8253,0
85.3462,27.82535,0
85.34621,27.82539,0
85.34625,27.82543,0
85.34628,27.82545,0
85.34631,27.82547,0
85.34633,27.82549,0
85.34637,27.82552,0
85.34643,27.82557,0
85.34645,27.8256,0
85.34652,27.82577,0
85.34654,27.82583,0
85.34655,27.82587,0
85.34655,27.82593,0
85.34651,27.82602,0
85.34646,27.82609,0
85.34629,27.82627,0
85.34623,27.82632,0
85.34622,27.82634,0
85.34621,27.82635,0
85.34621,27.82636,0
85.3462,27.82638,0
85.3462,27.82639,0
85.3462,27.82641,0
85.34621,27.82642,0
85.34622,27.82643,0
85.34623,27.82645,0
85.34625,27.82646,0
85.34628,27.82647,0
85.34632,27.82648,0
85.34635,27.82649,0
85.34644,27.8265,0
85.34651,27.82651,0
85.34658,27.82653,0
85.34663,27.82654,0
85.34668,27.82657,0
85.34674,27.82666,0
85.34675,27.8267,0
85.34676,27.82677,0
85.34678,27.8268,0
85.34681,27.82684,0
85.34691,27.82692,0
85.34701,27.82701,0
85.34705,27.82704,0
85.3471,27.82706,0
85.3472,27.82713,0
85.34722,27.82715,0
85.34723,27.82716,0
85.34725,27.82719,0
85.34727,27.82724,0
85.34728,27.82727,0
85.34729,27.8273,0
85.34731,27.82733,0
85.34733,27.82735,0
85.34736,27.82737,0
85.34739,27.82739,0
85.34745,27.82741,0
85.34746,27.82741,0
85.3475,27.82743,0
85.34755,27.82747,0
85.34757,27.82749,0
85.34759,27.82754,0
85.34761,27.82761,0
85.34763,27.82769,0
85.34764,27.82772,0
85.3477,27.82793,0
85.34772,27.82798,0
85.34776,27.82802,0
85.34782,27.82806,0
85.34784,27.8281,0
85.34787,27.82813,0
85.34789,27.82817,0
85.34791,27.82823,0
85.34791,27.82829,0
85.34791,27.82836,0
85.3479,27.82843,0
85.34792,27.82849,0
85.34793,27.82855,0
85.34794,27.82856,0
85.34796,27.82859,0
85.34799,27.82861,0
85.34803,27.82863,0
85.34808,27.82865,0
85.34809,27.82865,0
85.34815,27.82865,0
85.34821,27.82866,0
85.34827,27.82866,0
85.3486,27.82868,0
85.3487,27.82869,0
85.34904,27.8287,0
85.34909,27.82871,0
85.34914,27.82871,0
85.34918,27.82872,0
85.34922,27.82872,0
85.34928,27.82875,0
85.34929,27.82876,0
85.34931,27.82877,0
85.34933,27.8288,0
85.34935,27.82884,0
85.34936,27.82886,0
85.34936,27.82889,0
85.34936,27.82892,0
85.34936,27.82893,0
85.34935,27.82895,0
85.3493,27.82901,0
85.34923,27.82906,0
85.34917,27.82911,0
85.34912,27.82914,0
85.34906,27.82918,0
85.34901,27.82922,0
85.34899,27.82925,0
85.34897,27.82929,0
85.34897,27.82932,0
85.34896,27.82935,0
85.34895,27.82941,0
85.34898,27.82949,0
85.34905,27.82966,0
85.34917,27.82991,0
85.34922,27.82999,0
85.34927,27.83005,0
85.34937,27.83017,0
85.34944,27.83024,0
85.3495,27.83028,0
85.34965,27.83035,0
85.34971,27.83038,0
85.34975,27.8304,0
85.34979,27.83042,0
85.34982,27.83044,0
85.34982,27.83045,0
85.34983,27.83046,0
85.34984,27.83048,0
85.34984,27.83049,0
85.34983,27.8305,0
85.34977,27.83057,0
85.34972,27.8306,0
85.34967,27.83062,0
85.34963,27.83063,0
85.34959,27.83064,0
85.34957,27.83066,0
85.34956,27.83067,0
85.34955,27.83068,0
85.34955,27.83069,0
85.34955,27.8307,0
85.34955,27.83071,0
85.34957,27.83075,0
85.3496,27.83084,0
85.34967,27.83101,0
85.34969,27.83107,0
85.34972,27.83113,0
85.34975,27.83118,0
85.34978,27.83121,0
85.34983,27.83126,0
85.34993,27.83137,0
85.34996,27.83141,0
85.34998,27.83144,0
85.34999,27.83146,0
85.35005,27.83159,0
85.35007,27.83162,0
85.35008,27.83167,0
85.35008,27.831673,0
</coordinates>
</LineString>
</Placemark>
<Placemark>
<name>Aitaram pati</name>
<styleUrl>#icon-1899-E65100-nodesc</styleUrl>
<Point>
<coordinates>
85.3501023,27.8324619,0
</coordinates>
</Point>
</Placemark>
</Folder>
</Document>
</kml>
