<?xml version="1.0" encoding="UTF-8"?>
<kml xmlns="http://www.opengis.net/kml/2.2">
<Document>
<name>WNW_49.Gadhi Gang View Tower</name>
<description/>
<Style id="icon-1899-DB4436-nodesc-normal">
<IconStyle>
<color>ff3644db</color>
<scale>1</scale>
<Icon>
<href>https://www.gstatic.com/mapspro/images/stock/503-wht-blank_maps.png</href>
</Icon>
<hotSpot x="32" xunits="pixels" y="64" yunits="insetPixels"/>
</IconStyle>
<LabelStyle>
<scale>0</scale>
</LabelStyle>
<BalloonStyle>
<text><![CDATA[<h3>$[name]</h3>]]></text>
</BalloonStyle>
</Style>
<Style id="icon-1899-DB4436-nodesc-highlight">
<IconStyle>
<color>ff3644db</color>
<scale>1</scale>
<Icon>
<href>https://www.gstatic.com/mapspro/images/stock/503-wht-blank_maps.png</href>
</Icon>
<hotSpot x="32" xunits="pixels" y="64" yunits="insetPixels"/>
</IconStyle>
<LabelStyle>
<scale>1</scale>
</LabelStyle>
<BalloonStyle>
<text><![CDATA[<h3>$[name]</h3>]]></text>
</BalloonStyle>
</Style>
<StyleMap id="icon-1899-DB4436-nodesc">
<Pair>
<key>normal</key>
<styleUrl>#icon-1899-DB4436-nodesc-normal</styleUrl>
</Pair>
<Pair>
<key>highlight</key>
<styleUrl>#icon-1899-DB4436-nodesc-highlight</styleUrl>
</Pair>
</StyleMap>
<Style id="line-0000FF-2000-nodesc-normal">
<LineStyle>
<color>ffff0000</color>
<width>2</width>
</LineStyle>
<BalloonStyle>
<text><![CDATA[<h3>$[name]</h3>]]></text>
</BalloonStyle>
</Style>
<Style id="line-0000FF-2000-nodesc-highlight">
<LineStyle>
<color>ffff0000</color>
<width>3</width>
</LineStyle>
<BalloonStyle>
<text><![CDATA[<h3>$[name]</h3>]]></text>
</BalloonStyle>
</Style>
<StyleMap id="line-0000FF-2000-nodesc">
<Pair>
<key>normal</key>
<styleUrl>#line-0000FF-2000-nodesc-normal</styleUrl>
</Pair>
<Pair>
<key>highlight</key>
<styleUrl>#line-0000FF-2000-nodesc-highlight</styleUrl>
</Pair>
</StyleMap>
<Style id="line-00CD00-2000-nodesc-normal">
<LineStyle>
<color>ff00cd00</color>
<width>2</width>
</LineStyle>
<BalloonStyle>
<text><![CDATA[<h3>$[name]</h3>]]></text>
</BalloonStyle>
</Style>
<Style id="line-00CD00-2000-nodesc-highlight">
<LineStyle>
<color>ff00cd00</color>
<width>3</width>
</LineStyle>
<BalloonStyle>
<text><![CDATA[<h3>$[name]</h3>]]></text>
</BalloonStyle>
</Style>
<StyleMap id="line-00CD00-2000-nodesc">
<Pair>
<key>normal</key>
<styleUrl>#line-00CD00-2000-nodesc-normal</styleUrl>
</Pair>
<Pair>
<key>highlight</key>
<styleUrl>#line-00CD00-2000-nodesc-highlight</styleUrl>
</Pair>
</StyleMap>
<Style id="line-F0F000-2000-nodesc-normal">
<LineStyle>
<color>ff00f0f0</color>
<width>2</width>
</LineStyle>
<BalloonStyle>
<text><![CDATA[<h3>$[name]</h3>]]></text>
</BalloonStyle>
</Style>
<Style id="line-F0F000-2000-nodesc-highlight">
<LineStyle>
<color>ff00f0f0</color>
<width>3</width>
</LineStyle>
<BalloonStyle>
<text><![CDATA[<h3>$[name]</h3>]]></text>
</BalloonStyle>
</Style>
<StyleMap id="line-F0F000-2000-nodesc">
<Pair>
<key>normal</key>
<styleUrl>#line-F0F000-2000-nodesc-normal</styleUrl>
</Pair>
<Pair>
<key>highlight</key>
<styleUrl>#line-F0F000-2000-nodesc-highlight</styleUrl>
</Pair>
</StyleMap>
<Style id="line-FF0000-2000-nodesc-normal">
<LineStyle>
<color>ff0000ff</color>
<width>2</width>
</LineStyle>
<BalloonStyle>
<text><![CDATA[<h3>$[name]</h3>]]></text>
</BalloonStyle>
</Style>
<Style id="line-FF0000-2000-nodesc-highlight">
<LineStyle>
<color>ff0000ff</color>
<width>3</width>
</LineStyle>
<BalloonStyle>
<text><![CDATA[<h3>$[name]</h3>]]></text>
</BalloonStyle>
</Style>
<StyleMap id="line-FF0000-2000-nodesc">
<Pair>
<key>normal</key>
<styleUrl>#line-FF0000-2000-nodesc-normal</styleUrl>
</Pair>
<Pair>
<key>highlight</key>
<styleUrl>#line-FF0000-2000-nodesc-highlight</styleUrl>
</Pair>
</StyleMap>
<Folder>
<name>Points</name>
<Placemark>
<name>km00</name>
<styleUrl>#icon-1899-DB4436-nodesc</styleUrl>
<Point>
<coordinates>
85.425739,27.665969,0
</coordinates>
</Point>
</Placemark>
<Placemark>
<name>km01</name>
<styleUrl>#icon-1899-DB4436-nodesc</styleUrl>
<Point>
<coordinates>
85.42375,27.657829,0
</coordinates>
</Point>
</Placemark>
<Placemark>
<name>km02</name>
<styleUrl>#icon-1899-DB4436-nodesc</styleUrl>
<Point>
<coordinates>
85.42711,27.650104,0
</coordinates>
</Point>
</Placemark>
<Placemark>
<name>km03</name>
<styleUrl>#icon-1899-DB4436-nodesc</styleUrl>
<Point>
<coordinates>
85.428184,27.642453,0
</coordinates>
</Point>
</Placemark>
<Placemark>
<name>km04</name>
<styleUrl>#icon-1899-DB4436-nodesc</styleUrl>
<Point>
<coordinates>
85.426869,27.63909,0
</coordinates>
</Point>
</Placemark>
<Placemark>
<name>km05</name>
<styleUrl>#icon-1899-DB4436-nodesc</styleUrl>
<Point>
<coordinates>
85.427516,27.636684,0
</coordinates>
</Point>
</Placemark>
<Placemark>
<name>km06</name>
<styleUrl>#icon-1899-DB4436-nodesc</styleUrl>
<Point>
<coordinates>
85.429335,27.628751,0
</coordinates>
</Point>
</Placemark>
<Placemark>
<name>km07</name>
<styleUrl>#icon-1899-DB4436-nodesc</styleUrl>
<Point>
<coordinates>
85.434446,27.625002,0
</coordinates>
</Point>
</Placemark>
<Placemark>
<name>km08</name>
<styleUrl>#icon-1899-DB4436-nodesc</styleUrl>
<Point>
<coordinates>
85.440773,27.626126,0
</coordinates>
</Point>
</Placemark>
<Placemark>
<name>km09</name>
<styleUrl>#icon-1899-DB4436-nodesc</styleUrl>
<Point>
<coordinates>
85.44375,27.628817,0
</coordinates>
</Point>
</Placemark>
<Placemark>
<name>km00</name>
<styleUrl>#icon-1899-DB4436-nodesc</styleUrl>
<Point>
<coordinates>
85.425584,27.66556,0
</coordinates>
</Point>
</Placemark>
<Placemark>
<name>km01</name>
<styleUrl>#icon-1899-DB4436-nodesc</styleUrl>
<Point>
<coordinates>
85.423586,27.657582,0
</coordinates>
</Point>
</Placemark>
<Placemark>
<name>km02</name>
<styleUrl>#icon-1899-DB4436-nodesc</styleUrl>
<Point>
<coordinates>
85.427472,27.650011,0
</coordinates>
</Point>
</Placemark>
<Placemark>
<name>km03</name>
<styleUrl>#icon-1899-DB4436-nodesc</styleUrl>
<Point>
<coordinates>
85.431765,27.6431,0
</coordinates>
</Point>
</Placemark>
<Placemark>
<name>km04</name>
<styleUrl>#icon-1899-DB4436-nodesc</styleUrl>
<Point>
<coordinates>
85.438152,27.63938,0
</coordinates>
</Point>
</Placemark>
<Placemark>
<name>km05</name>
<styleUrl>#icon-1899-DB4436-nodesc</styleUrl>
<Point>
<coordinates>
85.437835,27.636893,0
</coordinates>
</Point>
</Placemark>
<Placemark>
<name>km06</name>
<styleUrl>#icon-1899-DB4436-nodesc</styleUrl>
<Point>
<coordinates>
85.435904,27.632781,0
</coordinates>
</Point>
</Placemark>
<Placemark>
<name>km07</name>
<styleUrl>#icon-1899-DB4436-nodesc</styleUrl>
<Point>
<coordinates>
85.43649,27.62712,0
</coordinates>
</Point>
</Placemark>
<Placemark>
<name>km08</name>
<styleUrl>#icon-1899-DB4436-nodesc</styleUrl>
<Point>
<coordinates>
85.440916,27.626403,0
</coordinates>
</Point>
</Placemark>
<Placemark>
<name>km09</name>
<styleUrl>#icon-1899-DB4436-nodesc</styleUrl>
<Point>
<coordinates>
85.443835,27.628892,0
</coordinates>
</Point>
</Placemark>
<Placemark>
<name>km0</name>
<styleUrl>#icon-1899-DB4436-nodesc</styleUrl>
<Point>
<coordinates>
85.477774,27.641683,0
</coordinates>
</Point>
</Placemark>
<Placemark>
<name>km1</name>
<styleUrl>#icon-1899-DB4436-nodesc</styleUrl>
<Point>
<coordinates>
85.473162,27.636586,0
</coordinates>
</Point>
</Placemark>
<Placemark>
<name>km2</name>
<styleUrl>#icon-1899-DB4436-nodesc</styleUrl>
<Point>
<coordinates>
85.472696,27.630611,0
</coordinates>
</Point>
</Placemark>
<Placemark>
<name>km3</name>
<styleUrl>#icon-1899-DB4436-nodesc</styleUrl>
<Point>
<coordinates>
85.466632,27.626115,0
</coordinates>
</Point>
</Placemark>
<Placemark>
<name>km4</name>
<styleUrl>#icon-1899-DB4436-nodesc</styleUrl>
<Point>
<coordinates>
85.46145,27.61957,0
</coordinates>
</Point>
</Placemark>
<Placemark>
<name>km5</name>
<styleUrl>#icon-1899-DB4436-nodesc</styleUrl>
<Point>
<coordinates>
85.454085,27.618776,0
</coordinates>
</Point>
</Placemark>
<Placemark>
<name>km6</name>
<styleUrl>#icon-1899-DB4436-nodesc</styleUrl>
<Point>
<coordinates>
85.445556,27.622429,0
</coordinates>
</Point>
</Placemark>
<Placemark>
<name>km7</name>
<styleUrl>#icon-1899-DB4436-nodesc</styleUrl>
<Point>
<coordinates>
85.440145,27.626271,0
</coordinates>
</Point>
</Placemark>
<Placemark>
<name>km8</name>
<styleUrl>#icon-1899-DB4436-nodesc</styleUrl>
<Point>
<coordinates>
85.443835,27.628892,0
</coordinates>
</Point>
</Placemark>
<Placemark>
<name>km00</name>
<styleUrl>#icon-1899-DB4436-nodesc</styleUrl>
<Point>
<coordinates>
85.396787,27.626265,0
</coordinates>
</Point>
</Placemark>
<Placemark>
<name>km01</name>
<styleUrl>#icon-1899-DB4436-nodesc</styleUrl>
<Point>
<coordinates>
85.39803,27.622721,0
</coordinates>
</Point>
</Placemark>
<Placemark>
<name>km02</name>
<styleUrl>#icon-1899-DB4436-nodesc</styleUrl>
<Point>
<coordinates>
85.400469,27.622077,0
</coordinates>
</Point>
</Placemark>
<Placemark>
<name>km03</name>
<styleUrl>#icon-1899-DB4436-nodesc</styleUrl>
<Point>
<coordinates>
85.403519,27.619461,0
</coordinates>
</Point>
</Placemark>
<Placemark>
<name>km04</name>
<styleUrl>#icon-1899-DB4436-nodesc</styleUrl>
<Point>
<coordinates>
85.409405,27.616444,0
</coordinates>
</Point>
</Placemark>
<Placemark>
<name>km05</name>
<styleUrl>#icon-1899-DB4436-nodesc</styleUrl>
<Point>
<coordinates>
85.414695,27.619339,0
</coordinates>
</Point>
</Placemark>
<Placemark>
<name>km06</name>
<styleUrl>#icon-1899-DB4436-nodesc</styleUrl>
<Point>
<coordinates>
85.421369,27.620244,0
</coordinates>
</Point>
</Placemark>
<Placemark>
<name>km07</name>
<styleUrl>#icon-1899-DB4436-nodesc</styleUrl>
<Point>
<coordinates>
85.428512,27.623555,0
</coordinates>
</Point>
</Placemark>
<Placemark>
<name>km08</name>
<styleUrl>#icon-1899-DB4436-nodesc</styleUrl>
<Point>
<coordinates>
85.43547,27.623322,0
</coordinates>
</Point>
</Placemark>
<Placemark>
<name>km09</name>
<styleUrl>#icon-1899-DB4436-nodesc</styleUrl>
<Point>
<coordinates>
85.440877,27.626124,0
</coordinates>
</Point>
</Placemark>
<Placemark>
<name>km10</name>
<styleUrl>#icon-1899-DB4436-nodesc</styleUrl>
<Point>
<coordinates>
85.442333,27.628444,0
</coordinates>
</Point>
</Placemark>
</Folder>
<Folder>
<name>LineStrings</name>
<Placemark>
<name/>
<styleUrl>#line-FF0000-2000-nodesc</styleUrl>
<LineString>
<tessellate>1</tessellate>
<coordinates>
85.425739,27.665969,0
85.426083,27.663309,0
85.426086,27.663309,0
85.42606,27.66251,0
85.426094,27.662201,0
85.426097,27.662176,0
85.426107,27.66208,0
85.426117,27.66199,0
85.42613,27.66187,0
85.42611,27.6615,0
85.425951,27.66021,0
85.42592,27.65996,0
85.42587,27.65982,0
85.42568,27.65961,0
85.42546,27.6592,0
85.42499,27.65891,0
85.42452,27.65841,0
85.424169,27.658221,0
85.424,27.65813,0
85.42366,27.65772,0
85.42351,27.65735,0
85.423436,27.657031,0
85.42344,27.65703,0
85.4237,27.65674,0
85.42386,27.65648,0
85.42392,27.65624,0
85.42395,27.65511,0
85.42399,27.65489,0
85.42448,27.65394,0
85.42485,27.65374,0
85.42512,27.6533,0
85.42541,27.65272,0
85.42626,27.6523,0
85.42678,27.65152,0
85.42698,27.65117,0
85.42708,27.65087,0
85.427019,27.650687,0
85.427015,27.650674,0
85.42701,27.650661,0
85.42693,27.65042,0
85.42718,27.64998,0
85.42744,27.64843,0
85.42779,27.64771,0
85.42781,27.6475,0
85.42787,27.64739,0
85.42805,27.64732,0
85.42837,27.64683,0
85.42846,27.64648,0
85.42882,27.64615,0
85.42898,27.64592,0
85.42874,27.64536,0
85.42889,27.64495,0
85.42884,27.64461,0
85.42883,27.64459,0
85.42867,27.64438,0
85.42841,27.64419,0
85.42835,27.64409,0
85.42853,27.64398,0
85.42894,27.6438,0
85.42897,27.64361,0
85.42878,27.64342,0
85.42843,27.64326,0
85.42831,27.6431,0
85.42834,27.64268,0
85.4281,27.64233,0
85.42822,27.64188,0
85.42804,27.6417,0
85.42771,27.64166,0
85.42756,27.64153,0
85.42746,27.64134,0
85.42707,27.64111,0
85.42696,27.64091,0
85.4265,27.64054,0
85.42698,27.63988,0
85.42752,27.63944,0
85.42756,27.63882,0
85.42848,27.63883,0
85.428928,27.638703,0
85.42915,27.63864,0
85.42909,27.63853,0
85.4288,27.63858,0
85.42854,27.6387,0
85.42832,27.63867,0
85.42805,27.63855,0
85.42778,27.63856,0
85.42727,27.63836,0
85.42713,27.63843,0
85.4271,27.63897,0
85.42688,27.63909,0
85.42661,27.6391,0
85.42648,27.63923,0
85.42628,27.6396,0
85.42608,27.63968,0
85.42571,27.6397,0
85.42556,27.64007,0
85.42535,27.64028,0
85.42535,27.64044,0
85.42554,27.6409,0
85.42561,27.64116,0
85.4255,27.64121,0
85.42533,27.64115,0
85.42545,27.64089,0
85.42509,27.64043,0
85.42512,27.64022,0
85.42534,27.63981,0
85.42545,27.63923,0
85.4257,27.63915,0
85.42597,27.63888,0
85.42611,27.63851,0
85.42628,27.63845,0
85.42634,27.63821,0
85.42629,27.6379,0
85.4265,27.63747,0
85.42672,27.63741,0
85.4269,27.63722,0
85.42706,27.6372,0
85.42726,27.63725,0
85.42747,27.63719,0
85.42753,27.63704,0
85.427486,27.636904,0
85.42745,27.63679,0
85.42755,27.63663,0
85.42758,27.63619,0
85.42786,27.63588,0
85.4282,27.63541,0
85.42849,27.63507,0
85.42875,27.63481,0
85.42908,27.63462,0
85.42913,27.63445,0
85.42911,27.63414,0
85.42922,27.63384,0
85.42933,27.63331,0
85.42949,27.63275,0
85.42964,27.63237,0
85.42961,27.63167,0
85.429644,27.631481,0
85.42969,27.63122,0
85.42969,27.63113,0
85.42967,27.63095,0
85.42948,27.63052,0
85.42923,27.63034,0
85.429013,27.630298,0
85.429018,27.630297,0
85.42905,27.63025,0
85.42894,27.62984,0
85.42895,27.62914,0
85.42909,27.62893,0
85.42926,27.62878,0
85.42947,27.6287,0
85.42939,27.62858,0
85.42886,27.62806,0
85.42874,27.62785,0
85.42875,27.62768,0
85.42887,27.62758,0
85.42929,27.62752,0
85.42944,27.62743,0
85.42945,27.62716,0
85.42958,27.62699,0
85.42957,27.62673,0
85.42969,27.62668,0
85.42982,27.62664,0
85.43102,27.62683,0
85.43115,27.62681,0
85.43115,27.62633,0
85.43103,27.62598,0
85.4313,27.62582,0
85.43127,27.62551,0
85.43191,27.62554,0
85.43204,27.62537,0
85.43223,27.6253,0
85.43239,27.62529,0
85.43244,27.62522,0
85.43244,27.62514,0
85.43245,27.62503,0
85.43261,27.625,0
85.43275,27.62488,0
85.43286,27.62485,0
85.43293,27.6248,0
85.43304,27.6248,0
85.43309,27.62487,0
85.4332,27.62492,0
85.43332,27.62486,0
85.43346,27.62485,0
85.4337,27.62494,0
85.43398,27.62492,0
85.43444,27.625,0
85.4347,27.62507,0
85.43531,27.62502,0
85.43567,27.62483,0
85.43595,27.62483,0
85.43631,27.62471,0
85.43647,27.62464,0
85.43661,27.62462,0
85.43668,27.62467,0
85.4368,27.6249,0
85.43693,27.62505,0
85.4372,27.62514,0
85.43734,27.62519,0
85.43747,27.62518,0
85.43774,27.62521,0
85.437942,27.625149,0
85.43797,27.62514,0
85.438147,27.62514,0
85.43817,27.62513,0
85.43827,27.62511,0
85.43853,27.62492,0
85.43877,27.62484,0
85.43896,27.62481,0
85.43907,27.62488,0
85.43925,27.62514,0
85.4393,27.6252,0
85.43936,27.6252,0
85.4394,27.62517,0
85.43944,27.62516,0
85.43945,27.62514,0
85.43948,27.62501,0
85.43957,27.62491,0
85.43961,27.62479,0
85.43969,27.62469,0
85.43975,27.62466,0
85.44014,27.62464,0
85.44026,27.62468,0
85.44031,27.62484,0
85.44025,27.62485,0
85.44016,27.62476,0
85.43998,27.6248,0
85.44006,27.62484,0
85.44,27.62514,0
85.43987,27.6253,0
85.44,27.62532,0
85.44,27.62536,0
85.44011,27.62546,0
85.4401,27.62568,0
85.44016,27.62571,0
85.44027,27.62556,0
85.44037,27.62559,0
85.44043,27.62571,0
85.44038,27.62571,0
85.44037,27.62584,0
85.44041,27.62598,0
85.44052,27.62607,0
85.44053,27.62612,0
85.44071,27.62607,0
85.44072,27.6261,0
85.44078,27.62613,0
85.44093,27.62612,0
85.44121,27.62631,0
85.4414,27.62649,0
85.44149,27.6267,0
85.44147,27.62686,0
85.44155,27.62703,0
85.44152,27.62712,0
85.44164,27.62715,0
85.44161,27.62726,0
85.44177,27.62728,0
85.44182,27.62738,0
85.44186,27.62775,0
85.44198,27.62789,0
85.44226,27.62795,0
85.44227,27.62804,0
85.4422,27.62817,0
85.44234,27.62846,0
85.44256,27.62853,0
85.44301,27.62856,0
85.44317,27.62859,0
85.44375,27.628817,0
</coordinates>
</LineString>
</Placemark>
<Placemark>
<name/>
<styleUrl>#line-00CD00-2000-nodesc</styleUrl>
<LineString>
<tessellate>1</tessellate>
<coordinates>
85.477774,27.641683,0
85.47777,27.64155,0
85.47777,27.64141,0
85.47778,27.64135,0
85.47778,27.64129,0
85.47779,27.64119,0
85.47782,27.64106,0
85.47785,27.64094,0
85.47791,27.64081,0
85.47799,27.64069,0
85.477988,27.64069,0
85.47798,27.64068,0
85.47797,27.64067,0
85.47795,27.64066,0
85.47794,27.64065,0
85.47792,27.64065,0
85.4779,27.64066,0
85.47787,27.64067,0
85.47785,27.64068,0
85.47784,27.6407,0
85.47783,27.6407,0
85.47781,27.64072,0
85.47779,27.64074,0
85.47774,27.64078,0
85.47772,27.6408,0
85.4777,27.64081,0
85.47768,27.64081,0
85.47763,27.64082,0
85.4776,27.64082,0
85.47755,27.64083,0
85.47751,27.64083,0
85.47749,27.64084,0
85.47743,27.64091,0
85.477435,27.640908,0
85.47733,27.64081,0
85.47731,27.64079,0
85.47728,27.64078,0
85.47727,27.64078,0
85.47726,27.64078,0
85.47725,27.64078,0
85.47724,27.64078,0
85.47723,27.64078,0
85.47722,27.64079,0
85.47719,27.64082,0
85.47718,27.64084,0
85.47717,27.64085,0
85.47716,27.64085,0
85.47715,27.64085,0
85.47714,27.64085,0
85.47714,27.64084,0
85.47713,27.64083,0
85.47713,27.64082,0
85.47713,27.6408,0
85.47712,27.64077,0
85.47713,27.64069,0
85.47714,27.6406,0
85.47715,27.64059,0
85.47715,27.64058,0
85.47714,27.64057,0
85.47713,27.64057,0
85.47712,27.64057,0
85.47711,27.64057,0
85.4771,27.64058,0
85.47709,27.64059,0
85.47707,27.64061,0
85.47705,27.64061,0
85.47705,27.64062,0
85.47704,27.64062,0
85.47704,27.64061,0
85.47703,27.64061,0
85.47703,27.6406,0
85.47704,27.64057,0
85.47704,27.64055,0
85.47704,27.64054,0
85.47703,27.64053,0
85.47702,27.64053,0
85.47701,27.64053,0
85.477,27.64053,0
85.47699,27.64054,0
85.47697,27.64056,0
85.47695,27.64057,0
85.47694,27.64057,0
85.47693,27.64058,0
85.47692,27.64058,0
85.47692,27.64057,0
85.47691,27.64057,0
85.4769,27.64057,0
85.47689,27.64056,0
85.47689,27.64054,0
85.47687,27.64049,0
85.47686,27.64046,0
85.47686,27.64041,0
85.47686,27.64034,0
85.47686,27.64033,0
85.47686,27.64032,0
85.47685,27.64032,0
85.47685,27.64031,0
85.47684,27.64031,0
85.47684,27.64032,0
85.47683,27.64033,0
85.47682,27.64034,0
85.4768,27.64036,0
85.47679,27.64037,0
85.47679,27.64038,0
85.47678,27.64038,0
85.47677,27.64038,0
85.47676,27.64038,0
85.47675,27.64037,0
85.47674,27.64036,0
85.47674,27.64035,0
85.47672,27.64032,0
85.47666,27.64022,0
85.47659,27.64016,0
85.47654,27.64013,0
85.476536,27.640133,0
85.47653,27.64011,0
85.47653,27.64009,0
85.4765,27.64006,0
85.47645,27.64001,0
85.47639,27.63996,0
85.47635,27.63994,0
85.47633,27.63993,0
85.47629,27.63993,0
85.47624,27.63993,0
85.47617,27.63994,0
85.4761,27.63996,0
85.476,27.63996,0
85.47594,27.63996,0
85.47589,27.63995,0
85.47583,27.63994,0
85.47575,27.63992,0
85.47567,27.63989,0
85.47558,27.63984,0
85.47541,27.63977,0
85.47528,27.63973,0
85.47522,27.63971,0
85.4751,27.63967,0
85.47507,27.63965,0
85.47504,27.63963,0
85.47502,27.63961,0
85.47501,27.63959,0
85.47501,27.63955,0
85.47501,27.6395,0
85.475,27.63944,0
85.475,27.63941,0
85.47499,27.63938,0
85.47497,27.63931,0
85.47494,27.63922,0
85.47493,27.63916,0
85.47492,27.63902,0
85.47489,27.63885,0
85.47487,27.63881,0
85.47487,27.6388,0
85.47483,27.63876,0
85.47479,27.63873,0
85.47476,27.63871,0
85.47472,27.63869,0
85.47463,27.63864,0
85.4745,27.63856,0
85.47441,27.63848,0
85.4744,27.63847,0
85.47425,27.63835,0
85.47416,27.63826,0
85.47414,27.63823,0
85.47411,27.63818,0
85.4741,27.63813,0
85.47409,27.6381,0
85.47409,27.63806,0
85.47408,27.63803,0
85.47406,27.63799,0
85.47405,27.63796,0
85.47403,27.63793,0
85.47401,27.63789,0
85.47395,27.63783,0
85.47376,27.63769,0
85.4737,27.63763,0
85.47369,27.63763,0
85.47348,27.63743,0
85.47333,27.63731,0
85.47323,27.63722,0
85.47315,27.63713,0
85.47309,27.63706,0
85.47302,27.63701,0
85.47296,27.63698,0
85.47292,27.63696,0
85.4729,27.63695,0
85.47289,27.63694,0
85.47289,27.63693,0
85.47288,27.63692,0
85.47288,27.63691,0
85.47289,27.63689,0
85.47289,27.63688,0
85.4729,27.63687,0
85.4729,27.63686,0
85.47291,27.63686,0
85.47291,27.63685,0
85.47292,27.63685,0
85.47294,27.63685,0
85.47295,27.63685,0
85.47299,27.63686,0
85.47305,27.63687,0
85.47308,27.63688,0
85.47309,27.63688,0
85.47311,27.63688,0
85.47313,27.63688,0
85.47315,27.63687,0
85.47317,27.63684,0
85.47318,27.63683,0
85.47318,27.63681,0
85.47319,27.63679,0
85.47319,27.63673,0
85.47318,27.63664,0
85.47316,27.63658,0
85.47316,27.63657,0
85.47313,27.63651,0
85.47311,27.63649,0
85.47309,27.63646,0
85.47307,27.63644,0
85.47304,27.63641,0
85.47301,27.63638,0
85.47298,27.63634,0
85.47297,27.6363,0
85.47295,27.63625,0
85.47291,27.63617,0
85.4729,27.63612,0
85.47289,27.63609,0
85.47287,27.63595,0
85.47287,27.63592,0
85.47287,27.63582,0
85.47288,27.63574,0
85.47289,27.63569,0
85.47291,27.63565,0
85.47293,27.63562,0
85.47295,27.6356,0
85.47303,27.6355,0
85.47305,27.63547,0
85.47306,27.63544,0
85.47306,27.63542,0
85.47305,27.63539,0
85.47304,27.63536,0
85.47303,27.63533,0
85.47301,27.6353,0
85.47295,27.63523,0
85.47286,27.63513,0
85.47285,27.63512,0
85.47279,27.63506,0
85.47277,27.63504,0
85.47273,27.63502,0
85.47267,27.63498,0
85.47262,27.63494,0
85.47259,27.63491,0
85.47254,27.63487,0
85.47251,27.63485,0
85.47244,27.6348,0
85.47241,27.63479,0
85.47236,27.63477,0
85.47226,27.63474,0
85.4722,27.63472,0
85.4721,27.63466,0
85.47206,27.63464,0
85.472,27.6346,0
85.47196,27.63458,0
85.47192,27.63456,0
85.47186,27.63454,0
85.47181,27.63451,0
85.47176,27.63449,0
85.47172,27.63447,0
85.47169,27.63445,0
85.47165,27.63442,0
85.47162,27.6344,0
85.47158,27.63437,0
85.47154,27.63434,0
85.47149,27.63433,0
85.47142,27.63432,0
85.47131,27.63432,0
85.47127,27.63431,0
85.47121,27.6343,0
85.47114,27.63428,0
85.47112,27.63427,0
85.4711,27.63426,0
85.47107,27.63425,0
85.47105,27.63423,0
85.47103,27.6342,0
85.47102,27.63418,0
85.47102,27.63415,0
85.47102,27.63412,0
85.47103,27.63407,0
85.47103,27.63405,0
85.47105,27.63403,0
85.47107,27.634,0
85.47109,27.63398,0
85.47112,27.63395,0
85.47114,27.63392,0
85.47117,27.63389,0
85.47122,27.63379,0
85.47129,27.63365,0
85.47137,27.63352,0
85.47139,27.6335,0
85.47142,27.63346,0
85.47143,27.63343,0
85.47143,27.63342,0
85.47143,27.6334,0
85.47143,27.63338,0
85.47143,27.63335,0
85.47143,27.63334,0
85.47142,27.63333,0
85.47142,27.63332,0
85.4714,27.63331,0
85.47138,27.6333,0
85.47136,27.63329,0
85.47131,27.63328,0
85.47124,27.63326,0
85.47111,27.63321,0
85.47102,27.63317,0
85.471,27.63315,0
85.47099,27.63313,0
85.47098,27.63312,0
85.47098,27.63309,0
85.47098,27.63306,0
85.47098,27.63304,0
85.47098,27.63303,0
85.47098,27.633,0
85.47099,27.63296,0
85.471,27.63293,0
85.47101,27.6329,0
85.47103,27.63287,0
85.47106,27.63284,0
85.47109,27.63281,0
85.47112,27.63279,0
85.47116,27.63277,0
85.47119,27.63275,0
85.47123,27.63274,0
85.47125,27.63273,0
85.47127,27.63272,0
85.4713,27.63269,0
85.47131,27.63268,0
85.47133,27.63264,0
85.47133,27.63261,0
85.47133,27.63258,0
85.47133,27.63248,0
85.47132,27.63246,0
85.47132,27.63245,0
85.47132,27.63243,0
85.47132,27.63236,0
85.47133,27.63231,0
85.47134,27.63226,0
85.47138,27.63217,0
85.47142,27.63212,0
85.47145,27.6321,0
85.47151,27.63207,0
85.47159,27.63206,0
85.47164,27.63206,0
85.4717,27.63207,0
85.47174,27.6321,0
85.47178,27.63212,0
85.47179,27.63213,0
85.4718,27.63214,0
85.47181,27.63215,0
85.47185,27.63218,0
85.47188,27.63221,0
85.47191,27.63223,0
85.47194,27.63224,0
85.47196,27.63226,0
85.47197,27.63226,0
85.47199,27.63226,0
85.47203,27.63226,0
85.47209,27.63226,0
85.47212,27.63226,0
85.47216,27.63226,0
85.47219,27.63225,0
85.47225,27.63223,0
85.47228,27.63222,0
85.47231,27.63221,0
85.47232,27.6322,0
85.47235,27.63217,0
85.47238,27.63213,0
85.47242,27.63202,0
85.47244,27.63192,0
85.47246,27.63185,0
85.47246,27.63178,0
85.47245,27.63173,0
85.47244,27.63171,0
85.4724,27.63165,0
85.47238,27.63163,0
85.47237,27.63161,0
85.47237,27.63159,0
85.47237,27.63156,0
85.47237,27.63154,0
85.47238,27.63153,0
85.47239,27.63151,0
85.4724,27.63149,0
85.47241,27.63148,0
85.47243,27.63147,0
85.47247,27.63145,0
85.47265,27.63137,0
85.47272,27.63133,0
85.47279,27.63129,0
85.47283,27.63126,0
85.47292,27.63119,0
85.472919,27.631188,0
85.47286,27.63084,0
85.472859,27.63084,0
85.4728,27.63076,0
85.47275,27.63068,0
85.47261,27.6305,0
85.47258,27.63048,0
85.47256,27.63045,0
85.4725,27.63041,0
85.47248,27.6304,0
85.4724,27.63034,0
85.47226,27.63021,0
85.47224,27.63019,0
85.47222,27.63018,0
85.47218,27.63016,0
85.47214,27.63015,0
85.47209,27.63014,0
85.47191,27.6301,0
85.47184,27.63008,0
85.47181,27.63007,0
85.4718,27.63006,0
85.47179,27.63005,0
85.47177,27.63003,0
85.47174,27.63,0
85.47172,27.62996,0
85.47169,27.62992,0
85.47166,27.6299,0
85.47164,27.62989,0
85.47162,27.62988,0
85.47159,27.62987,0
85.47155,27.62987,0
85.47148,27.62988,0
85.47146,27.62988,0
85.47144,27.62988,0
85.47142,27.62986,0
85.4714,27.62985,0
85.47138,27.62984,0
85.47136,27.62982,0
85.47134,27.6298,0
85.47131,27.62976,0
85.47127,27.62968,0
85.47124,27.62964,0
85.4712,27.62959,0
85.47116,27.62957,0
85.47113,27.62956,0
85.47112,27.62956,0
85.47109,27.62956,0
85.47107,27.62956,0
85.47105,27.62956,0
85.47103,27.62956,0
85.47101,27.62955,0
85.47098,27.62954,0
85.47092,27.6295,0
85.47089,27.62949,0
85.47088,27.62948,0
85.47083,27.62946,0
85.4708,27.62945,0
85.47079,27.62945,0
85.47078,27.62945,0
85.47075,27.62945,0
85.47074,27.62945,0
85.47071,27.62946,0
85.47067,27.62947,0
85.47065,27.62947,0
85.47059,27.62948,0
85.47056,27.62948,0
85.47052,27.62947,0
85.47046,27.62945,0
85.47043,27.62943,0
85.4704,27.62941,0
85.47039,27.6294,0
85.47038,27.62938,0
85.47036,27.62934,0
85.47034,27.62931,0
85.47033,27.62927,0
85.47032,27.62923,0
85.4703,27.62915,0
85.47029,27.62905,0
85.47028,27.62892,0
85.47027,27.62885,0
85.47026,27.62881,0
85.47024,27.62878,0
85.47022,27.62876,0
85.47019,27.62875,0
85.47016,27.62873,0
85.4701,27.62873,0
85.47009,27.62872,0
85.47001,27.62872,0
85.46996,27.62871,0
85.46994,27.6287,0
85.46992,27.62869,0
85.4699,27.62868,0
85.46988,27.62867,0
85.46986,27.62866,0
85.46983,27.62865,0
85.46981,27.62864,0
85.46978,27.62863,0
85.46974,27.62863,0
85.46971,27.62863,0
85.46969,27.62863,0
85.46966,27.62864,0
85.46964,27.62865,0
85.46961,27.62866,0
85.46957,27.62867,0
85.46954,27.62867,0
85.46949,27.62867,0
85.46945,27.62866,0
85.46941,27.62865,0
85.46939,27.62864,0
85.46938,27.62863,0
85.46936,27.62862,0
85.46935,27.6286,0
85.46934,27.6286,0
85.46933,27.62859,0
85.46931,27.62857,0
85.46929,27.62855,0
85.46927,27.62851,0
85.46925,27.62847,0
85.46923,27.6284,0
85.46922,27.62835,0
85.46922,27.62832,0
85.46922,27.62831,0
85.46923,27.62829,0
85.46923,27.62827,0
85.46925,27.62825,0
85.46925,27.62823,0
85.46929,27.62818,0
85.46931,27.62814,0
85.46934,27.62808,0
85.46937,27.62798,0
85.46939,27.62791,0
85.46941,27.62787,0
85.46944,27.62782,0
85.46947,27.62776,0
85.46949,27.62771,0
85.4695,27.62767,0
85.46951,27.62762,0
85.46951,27.6276,0
85.46951,27.62757,0
85.4695,27.62755,0
85.4695,27.62754,0
85.46949,27.62753,0
85.46947,27.62752,0
85.46945,27.6275,0
85.46943,27.62749,0
85.46941,27.62749,0
85.46938,27.62748,0
85.46937,27.62748,0
85.46936,27.62748,0
85.46934,27.62749,0
85.46932,27.6275,0
85.46922,27.62755,0
85.46917,27.62758,0
85.4691,27.6276,0
85.46906,27.62761,0
85.46902,27.62762,0
85.46898,27.62763,0
85.46897,27.62763,0
85.46896,27.62762,0
85.46893,27.62761,0
85.46891,27.6276,0
85.4689,27.62759,0
85.46888,27.62758,0
85.46885,27.62756,0
85.46878,27.62752,0
85.46872,27.62749,0
85.46867,27.62748,0
85.46865,27.62747,0
85.46863,27.62747,0
85.46862,27.62748,0
85.46859,27.62749,0
85.46858,27.6275,0
85.46857,27.62751,0
85.46856,27.62752,0
85.46853,27.62757,0
85.46849,27.62763,0
85.46847,27.62767,0
85.46845,27.6277,0
85.46842,27.62772,0
85.4684,27.62773,0
85.46839,27.62773,0
85.46836,27.62774,0
85.46833,27.62774,0
85.46831,27.62773,0
85.46828,27.62772,0
85.46825,27.6277,0
85.46824,27.62769,0
85.4682,27.62765,0
85.46815,27.62758,0
85.46811,27.62751,0
85.46798,27.62731,0
85.46794,27.62727,0
85.4679,27.62724,0
85.46784,27.6272,0
85.46779,27.62717,0
85.46776,27.62716,0
85.46772,27.62715,0
85.46767,27.62715,0
85.46764,27.62714,0
85.46762,27.62714,0
85.46759,27.62713,0
85.46758,27.62712,0
85.46757,27.62712,0
85.46755,27.62711,0
85.46753,27.6271,0
85.46745,27.62706,0
85.4674,27.62705,0
85.46733,27.62704,0
85.46729,27.62703,0
85.46721,27.62704,0
85.46717,27.62704,0
85.46715,27.62703,0
85.46714,27.62703,0
85.46712,27.62702,0
85.4671,27.62701,0
85.46708,27.627,0
85.46706,27.62696,0
85.46705,27.62694,0
85.46705,27.62693,0
85.46703,27.62688,0
85.46702,27.6268,0
85.467,27.62676,0
85.46698,27.62671,0
85.46695,27.62667,0
85.46692,27.62663,0
85.46692,27.62662,0
85.46692,27.6266,0
85.46691,27.62658,0
85.46691,27.62657,0
85.46691,27.62654,0
85.46691,27.62648,0
85.46692,27.62642,0
85.46691,27.62636,0
85.46691,27.62633,0
85.4669,27.6263,0
85.46688,27.62624,0
85.46686,27.62622,0
85.46684,27.6262,0
85.46681,27.62618,0
85.46677,27.62616,0
85.46669,27.62614,0
85.46664,27.62612,0
85.46659,27.62609,0
85.46654,27.62606,0
85.46653,27.62605,0
85.46652,27.62603,0
85.46651,27.62602,0
85.4665,27.62599,0
85.4665,27.62597,0
85.46649,27.62594,0
85.46648,27.62588,0
85.46649,27.62579,0
85.4665,27.62571,0
85.46651,27.62564,0
85.46651,27.62562,0
85.46651,27.62561,0
85.46651,27.62559,0
85.4665,27.62557,0
85.4665,27.62554,0
85.46649,27.62549,0
85.4665,27.62543,0
85.46651,27.62535,0
85.46652,27.62532,0
85.46652,27.6253,0
85.46651,27.62526,0
85.4665,27.62524,0
85.46649,27.62523,0
85.46649,27.62522,0
85.46644,27.62519,0
85.46641,27.62517,0
85.46638,27.62516,0
85.46633,27.62513,0
85.46629,27.62511,0
85.46625,27.62509,0
85.46616,27.62504,0
85.46612,27.62502,0
85.4661,27.625,0
85.46607,27.62498,0
85.46605,27.62496,0
85.46601,27.6249,0
85.46598,27.62486,0
85.46595,27.62483,0
85.46594,27.62483,0
85.46593,27.62482,0
85.46592,27.62481,0
85.4659,27.6248,0
85.46588,27.6248,0
85.46585,27.62478,0
85.46583,27.62478,0
85.4658,27.62477,0
85.46579,27.62477,0
85.46573,27.62476,0
85.46567,27.62474,0
85.46563,27.62473,0
85.46562,27.62472,0
85.46561,27.62471,0
85.4656,27.6247,0
85.46559,27.6247,0
85.46558,27.62468,0
85.46556,27.62467,0
85.46555,27.62464,0
85.46553,27.6246,0
85.46551,27.62455,0
85.4655,27.6245,0
85.4655,27.62437,0
85.46549,27.62434,0
85.46549,27.62433,0
85.46549,27.62431,0
85.46548,27.62429,0
85.46547,27.62427,0
85.46543,27.62424,0
85.4654,27.62422,0
85.46533,27.62418,0
85.46531,27.62417,0
85.46529,27.62416,0
85.46524,27.62413,0
85.46514,27.62409,0
85.46511,27.62408,0
85.46509,27.62406,0
85.46507,27.62405,0
85.46504,27.62402,0
85.46501,27.62397,0
85.46497,27.62388,0
85.46493,27.62379,0
85.46492,27.62374,0
85.46491,27.62369,0
85.46489,27.62362,0
85.46486,27.62356,0
85.46482,27.62347,0
85.46479,27.62342,0
85.46473,27.62335,0
85.4647,27.62333,0
85.46468,27.6233,0
85.46466,27.62325,0
85.46465,27.62322,0
85.46464,27.62318,0
85.46463,27.6231,0
85.46463,27.62304,0
85.46462,27.62299,0
85.46461,27.62296,0
85.46458,27.62289,0
85.46456,27.62285,0
85.46455,27.62282,0
85.46453,27.62279,0
85.46452,27.62275,0
85.46451,27.62271,0
85.4645,27.62266,0
85.46446,27.62253,0
85.46445,27.62248,0
85.46444,27.62242,0
85.46443,27.62233,0
85.46444,27.62223,0
85.46443,27.62215,0
85.46442,27.6221,0
85.46439,27.62205,0
85.46437,27.62201,0
85.46434,27.62198,0
85.46433,27.62198,0
85.46429,27.62195,0
85.46427,27.62194,0
85.46425,27.62192,0
85.46423,27.62191,0
85.46422,27.6219,0
85.4642,27.62188,0
85.46418,27.62184,0
85.46416,27.62178,0
85.46416,27.62172,0
85.46415,27.62162,0
85.46414,27.62158,0
85.46414,27.62157,0
85.46413,27.62155,0
85.46412,27.62154,0
85.46411,27.62153,0
85.46409,27.62152,0
85.46407,27.62151,0
85.46405,27.62151,0
85.46402,27.6215,0
85.46396,27.62147,0
85.4639,27.62145,0
85.46382,27.62137,0
85.4638,27.62135,0
85.46376,27.62131,0
85.46375,27.62131,0
85.46373,27.6213,0
85.46371,27.62129,0
85.4637,27.62129,0
85.46367,27.62129,0
85.46366,27.6213,0
85.46363,27.6213,0
85.4636,27.62131,0
85.46359,27.62131,0
85.46356,27.62132,0
85.46355,27.62132,0
85.46352,27.62132,0
85.4635,27.62131,0
85.46345,27.62129,0
85.46344,27.62128,0
85.46339,27.62125,0
85.46335,27.62124,0
85.46333,27.62123,0
85.4633,27.62122,0
85.46328,27.62122,0
85.46325,27.62122,0
85.46321,27.62121,0
85.46317,27.6212,0
85.46316,27.6212,0
85.46314,27.62117,0
85.46312,27.62115,0
85.46311,27.62114,0
85.46309,27.62111,0
85.46308,27.62109,0
85.46304,27.62105,0
85.46302,27.62103,0
85.463,27.62101,0
85.46297,27.62098,0
85.46291,27.62093,0
85.46285,27.62088,0
85.4628,27.62083,0
85.46276,27.62079,0
85.46274,27.62074,0
85.46272,27.6207,0
85.46267,27.62062,0
85.46263,27.62054,0
85.46258,27.62046,0
85.46254,27.6204,0
85.4625,27.62034,0
85.46247,27.62031,0
85.46245,27.62029,0
85.46242,27.62027,0
85.46239,27.62025,0
85.46235,27.62023,0
85.46231,27.62022,0
85.46229,27.62021,0
85.46227,27.62021,0
85.46225,27.62021,0
85.46223,27.62021,0
85.46222,27.62021,0
85.46221,27.62021,0
85.4622,27.62022,0
85.46219,27.62024,0
85.46218,27.62025,0
85.46218,27.62026,0
85.46211,27.62028,0
85.46208,27.62029,0
85.46205,27.62029,0
85.46202,27.62028,0
85.46201,27.62027,0
85.46199,27.62026,0
85.46198,27.62023,0
85.46196,27.6202,0
85.46196,27.62017,0
85.46195,27.62014,0
85.46193,27.62009,0
85.46189,27.62005,0
85.46173,27.61987,0
85.46162,27.61976,0
85.4615,27.61962,0
85.46144,27.61956,0
85.46141,27.61953,0
85.4614,27.6195,0
85.46136,27.61943,0
85.46132,27.61934,0
85.46129,27.61926,0
85.46125,27.61918,0
85.46117,27.61908,0
85.4611,27.61901,0
85.46109,27.61901,0
85.46105,27.61898,0
85.46101,27.61895,0
85.46096,27.61892,0
85.46089,27.61891,0
85.46084,27.6189,0
85.46081,27.61889,0
85.46077,27.61887,0
85.46072,27.61885,0
85.4607,27.61884,0
85.46065,27.61881,0
85.46062,27.61877,0
85.46059,27.61871,0
85.46049,27.61857,0
85.460492,27.618567,0
85.46053,27.61847,0
85.460528,27.618475,0
85.46032,27.61845,0
85.4597,27.61864,0
85.459701,27.618641,0
85.4596,27.61895,0
85.4596,27.618948,0
85.45955,27.61895,0
85.45951,27.61895,0
85.45948,27.61894,0
85.45943,27.61894,0
85.45939,27.61893,0
85.45936,27.61892,0
85.45931,27.61892,0
85.45926,27.61892,0
85.45924,27.61892,0
85.45922,27.61893,0
85.45921,27.61893,0
85.45918,27.61893,0
85.45907,27.61895,0
85.45895,27.61895,0
85.45888,27.61895,0
85.45885,27.61894,0
85.45881,27.61894,0
85.45878,27.61894,0
85.45866,27.6189,0
85.45859,27.61888,0
85.45852,27.61887,0
85.45844,27.61886,0
85.45836,27.61885,0
85.45832,27.61885,0
85.4583,27.61885,0
85.45828,27.61885,0
85.45825,27.61884,0
85.45823,27.61883,0
85.4582,27.61883,0
85.45817,27.61882,0
85.45814,27.61882,0
85.45812,27.61882,0
85.45807,27.61882,0
85.45804,27.61882,0
85.45803,27.61883,0
85.45802,27.61883,0
85.458,27.61883,0
85.45797,27.61884,0
85.45795,27.61885,0
85.45791,27.61886,0
85.45773,27.61888,0
85.45723,27.61895,0
85.45708,27.61897,0
85.45703,27.61897,0
85.45701,27.61897,0
85.45697,27.61896,0
85.45694,27.61895,0
85.45691,27.61894,0
85.45677,27.61886,0
85.45667,27.61881,0
85.45659,27.61878,0
85.45654,27.61878,0
85.45653,27.61877,0
85.45652,27.61877,0
85.45651,27.61877,0
85.4565,27.61878,0
85.45647,27.61879,0
85.45645,27.6188,0
85.45643,27.61881,0
85.45641,27.61883,0
85.45638,27.61885,0
85.45636,27.61886,0
85.45635,27.61886,0
85.45633,27.61887,0
85.45632,27.61887,0
85.45631,27.61887,0
85.4563,27.61887,0
85.45629,27.61887,0
85.45626,27.61886,0
85.45623,27.61885,0
85.45619,27.61884,0
85.45616,27.61882,0
85.45614,27.61881,0
85.45612,27.6188,0
85.45607,27.61876,0
85.45591,27.61862,0
85.45583,27.61854,0
85.45576,27.61848,0
85.4557,27.61844,0
85.45566,27.61841,0
85.45562,27.61839,0
85.4556,27.61839,0
85.45556,27.61839,0
85.45552,27.61839,0
85.45549,27.61838,0
85.45545,27.61838,0
85.45537,27.61838,0
85.45529,27.61838,0
85.45528,27.61838,0
85.45523,27.61838,0
85.45517,27.61838,0
85.4551,27.6184,0
85.45507,27.61842,0
85.45505,27.61843,0
85.45502,27.61844,0
85.45498,27.61847,0
85.45496,27.61849,0
85.45494,27.6185,0
85.4549,27.61855,0
85.45488,27.61858,0
85.45486,27.61863,0
85.45485,27.61868,0
85.45486,27.61877,0
85.45487,27.61886,0
85.45489,27.61894,0
85.4549,27.61904,0
85.4549,27.61911,0
85.45492,27.61917,0
85.45492,27.61921,0
85.45491,27.61922,0
85.4549,27.61924,0
85.45489,27.61925,0
85.45488,27.61926,0
85.45487,27.61926,0
85.45487,27.61927,0
85.45486,27.61927,0
85.45484,27.61926,0
85.45483,27.61926,0
85.45481,27.61925,0
85.454814,27.619252,0
85.45478,27.61923,0
85.45476,27.61921,0
85.45474,27.61918,0
85.45473,27.61915,0
85.45469,27.61906,0
85.45464,27.6189,0
85.45459,27.6188,0
85.45456,27.61875,0
85.45452,27.6187,0
85.45449,27.61868,0
85.45448,27.61867,0
85.45447,27.61867,0
85.45444,27.61867,0
85.45442,27.61867,0
85.4544,27.61867,0
85.45437,27.61868,0
85.45435,27.61869,0
85.4543,27.61871,0
85.45426,27.61873,0
85.45423,27.61874,0
85.45419,27.61875,0
85.45412,27.61877,0
85.45401,27.61879,0
85.45391,27.61883,0
85.45384,27.61885,0
85.45378,27.61886,0
85.45372,27.61886,0
85.45367,27.61886,0
85.4536,27.61884,0
85.45349,27.61883,0
85.45345,27.61883,0
85.45341,27.61883,0
85.4534,27.61884,0
85.45337,27.61885,0
85.45336,27.61886,0
85.45335,27.61888,0
85.45333,27.6189,0
85.4533,27.61897,0
85.453298,27.61897,0
85.45327,27.61902,0
85.45324,27.61906,0
85.45322,27.61908,0
85.4532,27.61909,0
85.45319,27.61909,0
85.45317,27.61909,0
85.45316,27.61909,0
85.45313,27.61909,0
85.45309,27.61908,0
85.45307,27.61907,0
85.45304,27.61906,0
85.45301,27.61905,0
85.45298,27.61903,0
85.45296,27.61902,0
85.45294,27.61901,0
85.45292,27.61901,0
85.4529,27.61901,0
85.45287,27.61902,0
85.45284,27.61903,0
85.45281,27.61905,0
85.45279,27.61906,0
85.45278,27.61907,0
85.45276,27.6191,0
85.45274,27.61912,0
85.45273,27.61912,0
85.45272,27.61913,0
85.4527,27.61913,0
85.45266,27.61913,0
85.45265,27.61913,0
85.45263,27.61913,0
85.45262,27.61913,0
85.4526,27.61912,0
85.45255,27.61911,0
85.45253,27.61911,0
85.45249,27.6191,0
85.45247,27.6191,0
85.45243,27.6191,0
85.4524,27.6191,0
85.45239,27.6191,0
85.45237,27.61911,0
85.45234,27.61912,0
85.4523,27.61913,0
85.45229,27.61914,0
85.45225,27.61916,0
85.45223,27.61918,0
85.45221,27.6192,0
85.45218,27.61922,0
85.45214,27.61924,0
85.45211,27.61926,0
85.45209,27.61927,0
85.45205,27.61928,0
85.45199,27.61929,0
85.45189,27.61929,0
85.45182,27.61932,0
85.45175,27.61935,0
85.4517,27.61938,0
85.45168,27.61939,0
85.45165,27.6194,0
85.45162,27.61942,0
85.4516,27.61944,0
85.45157,27.61946,0
85.45155,27.61948,0
85.45154,27.6195,0
85.45152,27.61953,0
85.4515,27.61954,0
85.45147,27.61957,0
85.45145,27.61959,0
85.45144,27.61961,0
85.45143,27.61961,0
85.45142,27.61962,0
85.45141,27.61963,0
85.4514,27.61963,0
85.45136,27.61965,0
85.45118,27.61967,0
85.45113,27.61969,0
85.45109,27.6197,0
85.45107,27.61971,0
85.45105,27.61973,0
85.45102,27.61975,0
85.45094,27.6198,0
85.45071,27.61995,0
85.45059,27.62003,0
85.45052,27.62008,0
85.45045,27.62012,0
85.45039,27.62016,0
85.45034,27.62019,0
85.45023,27.62024,0
85.45022,27.62024,0
85.4502,27.62025,0
85.45014,27.62028,0
85.44998,27.6204,0
85.44987,27.62047,0
85.44973,27.62053,0
85.44967,27.62055,0
85.44962,27.62056,0
85.44955,27.62058,0
85.44946,27.6206,0
85.44936,27.62061,0
85.4492,27.62066,0
85.44913,27.62069,0
85.44911,27.62069,0
85.44904,27.62073,0
85.449,27.62077,0
85.4489,27.62093,0
85.44884,27.621,0
85.44882,27.62101,0
85.44881,27.62102,0
85.4488,27.62103,0
85.44878,27.62104,0
85.44874,27.62104,0
85.4487,27.62105,0
85.44867,27.62105,0
85.4486,27.62106,0
85.44854,27.62108,0
85.44836,27.62111,0
85.44831,27.62112,0
85.44827,27.62113,0
85.44823,27.62113,0
85.44822,27.62112,0
85.44819,27.62112,0
85.44817,27.62112,0
85.44814,27.62111,0
85.44811,27.6211,0
85.44808,27.62109,0
85.44798,27.62109,0
85.44792,27.6211,0
85.44788,27.62111,0
85.44784,27.62112,0
85.44782,27.62114,0
85.4478,27.62116,0
85.44778,27.62117,0
85.44777,27.62118,0
85.44777,27.6212,0
85.44776,27.62123,0
85.44775,27.6213,0
85.44774,27.62133,0
85.44774,27.62135,0
85.44773,27.62137,0
85.44772,27.62138,0
85.44772,27.62139,0
85.44771,27.6214,0
85.44769,27.62142,0
85.44764,27.62146,0
85.44763,27.62147,0
85.44759,27.62148,0
85.44757,27.62149,0
85.44755,27.6215,0
85.44751,27.62152,0
85.44743,27.62155,0
85.44736,27.62159,0
85.44724,27.62167,0
85.447,27.6218,0
85.44676,27.62194,0
85.44659,27.62204,0
85.44643,27.62209,0
85.44627,27.62212,0
85.44616,27.62214,0
85.44615,27.62215,0
85.44613,27.62216,0
85.4461,27.62217,0
85.44605,27.62219,0
85.44598,27.62224,0
85.44593,27.62227,0
85.44588,27.62232,0
85.44583,27.62235,0
85.44578,27.62237,0
85.44564,27.62241,0
85.44551,27.62244,0
85.44544,27.62245,0
85.44537,27.62245,0
85.44531,27.62246,0
85.44524,27.62247,0
85.4452,27.62249,0
85.44514,27.6225,0
85.44506,27.6225,0
85.44503,27.6225,0
85.44501,27.62249,0
85.445,27.62249,0
85.44494,27.62248,0
85.44487,27.62247,0
85.4448,27.62247,0
85.44474,27.62248,0
85.44469,27.6225,0
85.44465,27.62252,0
85.44459,27.62254,0
85.44443,27.6226,0
85.44435,27.62264,0
85.44408,27.62285,0
85.44399,27.62293,0
85.44399,27.62294,0
85.44393,27.62298,0
85.44391,27.623,0
85.44388,27.62301,0
85.44384,27.62301,0
85.44376,27.62301,0
85.44368,27.62301,0
85.44356,27.62299,0
85.44346,27.62299,0
85.44338,27.62299,0
85.44332,27.62299,0
85.44326,27.623,0
85.44322,27.623,0
85.44321,27.62301,0
85.44319,27.62301,0
85.44318,27.62301,0
85.44316,27.62302,0
85.44313,27.62305,0
85.44293,27.62319,0
85.44288,27.62322,0
85.44283,27.62326,0
85.44277,27.62329,0
85.44268,27.62334,0
85.44262,27.62336,0
85.44251,27.6234,0
85.44241,27.62341,0
85.44234,27.62342,0
85.44227,27.62343,0
85.44218,27.62342,0
85.4421,27.62342,0
85.44202,27.62343,0
85.44197,27.62345,0
85.4419,27.62347,0
85.44175,27.6235,0
85.44167,27.62352,0
85.44161,27.62356,0
85.44159,27.62357,0
85.44157,27.6236,0
85.44154,27.62363,0
85.44151,27.62366,0
85.44148,27.62368,0
85.44145,27.6237,0
85.4414,27.62373,0
85.44134,27.62375,0
85.44126,27.62377,0
85.44116,27.62378,0
85.44103,27.62378,0
85.44102,27.62378,0
85.44101,27.62378,0
85.44093,27.62378,0
85.44082,27.6238,0
85.44076,27.62382,0
85.44071,27.62385,0
85.44063,27.62391,0
85.44051,27.62396,0
85.44038,27.62399,0
85.44029,27.624,0
85.44015,27.62402,0
85.4401,27.62403,0
85.44009,27.62404,0
85.44007,27.62406,0
85.44005,27.62408,0
85.44001,27.62412,0
85.43999,27.62416,0
85.43996,27.62418,0
85.43992,27.62421,0
85.43985,27.62425,0
85.4398,27.62427,0
85.43973,27.6243,0
85.43959,27.62434,0
85.43957,27.62435,0
85.43955,27.62435,0
85.43947,27.62439,0
85.43944,27.62441,0
85.43942,27.62443,0
85.4394,27.62446,0
85.43939,27.62448,0
85.43938,27.62451,0
85.43937,27.62455,0
85.43936,27.6246,0
85.43935,27.6246,0
85.43935,27.62462,0
85.43934,27.6247,0
85.43935,27.62482,0
85.43936,27.62489,0
85.43939,27.62498,0
85.43942,27.62513,0
85.43943,27.62515,0
85.43946,27.62524,0
85.43948,27.6253,0
85.43956,27.6254,0
85.43961,27.62548,0
85.43965,27.62558,0
85.43972,27.6258,0
85.43978,27.62606,0
85.43978,27.62607,0
85.43979,27.62618,0
85.43979,27.62622,0
85.4398,27.62625,0
85.43982,27.62629,0
85.43983,27.62634,0
85.43986,27.62638,0
85.4399,27.62642,0
85.43994,27.62646,0
85.43999,27.62648,0
85.44003,27.62651,0
85.44006,27.62653,0
85.44011,27.62659,0
85.44016,27.62664,0
85.44018,27.62665,0
85.44019,27.62665,0
85.44021,27.62665,0
85.44022,27.62665,0
85.44023,27.62665,0
85.44024,27.62665,0
85.44024,27.62664,0
85.44025,27.62664,0
85.44025,27.62663,0
85.44026,27.62662,0
85.44026,27.62661,0
85.44026,27.6266,0
85.44026,27.62658,0
85.44026,27.62657,0
85.44025,27.62655,0
85.44022,27.62651,0
85.4402,27.62646,0
85.44018,27.62642,0
85.44017,27.62636,0
85.44013,27.62622,0
85.44009,27.62605,0
85.44005,27.62586,0
85.44004,27.62569,0
85.44005,27.62565,0
85.44005,27.62564,0
85.44006,27.6256,0
85.44007,27.62558,0
85.44008,27.62556,0
85.4401,27.62554,0
85.44012,27.62552,0
85.44014,27.6255,0
85.44017,27.62548,0
85.44019,27.62547,0
85.44021,27.62546,0
85.44022,27.62546,0
85.44025,27.62547,0
85.44026,27.62547,0
85.44028,27.62548,0
85.44029,27.62548,0
85.4403,27.62549,0
85.44031,27.6255,0
85.44031,27.62551,0
85.44031,27.62552,0
85.44032,27.62553,0
85.44032,27.62558,0
85.44031,27.6256,0
85.4403,27.62561,0
85.44029,27.62562,0
85.44028,27.62563,0
85.44026,27.62564,0
85.44025,27.62566,0
85.44024,27.62566,0
85.44023,27.62567,0
85.44022,27.62568,0
85.44021,27.62569,0
85.44021,27.62571,0
85.44021,27.62572,0
85.44021,27.62573,0
85.44022,27.62575,0
85.44022,27.62576,0
85.44023,27.6258,0
85.44027,27.62587,0
85.4403,27.62595,0
85.44033,27.62601,0
85.44034,27.62603,0
85.44034,27.62604,0
85.44035,27.62605,0
85.44035,27.62606,0
85.44037,27.62607,0
85.44039,27.62609,0
85.44042,27.62611,0
85.44045,27.62612,0
85.44047,27.62613,0
85.44051,27.62614,0
85.44054,27.62614,0
85.44058,27.62615,0
85.4406,27.62616,0
85.44063,27.62617,0
85.44066,27.62618,0
85.4407,27.6262,0
85.44076,27.62629,0
85.44078,27.62631,0
85.44081,27.62636,0
85.44084,27.62644,0
85.44085,27.62648,0
85.44087,27.62652,0
85.44087,27.62653,0
85.44088,27.62654,0
85.44089,27.62655,0
85.4409,27.62655,0
85.44091,27.62656,0
85.44092,27.62657,0
85.44093,27.62657,0
85.44094,27.62657,0
85.44095,27.62657,0
85.44095,27.62656,0
85.44095,27.62655,0
85.44096,27.62654,0
85.44095,27.62652,0
85.44095,27.62649,0
85.44092,27.62643,0
85.44091,27.62636,0
85.4409,27.62635,0
85.44091,27.62634,0
85.44091,27.62633,0
85.44091,27.62632,0
85.44091,27.6263,0
85.44092,27.62628,0
85.44092,27.62627,0
85.44093,27.62626,0
85.44094,27.62625,0
85.44095,27.62625,0
85.44096,27.62625,0
85.44097,27.62625,0
85.44098,27.62626,0
85.44099,27.62626,0
85.441,27.62627,0
85.441,27.62629,0
85.44101,27.62629,0
85.44102,27.62632,0
85.44103,27.62639,0
85.44104,27.62654,0
85.44104,27.62664,0
85.44104,27.62666,0
85.44105,27.62675,0
85.44106,27.62678,0
85.44106,27.62679,0
85.44107,27.62681,0
85.44108,27.62683,0
85.44108,27.62685,0
85.44108,27.62686,0
85.4411,27.62692,0
85.44112,27.62719,0
85.44111,27.62738,0
85.44108,27.62769,0
85.44107,27.62772,0
85.44106,27.62776,0
85.44106,27.6278,0
85.44106,27.62784,0
85.44106,27.62787,0
85.44106,27.62789,0
85.44106,27.6279,0
85.44107,27.62792,0
85.44109,27.62795,0
85.44111,27.62799,0
85.44113,27.62801,0
85.44116,27.62804,0
85.44118,27.62807,0
85.4412,27.62808,0
85.44122,27.6281,0
85.44124,27.6281,0
85.44125,27.6281,0
85.44126,27.6281,0
85.44126,27.62809,0
85.44127,27.62809,0
85.44128,27.62808,0
85.44128,27.62807,0
85.44128,27.62806,0
85.44129,27.62805,0
85.44129,27.62804,0
85.44129,27.62803,0
85.44128,27.62802,0
85.44127,27.62799,0
85.44124,27.62794,0
85.44123,27.62792,0
85.44121,27.62789,0
85.4412,27.62787,0
85.4412,27.62785,0
85.4412,27.62783,0
85.4412,27.62781,0
85.4412,27.6278,0
85.44121,27.62779,0
85.44122,27.62777,0
85.44124,27.62775,0
85.44125,27.62772,0
85.44127,27.62771,0
85.44127,27.6277,0
85.44129,27.62768,0
85.44131,27.62766,0
85.44132,27.62763,0
85.44133,27.62761,0
85.44134,27.62757,0
85.44135,27.62753,0
85.44136,27.62751,0
85.44137,27.6275,0
85.44138,27.62749,0
85.44139,27.62748,0
85.4414,27.62748,0
85.44141,27.62747,0
85.44142,27.62747,0
85.44145,27.62747,0
85.44146,27.62748,0
85.44148,27.62748,0
85.44149,27.62749,0
85.4415,27.6275,0
85.441495,27.627496,0
85.44151,27.62751,0
85.44152,27.62752,0
85.44154,27.62754,0
85.44157,27.62759,0
85.4416,27.62767,0
85.44164,27.62771,0
85.44167,27.62775,0
85.44168,27.62776,0
85.44169,27.62777,0
85.4417,27.62777,0
85.44172,27.62778,0
85.44176,27.62779,0
85.44179,27.6278,0
85.44183,27.6278,0
85.44186,27.62781,0
85.44189,27.62782,0
85.44192,27.62783,0
85.44193,27.62784,0
85.44194,27.62785,0
85.44195,27.62785,0
85.44196,27.62786,0
85.44196,27.62787,0
85.44197,27.62787,0
85.44198,27.62789,0
85.44198,27.62792,0
85.44198,27.62795,0
85.44198,27.62797,0
85.44198,27.62799,0
85.44198,27.62801,0
85.44198,27.62803,0
85.44199,27.62806,0
85.442,27.62808,0
85.44202,27.62814,0
85.44209,27.62826,0
85.44215,27.62835,0
85.44218,27.62839,0
85.4422,27.62842,0
85.44224,27.62844,0
85.44226,27.62845,0
85.44228,27.62846,0
85.44231,27.62847,0
85.44234,27.62849,0
85.44236,27.6285,0
85.44239,27.62852,0
85.44241,27.62853,0
85.44244,27.62854,0
85.44248,27.62855,0
85.44252,27.62855,0
85.44253,27.62856,0
85.44255,27.62855,0
85.44256,27.62855,0
85.44259,27.62854,0
85.44262,27.62852,0
85.44267,27.6285,0
85.44274,27.62848,0
85.44281,27.62846,0
85.44288,27.62845,0
85.44293,27.62845,0
85.44297,27.62845,0
85.443,27.62846,0
85.44312,27.62852,0
85.44315,27.62853,0
85.44318,27.62856,0
85.44319,27.62856,0
85.44323,27.62859,0
85.44326,27.6286,0
85.4433,27.62863,0
85.44334,27.62866,0
85.44338,27.62868,0
85.44341,27.62871,0
85.44343,27.62873,0
85.44362,27.62885,0
85.44376,27.62891,0
85.44379,27.62892,0
85.4438,27.62892,0
85.44381,27.62892,0
85.44382,27.62891,0
85.44383,27.6289,0
85.44383,27.62889,0
85.443835,27.628892,0
</coordinates>
</LineString>
</Placemark>
<Placemark>
<name/>
<styleUrl>#line-F0F000-2000-nodesc</styleUrl>
<LineString>
<tessellate>1</tessellate>
<coordinates>
85.425584,27.66556,0
85.42557,27.66515,0
85.42557,27.66512,0
85.42556,27.66494,0
85.42556,27.66482,0
85.42556,27.66477,0
85.42557,27.66472,0
85.42559,27.66466,0
85.42562,27.6646,0
85.42595,27.6642,0
85.42597,27.66418,0
85.426,27.66412,0
85.42603,27.66406,0
85.42606,27.66395,0
85.42607,27.66389,0
85.42606,27.6638,0
85.42605,27.66358,0
85.42604,27.66304,0
85.42604,27.66286,0
85.42605,27.66258,0
85.42605,27.66227,0
85.42606,27.6622,0
85.42607,27.66216,0
85.42608,27.66209,0
85.42608,27.66207,0
85.4261,27.66193,0
85.4261,27.66181,0
85.4261,27.66179,0
85.42609,27.66151,0
85.42604,27.66118,0
85.42601,27.661,0
85.42597,27.66076,0
85.42597,27.66074,0
85.42596,27.66065,0
85.42594,27.66049,0
85.42591,27.66019,0
85.4259,27.66002,0
85.42589,27.65996,0
85.42588,27.65991,0
85.42586,27.65986,0
85.42583,27.65981,0
85.42574,27.65971,0
85.42565,27.65957,0
85.42558,27.65944,0
85.42555,27.65938,0
85.42553,27.65934,0
85.42548,27.65921,0
85.42543,27.65918,0
85.42534,27.65912,0
85.42531,27.65911,0
85.42519,27.65905,0
85.42517,27.65904,0
85.42509,27.65898,0
85.42501,27.65892,0
85.42497,27.65889,0
85.42487,27.6588,0
85.42477,27.65871,0
85.42467,27.65862,0
85.42461,27.65855,0
85.42453,27.65846,0
85.42446,27.6584,0
85.42445,27.65839,0
85.42436,27.65833,0
85.42425,27.65829,0
85.42417,27.65826,0
85.42407,27.6582,0
85.42392,27.6581,0
85.42382,27.65802,0
85.4238,27.658,0
85.42376,27.65795,0
85.42371,27.65789,0
85.42362,27.65767,0
85.42347,27.65728,0
85.42343,27.65706,0
85.423428,27.657059,0
85.42343,27.65705,0
85.42367,27.6568,0
85.42373,27.65671,0
85.42381,27.6566,0
85.42382,27.65658,0
85.42386,27.65645,0
85.42387,27.65643,0
85.42389,27.65632,0
85.4239,27.65624,0
85.4239,27.65617,0
85.42389,27.65609,0
85.42389,27.65607,0
85.42388,27.65601,0
85.4239,27.65583,0
85.42392,27.65554,0
85.42392,27.65522,0
85.42396,27.65512,0
85.42399,27.65502,0
85.424,27.65501,0
85.42405,27.65487,0
85.42408,27.65477,0
85.42414,27.65468,0
85.4242,27.65458,0
85.42426,27.65447,0
85.42433,27.65423,0
85.42435,27.65417,0
85.4244,27.65403,0
85.42442,27.65401,0
85.42445,27.65396,0
85.42446,27.65395,0
85.42456,27.65388,0
85.42472,27.65376,0
85.42477,27.65373,0
85.42494,27.65358,0
85.42501,27.65349,0
85.42503,27.65345,0
85.42506,27.65341,0
85.42508,27.65335,0
85.42509,27.65334,0
85.42512,27.65327,0
85.4252,27.65313,0
85.42528,27.65297,0
85.42536,27.65281,0
85.4254,27.65274,0
85.42544,27.65271,0
85.42544,27.6527,0
85.42545,27.65269,0
85.4255,27.65265,0
85.4258,27.65251,0
85.42604,27.65238,0
85.42614,27.65233,0
85.4262,27.65229,0
85.42628,27.65225,0
85.42633,27.65221,0
85.42642,27.65209,0
85.42642,27.65208,0
85.42644,27.65205,0
85.42656,27.65189,0
85.42665,27.65178,0
85.4267,27.65172,0
85.42676,27.65164,0
85.42681,27.65158,0
85.42685,27.65154,0
85.42692,27.65142,0
85.42696,27.65132,0
85.42697,27.65129,0
85.42698,27.65126,0
85.42699,27.65123,0
85.42703,27.65117,0
85.42703,27.65116,0
85.42707,27.65105,0
85.42708,27.65097,0
85.4271,27.65085,0
85.42704,27.65072,0
85.42699,27.65064,0
85.426994,27.650644,0
85.42707,27.65063,0
85.42714,27.6506,0
85.42723,27.65054,0
85.42732,27.65047,0
85.42739,27.65038,0
85.42741,27.65033,0
85.42743,27.65029,0
85.42744,27.65025,0
85.42745,27.6502,0
85.42745,27.6501,0
85.42748,27.64998,0
85.42748,27.64996,0
85.42752,27.64982,0
85.42753,27.64968,0
85.42758,27.64955,0
85.42763,27.64948,0
85.42769,27.64944,0
85.42776,27.6494,0
85.42785,27.64938,0
85.42794,27.64935,0
85.42801,27.64932,0
85.42805,27.6493,0
85.42808,27.64927,0
85.42814,27.64918,0
85.4282,27.64903,0
85.42827,27.64881,0
85.42829,27.64868,0
85.42833,27.64849,0
85.42837,27.64838,0
85.4284,27.64832,0
85.42846,27.64826,0
85.42852,27.6482,0
85.42853,27.64819,0
85.42863,27.64808,0
85.4287,27.64797,0
85.42874,27.64786,0
85.42875,27.64775,0
85.42872,27.64757,0
85.42871,27.64742,0
85.42874,27.64728,0
85.42877,27.64723,0
85.4288,27.6472,0
85.42884,27.64717,0
85.42889,27.64713,0
85.429,27.64708,0
85.42917,27.64699,0
85.4293,27.6469,0
85.42934,27.64685,0
85.42938,27.64678,0
85.42943,27.64655,0
85.42952,27.64642,0
85.42967,27.64618,0
85.42975,27.64603,0
85.42979,27.64592,0
85.42979,27.64589,0
85.4298,27.64579,0
85.4298,27.64575,0
85.42978,27.64571,0
85.42973,27.64565,0
85.42968,27.6456,0
85.42966,27.64557,0
85.42966,27.64554,0
85.42966,27.64546,0
85.42969,27.64537,0
85.42977,27.64521,0
85.42983,27.6451,0
85.42984,27.64509,0
85.42987,27.64505,0
85.42991,27.64502,0
85.42997,27.64499,0
85.43003,27.64498,0
85.43015,27.64499,0
85.4302,27.64499,0
85.43031,27.645,0
85.43044,27.64501,0
85.43052,27.64499,0
85.43061,27.64497,0
85.4307,27.64492,0
85.43077,27.64486,0
85.43083,27.64478,0
85.43088,27.64471,0
85.43091,27.64465,0
85.43092,27.64458,0
85.43091,27.64448,0
85.43089,27.64437,0
85.43089,27.64436,0
85.43088,27.64426,0
85.43089,27.64417,0
85.43091,27.64413,0
85.43094,27.64408,0
85.43098,27.64405,0
85.43103,27.64402,0
85.43119,27.64399,0
85.4312,27.64398,0
85.43127,27.64397,0
85.43134,27.64396,0
85.43141,27.64394,0
85.43148,27.64391,0
85.4315,27.6439,0
85.43159,27.64381,0
85.43164,27.64371,0
85.43166,27.64364,0
85.43165,27.64354,0
85.43161,27.64341,0
85.43158,27.64332,0
85.43159,27.64325,0
85.43161,27.64321,0
85.43162,27.64319,0
85.43162,27.643188,0
85.43162,27.64318,0
85.43165,27.64315,0
85.4317,27.64312,0
85.4318,27.64309,0
85.4319,27.64306,0
85.432,27.64304,0
85.43212,27.64305,0
85.43213,27.64305,0
85.43229,27.64308,0
85.43233,27.64309,0
85.43251,27.64313,0
85.43274,27.64323,0
85.43289,27.64329,0
85.433,27.64349,0
85.43303,27.64355,0
85.433034,27.643548,0
85.43317,27.64354,0
85.43332,27.64349,0
85.43351,27.64341,0
85.43362,27.64337,0
85.43367,27.64335,0
85.43373,27.64333,0
85.43379,27.64331,0
85.43383,27.64328,0
85.43384,27.64327,0
85.43385,27.64325,0
85.43386,27.64323,0
85.43388,27.64319,0
85.43389,27.64314,0
85.43388,27.6431,0
85.43388,27.64309,0
85.43388,27.64305,0
85.43385,27.643,0
85.43382,27.64295,0
85.43377,27.64288,0
85.43374,27.64285,0
85.43374,27.64284,0
85.43374,27.64283,0
85.43374,27.64282,0
85.43374,27.6428,0
85.43375,27.6428,0
85.43376,27.64279,0
85.43377,27.64278,0
85.43378,27.64278,0
85.43382,27.64276,0
85.43387,27.64274,0
85.4339,27.64272,0
85.43391,27.64271,0
85.43393,27.64269,0
85.43395,27.64264,0
85.43397,27.64254,0
85.434,27.64248,0
85.43404,27.64243,0
85.43406,27.64241,0
85.43411,27.64237,0
85.43423,27.64229,0
85.43434,27.64223,0
85.43444,27.64216,0
85.43452,27.64209,0
85.4346,27.64205,0
85.43469,27.64199,0
85.43479,27.64191,0
85.4349,27.64182,0
85.43498,27.64173,0
85.43509,27.64163,0
85.43512,27.64162,0
85.43514,27.64161,0
85.43517,27.64161,0
85.43524,27.64161,0
85.43526,27.6416,0
85.43528,27.64159,0
85.43534,27.64154,0
85.43538,27.64149,0
85.43543,27.64137,0
85.43549,27.64122,0
85.43558,27.64103,0
85.43559,27.641,0
85.43562,27.64098,0
85.43563,27.64097,0
85.43566,27.64096,0
85.43575,27.64094,0
85.43588,27.64089,0
85.43597,27.64084,0
85.43604,27.6408,0
85.43613,27.64078,0
85.43623,27.64075,0
85.43643,27.64068,0
85.43651,27.64067,0
85.43695,27.64076,0
85.436952,27.640764,0
85.437,27.6408,0
85.43713,27.64081,0
85.43723,27.64082,0
85.43746,27.64081,0
85.43752,27.64082,0
85.43761,27.64085,0
85.43771,27.64088,0
85.43775,27.64088,0
85.43778,27.64088,0
85.43781,27.64088,0
85.43784,27.64088,0
85.43786,27.64087,0
85.43787,27.64086,0
85.43788,27.64085,0
85.43789,27.64084,0
85.43789,27.64083,0
85.43789,27.6408,0
85.43789,27.64077,0
85.4379,27.64072,0
85.4379,27.64071,0
85.4379,27.64065,0
85.43781,27.64036,0
85.43778,27.64025,0
85.43775,27.64019,0
85.43774,27.64015,0
85.43773,27.64009,0
85.43774,27.64,0
85.43775,27.63994,0
85.43779,27.63983,0
85.43782,27.63974,0
85.43783,27.63971,0
85.43784,27.63967,0
85.43785,27.63964,0
85.43787,27.6396,0
85.43789,27.63957,0
85.4379,27.63954,0
85.43792,27.63952,0
85.43796,27.63949,0
85.43806,27.63942,0
85.43815,27.63938,0
85.4382,27.63937,0
85.43826,27.63936,0
85.4383,27.63936,0
85.43834,27.63936,0
85.43847,27.63937,0
85.43859,27.63938,0
85.43872,27.63939,0
85.43881,27.6394,0
85.43886,27.63941,0
85.43889,27.63941,0
85.43892,27.63941,0
85.43894,27.6394,0
85.43898,27.63939,0
85.439,27.63938,0
85.43902,27.63938,0
85.43905,27.63937,0
85.43909,27.63936,0
85.43911,27.63935,0
85.43913,27.63933,0
85.43914,27.63932,0
85.43916,27.6393,0
85.43917,27.63929,0
85.43917,27.63928,0
85.43917,27.63927,0
85.43917,27.63926,0
85.43917,27.63924,0
85.43917,27.63922,0
85.43917,27.63921,0
85.43916,27.63919,0
85.43914,27.63915,0
85.43906,27.63905,0
85.439,27.63898,0
85.43898,27.63896,0
85.43897,27.63894,0
85.43897,27.63892,0
85.43897,27.63891,0
85.43897,27.63889,0
85.43897,27.63887,0
85.43898,27.63885,0
85.43899,27.63884,0
85.43901,27.63883,0
85.43903,27.63882,0
85.43905,27.63881,0
85.43907,27.6388,0
85.4391,27.63879,0
85.43915,27.63877,0
85.43919,27.63876,0
85.43922,27.63874,0
85.43923,27.63873,0
85.43924,27.63872,0
85.43925,27.6387,0
85.43925,27.63868,0
85.43926,27.63864,0
85.43925,27.63862,0
85.43922,27.63856,0
85.43919,27.63851,0
85.43898,27.63832,0
85.438978,27.638325,0
85.43901,27.63832,0
85.43905,27.63831,0
85.43908,27.63831,0
85.43912,27.63832,0
85.43916,27.63833,0
85.43918,27.63834,0
85.43921,27.63835,0
85.43924,27.63835,0
85.43927,27.63836,0
85.4393,27.63836,0
85.43938,27.63835,0
85.43952,27.63833,0
85.43967,27.6383,0
85.43978,27.63829,0
85.43981,27.63829,0
85.43993,27.63828,0
85.43997,27.63828,0
85.43999,27.63827,0
85.44,27.63827,0
85.44002,27.63826,0
85.44002,27.63825,0
85.44003,27.63824,0
85.44003,27.63823,0
85.44002,27.63823,0
85.44002,27.63822,0
85.44001,27.63821,0
85.44,27.63821,0
85.43998,27.6382,0
85.43993,27.63819,0
85.43991,27.63819,0
85.43988,27.63819,0
85.43981,27.63817,0
85.43977,27.63816,0
85.43974,27.63815,0
85.43972,27.63813,0
85.43968,27.63808,0
85.43964,27.63805,0
85.43959,27.63801,0
85.43956,27.63798,0
85.43954,27.63797,0
85.43953,27.63795,0
85.43952,27.63794,0
85.43952,27.63793,0
85.43952,27.63792,0
85.43952,27.637922,0
85.43952,27.63791,0
85.43953,27.6379,0
85.43953,27.63789,0
85.43954,27.63789,0
85.43955,27.63789,0
85.43956,27.63789,0
85.43957,27.63789,0
85.43961,27.6379,0
85.43966,27.63791,0
85.43973,27.63795,0
85.43978,27.63798,0
85.4398,27.63799,0
85.43982,27.638,0
85.43986,27.63801,0
85.4399,27.63801,0
85.43994,27.63801,0
85.43999,27.63802,0
85.44005,27.63803,0
85.44009,27.63804,0
85.44015,27.63805,0
85.44023,27.63805,0
85.44028,27.63805,0
85.44058,27.63803,0
85.44067,27.63802,0
85.44075,27.63801,0
85.44083,27.638,0
85.4409,27.638,0
85.44101,27.63801,0
85.44112,27.63803,0
85.44118,27.63804,0
85.44122,27.63804,0
85.44127,27.63804,0
85.44128,27.63803,0
85.4413,27.63803,0
85.44131,27.63803,0
85.44131,27.63802,0
85.44132,27.63802,0
85.44133,27.638,0
85.44133,27.63799,0
85.44133,27.63798,0
85.44133,27.63797,0
85.44132,27.63797,0
85.44131,27.63796,0
85.4413,27.63796,0
85.44129,27.63795,0
85.44128,27.63795,0
85.44127,27.63794,0
85.44125,27.63794,0
85.44124,27.63794,0
85.44117,27.63792,0
85.44107,27.63791,0
85.44101,27.6379,0
85.44099,27.63789,0
85.44097,27.63788,0
85.44094,27.63787,0
85.44091,27.63786,0
85.44089,27.63785,0
85.44086,27.63785,0
85.44082,27.63785,0
85.44079,27.63785,0
85.44075,27.63786,0
85.44071,27.63786,0
85.44067,27.63786,0
85.44061,27.63786,0
85.44056,27.63785,0
85.44052,27.63784,0
85.44048,27.63783,0
85.44042,27.63782,0
85.4404,27.63782,0
85.44038,27.63781,0
85.44032,27.6378,0
85.44029,27.63779,0
85.44027,27.63778,0
85.44024,27.63777,0
85.44021,27.63775,0
85.44013,27.63767,0
85.44008,27.6376,0
85.44003,27.63751,0
85.44002,27.63748,0
85.43999,27.63746,0
85.43996,27.63744,0
85.43993,27.63742,0
85.43991,27.63741,0
85.43989,27.63741,0
85.43987,27.63741,0
85.43979,27.6374,0
85.43975,27.6374,0
85.43971,27.6374,0
85.43965,27.6374,0
85.43955,27.63741,0
85.4395,27.6374,0
85.43946,27.63739,0
85.43941,27.63736,0
85.4394,27.63735,0
85.43938,27.63734,0
85.43936,27.63732,0
85.43931,27.6373,0
85.4393,27.63729,0
85.43927,27.63728,0
85.43924,27.63727,0
85.43918,27.63727,0
85.43915,27.63727,0
85.43912,27.63727,0
85.43908,27.63728,0
85.43903,27.63729,0
85.439,27.63729,0
85.43897,27.63728,0
85.43895,27.63727,0
85.43891,27.63726,0
85.43889,27.63725,0
85.43887,27.63723,0
85.43885,27.63722,0
85.43883,27.6372,0
85.43879,27.63716,0
85.43864,27.63706,0
85.43856,27.63703,0
85.43853,27.63702,0
85.43848,27.637,0
85.43845,27.63699,0
85.43841,27.63698,0
85.43836,27.63697,0
85.4383,27.63696,0
85.43819,27.63694,0
85.43817,27.63693,0
85.43805,27.63692,0
85.43793,27.63691,0
85.43776,27.63688,0
85.43767,27.63684,0
85.43765,27.63683,0
85.43764,27.63683,0
85.43761,27.63681,0
85.43758,27.63679,0
85.43755,27.63676,0
85.43754,27.63674,0
85.43753,27.63672,0
85.43753,27.6367,0
85.43753,27.63666,0
85.43754,27.63661,0
85.43755,27.63655,0
85.4376,27.63645,0
85.43765,27.63638,0
85.43771,27.63627,0
85.43772,27.63622,0
85.43773,27.6362,0
85.43773,27.63618,0
85.43772,27.63614,0
85.43772,27.63613,0
85.43771,27.63611,0
85.43768,27.63608,0
85.43753,27.63599,0
85.43747,27.63594,0
85.43743,27.63591,0
85.43738,27.63586,0
85.43731,27.63577,0
85.43729,27.6357,0
85.43736,27.63557,0
85.4374,27.6355,0
85.43748,27.6354,0
85.43749,27.63539,0
85.43752,27.63535,0
85.43755,27.63533,0
85.43758,27.63531,0
85.43765,27.63528,0
85.43768,27.63527,0
85.43772,27.63527,0
85.43776,27.63526,0
85.43777,27.63525,0
85.43779,27.63524,0
85.43782,27.63523,0
85.43784,27.63521,0
85.43785,27.63521,0
85.43786,27.63518,0
85.43789,27.63514,0
85.43793,27.6351,0
85.43796,27.63507,0
85.43799,27.63504,0
85.43803,27.63503,0
85.43806,27.63502,0
85.4381,27.63502,0
85.43813,27.63502,0
85.43817,27.63502,0
85.43827,27.63504,0
85.43833,27.63506,0
85.43839,27.63508,0
85.43846,27.63509,0
85.4385,27.63509,0
85.43856,27.63509,0
85.43859,27.63509,0
85.43863,27.63508,0
85.43865,27.63507,0
85.43867,27.63506,0
85.4387,27.63504,0
85.43875,27.635,0
85.4388,27.63495,0
85.43884,27.6349,0
85.43889,27.63486,0
85.43896,27.63482,0
85.43911,27.6347,0
85.43917,27.63466,0
85.43918,27.63464,0
85.4392,27.63463,0
85.4392,27.63462,0
85.43921,27.63461,0
85.43921,27.6346,0
85.43921,27.63458,0
85.43921,27.63457,0
85.4392,27.63456,0
85.43919,27.63455,0
85.43917,27.63454,0
85.43915,27.63454,0
85.43912,27.63453,0
85.43909,27.63452,0
85.43902,27.63451,0
85.43888,27.63448,0
85.43875,27.63444,0
85.43868,27.63442,0
85.43866,27.6344,0
85.43865,27.63439,0
85.43863,27.63437,0
85.43862,27.63435,0
85.43862,27.63433,0
85.43862,27.63432,0
85.43863,27.63429,0
85.43863,27.63428,0
85.43865,27.63426,0
85.43869,27.63421,0
85.43873,27.63417,0
85.43879,27.63411,0
85.43885,27.63406,0
85.4389,27.63403,0
85.43897,27.63399,0
85.43901,27.63397,0
85.43903,27.63395,0
85.43906,27.63392,0
85.43908,27.63389,0
85.43908,27.63388,0
85.43908,27.63387,0
85.43908,27.63386,0
85.43908,27.63385,0
85.43907,27.63384,0
85.43907,27.63383,0
85.43906,27.63383,0
85.43905,27.63382,0
85.43903,27.63381,0
85.43901,27.63381,0
85.43887,27.63376,0
85.43883,27.63374,0
85.43878,27.63372,0
85.43873,27.63368,0
85.4387,27.63365,0
85.43866,27.63363,0
85.43861,27.63362,0
85.43859,27.63362,0
85.43856,27.63362,0
85.43852,27.63362,0
85.43848,27.63363,0
85.43841,27.63366,0
85.43836,27.63367,0
85.43832,27.63368,0
85.43826,27.63368,0
85.43814,27.63366,0
85.43808,27.63365,0
85.43802,27.63364,0
85.43795,27.63363,0
85.43787,27.63363,0
85.43777,27.63362,0
85.43773,27.63363,0
85.43768,27.63363,0
85.43761,27.63363,0
85.43751,27.63364,0
85.43743,27.63365,0
85.43738,27.63367,0
85.43732,27.63369,0
85.43725,27.63373,0
85.43717,27.63378,0
85.43697,27.63377,0
85.43675,27.63369,0
85.43655,27.63375,0
85.43649,27.63377,0
85.43632,27.63379,0
85.43617,27.63371,0
85.43611,27.63368,0
85.43602,27.63359,0
85.43594,27.63351,0
85.43594,27.63349,0
85.43594,27.63342,0
85.43592,27.63326,0
85.43592,27.6332,0
85.43578,27.63305,0
85.43583,27.63296,0
85.43594,27.63287,0
85.43592,27.63282,0
85.43586,27.63267,0
85.43572,27.63241,0
85.43581,27.63232,0
85.43606,27.63206,0
85.43628,27.63174,0
85.43631,27.63169,0
85.4363,27.63165,0
85.43628,27.6316,0
85.43625,27.63152,0
85.43612,27.63139,0
85.43588,27.6313,0
85.43577,27.63117,0
85.43577,27.63116,0
85.4358,27.63111,0
85.43582,27.63109,0
85.43585,27.63104,0
85.43596,27.63095,0
85.43599,27.6308,0
85.43592,27.63066,0
85.43591,27.63065,0
85.43575,27.63048,0
85.43561,27.63019,0
85.43548,27.62998,0
85.43546,27.62991,0
85.43544,27.62986,0
85.43543,27.62984,0
85.43543,27.62982,0
85.43568,27.62971,0
85.43572,27.62947,0
85.43572,27.62944,0
85.43573,27.62933,0
85.43573,27.62925,0
85.43594,27.62909,0
85.43614,27.62897,0
85.43633,27.62892,0
85.43642,27.6289,0
85.43653,27.62887,0
85.43658,27.62886,0
85.4366,27.62885,0
85.43661,27.62885,0
85.43666,27.62875,0
85.43668,27.62872,0
85.43657,27.62859,0
85.43639,27.62846,0
85.43637,27.62844,0
85.43635,27.62842,0
85.43631,27.62835,0
85.43628,27.62829,0
85.43632,27.62828,0
85.43639,27.62832,0
85.43646,27.62836,0
85.43662,27.62846,0
85.43681,27.62846,0
85.43702,27.62853,0
85.43709,27.62861,0
85.43708,27.62869,0
85.43708,27.62877,0
85.43714,27.62878,0
85.43715,27.62877,0
85.43719,27.62872,0
85.4372,27.62858,0
85.43719,27.6284,0
85.4371,27.62833,0
85.43703,27.62829,0
85.43685,27.62817,0
85.43656,27.6278,0
85.43651,27.62774,0
85.43644,27.62766,0
85.43641,27.62762,0
85.43628,27.62747,0
85.43635,27.62731,0
85.4364,27.62721,0
85.43662,27.62699,0
85.43684,27.6267,0
85.4369,27.62661,0
85.43736,27.62602,0
85.43742,27.62597,0
85.43747,27.62593,0
85.43749,27.62591,0
85.4375,27.6259,0
85.43751,27.62588,0
85.43753,27.62587,0
85.43755,27.62586,0
85.43759,27.62585,0
85.43762,27.62585,0
85.43764,27.62585,0
85.43767,27.62585,0
85.43773,27.62587,0
85.43776,27.62588,0
85.43777,27.62589,0
85.4378,27.6259,0
85.43782,27.62591,0
85.43784,27.62592,0
85.43786,27.62593,0
85.43788,27.62593,0
85.4379,27.62594,0
85.43792,27.62594,0
85.43794,27.62594,0
85.43796,27.62594,0
85.43797,27.62594,0
85.43799,27.62593,0
85.438,27.62591,0
85.43801,27.6259,0
85.43802,27.62587,0
85.43803,27.62586,0
85.43803,27.62583,0
85.43804,27.62578,0
85.43804,27.62573,0
85.43804,27.62567,0
85.43802,27.62561,0
85.43802,27.6256,0
85.43799,27.62549,0
85.43798,27.62546,0
85.43798,27.62543,0
85.43798,27.6254,0
85.43799,27.62539,0
85.43799,27.62538,0
85.438,27.62537,0
85.43801,27.62535,0
85.43802,27.62533,0
85.43805,27.62528,0
85.43811,27.62518,0
85.43821,27.62509,0
85.43832,27.62499,0
85.43834,27.62497,0
85.43837,27.62495,0
85.43841,27.62493,0
85.43845,27.62491,0
85.43854,27.62486,0
85.43864,27.62482,0
85.43871,27.6248,0
85.43876,27.62479,0
85.4388,27.62478,0
85.43884,27.62478,0
85.43886,27.62478,0
85.4389,27.62478,0
85.43893,27.62479,0
85.43895,27.6248,0
85.43897,27.62481,0
85.43901,27.62483,0
85.43909,27.6249,0
85.43923,27.62507,0
85.4393,27.62516,0
85.43932,27.62519,0
85.43934,27.62521,0
85.43936,27.62523,0
85.43941,27.62527,0
85.43948,27.6253,0
85.439484,27.625299,0
85.43956,27.6254,0
85.43961,27.62548,0
85.43965,27.62558,0
85.43972,27.6258,0
85.43978,27.62606,0
85.43978,27.62607,0
85.43979,27.62618,0
85.43979,27.62622,0
85.4398,27.62625,0
85.43982,27.62629,0
85.43983,27.62634,0
85.43986,27.62638,0
85.4399,27.62642,0
85.43994,27.62646,0
85.43999,27.62648,0
85.44003,27.62651,0
85.44006,27.62653,0
85.44011,27.62659,0
85.44016,27.62664,0
85.44018,27.62665,0
85.44019,27.62665,0
85.44021,27.62665,0
85.44022,27.62665,0
85.44023,27.62665,0
85.44024,27.62665,0
85.44024,27.62664,0
85.44025,27.62664,0
85.44025,27.62663,0
85.44026,27.62662,0
85.44026,27.62661,0
85.44026,27.6266,0
85.44026,27.62658,0
85.44026,27.62657,0
85.44025,27.62655,0
85.44022,27.62651,0
85.4402,27.62646,0
85.44018,27.62642,0
85.44017,27.62636,0
85.44013,27.62622,0
85.44009,27.62605,0
85.44005,27.62586,0
85.44004,27.62569,0
85.44005,27.62565,0
85.44005,27.62564,0
85.44006,27.6256,0
85.44007,27.62558,0
85.44008,27.62556,0
85.4401,27.62554,0
85.44012,27.62552,0
85.44014,27.6255,0
85.44017,27.62548,0
85.44019,27.62547,0
85.44021,27.62546,0
85.44022,27.62546,0
85.44025,27.62547,0
85.44026,27.62547,0
85.44028,27.62548,0
85.44029,27.62548,0
85.4403,27.62549,0
85.44031,27.6255,0
85.44031,27.62551,0
85.44031,27.62552,0
85.44032,27.62553,0
85.44032,27.62558,0
85.44031,27.6256,0
85.4403,27.62561,0
85.44029,27.62562,0
85.44028,27.62563,0
85.44026,27.62564,0
85.44025,27.62566,0
85.44024,27.62566,0
85.44023,27.62567,0
85.44022,27.62568,0
85.44021,27.62569,0
85.44021,27.62571,0
85.44021,27.62572,0
85.44021,27.62573,0
85.44022,27.62575,0
85.44022,27.62576,0
85.44023,27.6258,0
85.44027,27.62587,0
85.4403,27.62595,0
85.44033,27.62601,0
85.44034,27.62603,0
85.44034,27.62604,0
85.44035,27.62605,0
85.44035,27.62606,0
85.44037,27.62607,0
85.44039,27.62609,0
85.44042,27.62611,0
85.44045,27.62612,0
85.44047,27.62613,0
85.44051,27.62614,0
85.44054,27.62614,0
85.44058,27.62615,0
85.4406,27.62616,0
85.44063,27.62617,0
85.44066,27.62618,0
85.4407,27.6262,0
85.44076,27.62629,0
85.44078,27.62631,0
85.44081,27.62636,0
85.44084,27.62644,0
85.44085,27.62648,0
85.44087,27.62652,0
85.44087,27.62653,0
85.44088,27.62654,0
85.44089,27.62655,0
85.4409,27.62655,0
85.44091,27.62656,0
85.44092,27.62657,0
85.44093,27.62657,0
85.44094,27.62657,0
85.44095,27.62657,0
85.44095,27.62656,0
85.44095,27.62655,0
85.44096,27.62654,0
85.44095,27.62652,0
85.44095,27.62649,0
85.44092,27.62643,0
85.44091,27.62636,0
85.4409,27.62635,0
85.44091,27.62634,0
85.44091,27.62633,0
85.44091,27.62632,0
85.44091,27.6263,0
85.44092,27.62628,0
85.44092,27.62627,0
85.44093,27.62626,0
85.44094,27.62625,0
85.44095,27.62625,0
85.44096,27.62625,0
85.44097,27.62625,0
85.44098,27.62626,0
85.44099,27.62626,0
85.441,27.62627,0
85.441,27.62629,0
85.44101,27.62629,0
85.44102,27.62632,0
85.44103,27.62639,0
85.44104,27.62654,0
85.44104,27.62664,0
85.44104,27.62666,0
85.44105,27.62675,0
85.44106,27.62678,0
85.44106,27.62679,0
85.44107,27.62681,0
85.44108,27.62683,0
85.44108,27.62685,0
85.44108,27.62686,0
85.4411,27.62692,0
85.44112,27.62719,0
85.44111,27.62738,0
85.44108,27.62769,0
85.44107,27.62772,0
85.44106,27.62776,0
85.44106,27.6278,0
85.44106,27.62784,0
85.44106,27.62787,0
85.44106,27.62789,0
85.44106,27.6279,0
85.44107,27.62792,0
85.44109,27.62795,0
85.44111,27.62799,0
85.44113,27.62801,0
85.44116,27.62804,0
85.44118,27.62807,0
85.4412,27.62808,0
85.44122,27.6281,0
85.44124,27.6281,0
85.44125,27.6281,0
85.44126,27.6281,0
85.44126,27.62809,0
85.44127,27.62809,0
85.44128,27.62808,0
85.44128,27.62807,0
85.44128,27.62806,0
85.44129,27.62805,0
85.44129,27.62804,0
85.44129,27.62803,0
85.44128,27.62802,0
85.44127,27.62799,0
85.44124,27.62794,0
85.44123,27.62792,0
85.44121,27.62789,0
85.4412,27.62787,0
85.4412,27.62785,0
85.4412,27.62783,0
85.4412,27.62781,0
85.4412,27.6278,0
85.44121,27.62779,0
85.44122,27.62777,0
85.44124,27.62775,0
85.44125,27.62772,0
85.44127,27.62771,0
85.44127,27.6277,0
85.44129,27.62768,0
85.44131,27.62766,0
85.44132,27.62763,0
85.44133,27.62761,0
85.44134,27.62757,0
85.44135,27.62753,0
85.44136,27.62751,0
85.44137,27.6275,0
85.44138,27.62749,0
85.44139,27.62748,0
85.4414,27.62748,0
85.44141,27.62747,0
85.44142,27.62747,0
85.44145,27.62747,0
85.44146,27.62748,0
85.44148,27.62748,0
85.44149,27.62749,0
85.4415,27.6275,0
85.441495,27.627496,0
85.44151,27.62751,0
85.44152,27.62752,0
85.44154,27.62754,0
85.44157,27.62759,0
85.4416,27.62767,0
85.44164,27.62771,0
85.44167,27.62775,0
85.44168,27.62776,0
85.44169,27.62777,0
85.4417,27.62777,0
85.44172,27.62778,0
85.44176,27.62779,0
85.44179,27.6278,0
85.44183,27.6278,0
85.44186,27.62781,0
85.44189,27.62782,0
85.44192,27.62783,0
85.44193,27.62784,0
85.44194,27.62785,0
85.44195,27.62785,0
85.44196,27.62786,0
85.44196,27.62787,0
85.44197,27.62787,0
85.44198,27.62789,0
85.44198,27.62792,0
85.44198,27.62795,0
85.44198,27.62797,0
85.44198,27.62799,0
85.44198,27.62801,0
85.44198,27.62803,0
85.44199,27.62806,0
85.442,27.62808,0
85.44202,27.62814,0
85.44209,27.62826,0
85.44215,27.62835,0
85.44218,27.62839,0
85.4422,27.62842,0
85.44224,27.62844,0
85.44226,27.62845,0
85.44228,27.62846,0
85.44231,27.62847,0
85.44234,27.62849,0
85.44236,27.6285,0
85.44239,27.62852,0
85.44241,27.62853,0
85.44244,27.62854,0
85.44248,27.62855,0
85.44252,27.62855,0
85.44253,27.62856,0
85.44255,27.62855,0
85.44256,27.62855,0
85.44259,27.62854,0
85.44262,27.62852,0
85.44267,27.6285,0
85.44274,27.62848,0
85.44281,27.62846,0
85.44288,27.62845,0
85.44293,27.62845,0
85.44297,27.62845,0
85.443,27.62846,0
85.44312,27.62852,0
85.44315,27.62853,0
85.44318,27.62856,0
85.44319,27.62856,0
85.44323,27.62859,0
85.44326,27.6286,0
85.4433,27.62863,0
85.44334,27.62866,0
85.44338,27.62868,0
85.44341,27.62871,0
85.44343,27.62873,0
85.44362,27.62885,0
85.44376,27.62891,0
85.44379,27.62892,0
85.4438,27.62892,0
85.44381,27.62892,0
85.44382,27.62891,0
85.44383,27.6289,0
85.44383,27.62889,0
85.443835,27.628892,0
</coordinates>
</LineString>
</Placemark>
<Placemark>
<name/>
<styleUrl>#line-0000FF-2000-nodesc</styleUrl>
<LineString>
<tessellate>1</tessellate>
<coordinates>
85.396787,27.626265,0
85.39682,27.62631,0
85.39692,27.62644,0
85.39695,27.62647,0
85.39706,27.62653,0
85.39716,27.62657,0
85.39721,27.62658,0
85.39728,27.62657,0
85.39748,27.62656,0
85.39766,27.62655,0
85.39777,27.62653,0
85.39778,27.62653,0
85.39786,27.6265,0
85.39788,27.62649,0
85.39803,27.62641,0
85.39817,27.62632,0
85.3983,27.62628,0
85.39832,27.62627,0
85.39838,27.62623,0
85.39851,27.62615,0
85.3986,27.62612,0
85.39872,27.62609,0
85.39885,27.62608,0
85.39889,27.62608,0
85.39897,27.6261,0
85.39901,27.62611,0
85.39905,27.62612,0
85.39918,27.62616,0
85.39922,27.62617,0
85.39935,27.62622,0
85.39952,27.62627,0
85.39973,27.62635,0
85.399732,27.626349,0
85.3998,27.62633,0
85.39986,27.6263,0
85.39989,27.62627,0
85.39991,27.62625,0
85.39993,27.62621,0
85.39994,27.62619,0
85.39994,27.62617,0
85.39994,27.62616,0
85.39994,27.62615,0
85.39993,27.62613,0
85.39992,27.62612,0
85.3999,27.62611,0
85.39987,27.6261,0
85.39983,27.6261,0
85.39968,27.62612,0
85.39956,27.62611,0
85.39948,27.62608,0
85.39939,27.62603,0
85.39918,27.62588,0
85.39913,27.62583,0
85.39911,27.62581,0
85.39909,27.62578,0
85.39904,27.62565,0
85.39903,27.62554,0
85.39902,27.62548,0
85.39901,27.62546,0
85.39901,27.62545,0
85.399,27.62543,0
85.39896,27.6254,0
85.39894,27.62538,0
85.39892,27.62538,0
85.39889,27.62538,0
85.39887,27.62538,0
85.39882,27.6254,0
85.39866,27.62547,0
85.39844,27.62552,0
85.39821,27.62559,0
85.39796,27.62567,0
85.39783,27.6257,0
85.39773,27.62569,0
85.39768,27.62567,0
85.39764,27.62565,0
85.39761,27.62563,0
85.39758,27.6256,0
85.39756,27.62556,0
85.39756,27.62555,0
85.39754,27.62551,0
85.39755,27.62539,0
85.39759,27.62522,0
85.3976,27.62521,0
85.39769,27.625,0
85.39784,27.62471,0
85.39791,27.62448,0
85.39796,27.6242,0
85.39804,27.62391,0
85.39806,27.62384,0
85.39807,27.62382,0
85.39808,27.62375,0
85.39807,27.62371,0
85.39806,27.62367,0
85.398,27.62357,0
85.39795,27.62351,0
85.39793,27.62348,0
85.39787,27.62342,0
85.39783,27.62335,0
85.39782,27.6233,0
85.3978,27.62319,0
85.3978,27.62307,0
85.3978,27.623,0
85.39779,27.62298,0
85.39779,27.62291,0
85.39779,27.62287,0
85.39781,27.62284,0
85.39783,27.62282,0
85.39785,27.6228,0
85.39794,27.62276,0
85.39802,27.62273,0
85.3981,27.62266,0
85.39815,27.62262,0
85.39817,27.62258,0
85.39819,27.62253,0
85.39819,27.6225,0
85.39817,27.62245,0
85.39815,27.62238,0
85.39814,27.62234,0
85.39815,27.6223,0
85.39818,27.62224,0
85.39825,27.62211,0
85.39834,27.62192,0
85.39842,27.6218,0
85.39842,27.62179,0
85.39848,27.62172,0
85.3985,27.6217,0
85.39854,27.62169,0
85.39858,27.62168,0
85.39863,27.62168,0
85.39874,27.62166,0
85.39878,27.62164,0
85.39882,27.62162,0
85.39888,27.62155,0
85.39898,27.62139,0
85.39911,27.62127,0
85.39927,27.62117,0
85.39944,27.62108,0
85.39956,27.621,0
85.39971,27.62085,0
85.39983,27.62071,0
85.39991,27.62059,0
85.39996,27.62053,0
85.399961,27.620531,0
85.4,27.6205,0
85.40002,27.6205,0
85.40004,27.62049,0
85.40005,27.62049,0
85.40007,27.6205,0
85.40008,27.6205,0
85.40009,27.62051,0
85.40011,27.62053,0
85.40012,27.62056,0
85.40012,27.62059,0
85.40011,27.62062,0
85.40007,27.62071,0
85.40004,27.62079,0
85.39998,27.62096,0
85.39993,27.62106,0
85.39991,27.62109,0
85.3998,27.62124,0
85.3997,27.62139,0
85.39957,27.62157,0
85.39945,27.62179,0
85.3994,27.62186,0
85.39935,27.6219,0
85.39922,27.62197,0
85.39914,27.62204,0
85.39912,27.62208,0
85.39909,27.62214,0
85.39906,27.6222,0
85.39903,27.62228,0
85.39903,27.62234,0
85.39904,27.62238,0
85.39906,27.62241,0
85.39912,27.62248,0
85.39916,27.62254,0
85.39916,27.62256,0
85.39917,27.62258,0
85.39915,27.62262,0
85.39911,27.6227,0
85.39904,27.6228,0
85.399,27.62287,0
85.39899,27.62293,0
85.39899,27.62297,0
85.39899,27.62299,0
85.399,27.62301,0
85.39903,27.62304,0
85.39908,27.62308,0
85.39914,27.62314,0
85.3992,27.62325,0
85.39926,27.62338,0
85.39929,27.62353,0
85.39934,27.62362,0
85.39936,27.62365,0
85.39938,27.62367,0
85.3994,27.62369,0
85.39942,27.6237,0
85.39944,27.6237,0
85.39948,27.6237,0
85.39952,27.62369,0
85.39955,27.62368,0
85.39959,27.62366,0
85.39961,27.62363,0
85.39963,27.6236,0
85.39963,27.62357,0
85.39963,27.62355,0
85.39963,27.62352,0
85.39959,27.62347,0
85.39952,27.6234,0
85.3995,27.62335,0
85.39948,27.62329,0
85.39947,27.62322,0
85.39948,27.62314,0
85.39949,27.62302,0
85.39951,27.62293,0
85.39955,27.62286,0
85.39956,27.62285,0
85.3996,27.62279,0
85.39967,27.62273,0
85.39971,27.62268,0
85.39975,27.62262,0
85.3998,27.62249,0
85.39983,27.62243,0
85.39987,27.62239,0
85.3999,27.62236,0
85.39995,27.62232,0
85.40003,27.62227,0
85.40012,27.62223,0
85.4002,27.62219,0
85.40028,27.62215,0
85.4004,27.6221,0
85.40058,27.62204,0
85.40068,27.62201,0
85.40082,27.62195,0
85.40093,27.62189,0
85.40103,27.62182,0
85.40112,27.62174,0
85.40121,27.62167,0
85.40125,27.62162,0
85.40129,27.62157,0
85.40131,27.62148,0
85.40131,27.62147,0
85.40134,27.62129,0
85.40137,27.62112,0
85.40138,27.62104,0
85.40139,27.62101,0
85.40141,27.62099,0
85.40142,27.62097,0
85.40145,27.62096,0
85.40149,27.62093,0
85.40162,27.62089,0
85.40182,27.62084,0
85.40204,27.62077,0
85.40225,27.62069,0
85.40252,27.62056,0
85.40256,27.62055,0
85.4026,27.62053,0
85.40264,27.62051,0
85.40267,27.6205,0
85.4027,27.6205,0
85.40285,27.62048,0
85.40297,27.62042,0
85.40303,27.6204,0
85.40306,27.62036,0
85.40312,27.62028,0
85.40319,27.62021,0
85.40321,27.62018,0
85.40322,27.62016,0
85.40323,27.62015,0
85.40324,27.62013,0
85.40324,27.62012,0
85.40324,27.6201,0
85.40323,27.62006,0
85.40321,27.62001,0
85.4032,27.61999,0
85.40314,27.6199,0
85.40304,27.61982,0
85.40293,27.61973,0
85.4029,27.6197,0
85.40289,27.61969,0
85.40289,27.61968,0
85.40289,27.61966,0
85.40289,27.61964,0
85.4029,27.61962,0
85.40293,27.61957,0
85.40304,27.61949,0
85.40307,27.61946,0
85.40309,27.61944,0
85.40313,27.61937,0
85.40315,27.61931,0
85.40315,27.61926,0
85.40314,27.61921,0
85.40312,27.61915,0
85.40309,27.61911,0
85.40304,27.61907,0
85.4028,27.61889,0
85.40277,27.61887,0
85.40246,27.6187,0
85.40216,27.61854,0
85.40183,27.61836,0
85.40176,27.61833,0
85.40171,27.6183,0
85.40162,27.61826,0
85.40154,27.61821,0
85.40152,27.61819,0
85.4015,27.61817,0
85.4015,27.61815,0
85.4015,27.61813,0
85.4015,27.61812,0
85.40151,27.61811,0
85.40152,27.6181,0
85.40153,27.6181,0
85.40154,27.6181,0
85.40156,27.6181,0
85.40158,27.6181,0
85.4016,27.6181,0
85.40163,27.61812,0
85.40165,27.61815,0
85.4017,27.61819,0
85.40174,27.61821,0
85.40177,27.61822,0
85.40183,27.61825,0
85.40187,27.61826,0
85.40205,27.61832,0
85.40231,27.61842,0
85.40258,27.61853,0
85.4027,27.61858,0
85.40294,27.61869,0
85.40325,27.61882,0
85.4033,27.61885,0
85.40355,27.619,0
85.40364,27.61909,0
85.40367,27.61914,0
85.40368,27.61918,0
85.40368,27.61921,0
85.40367,27.61926,0
85.40366,27.6193,0
85.40364,27.61933,0
85.40361,27.61936,0
85.40356,27.61941,0
85.40352,27.61946,0
85.40351,27.61947,0
85.4035,27.6195,0
85.4035,27.61951,0
85.4035,27.61954,0
85.4035,27.61957,0
85.40352,27.6196,0
85.40355,27.61964,0
85.40369,27.61975,0
85.40379,27.61983,0
85.40382,27.61988,0
85.40384,27.61994,0
85.403839,27.619937,0
85.40451,27.61976,0
85.40451,27.619762,0
85.40446,27.61948,0
85.40445,27.61941,0
85.40444,27.61929,0
85.40442,27.61911,0
85.40437,27.61869,0
85.40437,27.61864,0
85.40438,27.61858,0
85.40441,27.61833,0
85.40442,27.61827,0
85.40443,27.61824,0
85.40445,27.61822,0
85.40446,27.61821,0
85.40449,27.61819,0
85.40455,27.61816,0
85.40482,27.61811,0
85.4049,27.61811,0
85.405,27.6181,0
85.40527,27.61813,0
85.40563,27.61817,0
85.40577,27.61817,0
85.40589,27.61815,0
85.40592,27.61814,0
85.40594,27.61812,0
85.40595,27.61811,0
85.40597,27.61809,0
85.40599,27.61806,0
85.406,27.61802,0
85.40599,27.61792,0
85.40599,27.61789,0
85.406,27.61786,0
85.40603,27.61782,0
85.40607,27.61779,0
85.40614,27.61775,0
85.40625,27.6177,0
85.40627,27.61769,0
85.40639,27.61763,0
85.40656,27.61756,0
85.40663,27.61755,0
85.40672,27.61754,0
85.40691,27.61756,0
85.40702,27.61756,0
85.40705,27.61756,0
85.40713,27.61756,0
85.40718,27.61754,0
85.40721,27.61752,0
85.40723,27.61749,0
85.40724,27.61748,0
85.40725,27.61746,0
85.40724,27.61736,0
85.40726,27.61727,0
85.40727,27.61725,0
85.40728,27.61723,0
85.40731,27.61722,0
85.40734,27.6172,0
85.40738,27.61719,0
85.40745,27.6172,0
85.40754,27.6172,0
85.40772,27.6172,0
85.40792,27.61716,0
85.40794,27.61715,0
85.40803,27.61713,0
85.40807,27.61711,0
85.40808,27.6171,0
85.40809,27.61709,0
85.4081,27.61707,0
85.4081,27.61706,0
85.4081,27.61704,0
85.4081,27.61702,0
85.40809,27.61699,0
85.40807,27.61696,0
85.40798,27.61688,0
85.40797,27.61686,0
85.40796,27.61685,0
85.40795,27.6168,0
85.40796,27.61675,0
85.40801,27.61669,0
85.40805,27.61667,0
85.40811,27.61664,0
85.40823,27.6166,0
85.4084,27.61655,0
85.40845,27.61653,0
85.40849,27.6165,0
85.40851,27.61648,0
85.40852,27.61645,0
85.40854,27.61631,0
85.40855,27.61629,0
85.40856,27.61628,0
85.40858,27.61626,0
85.4086,27.61625,0
85.40863,27.61625,0
85.40871,27.61625,0
85.40876,27.61627,0
85.40881,27.61629,0
85.4089,27.61635,0
85.409,27.61647,0
85.40905,27.61655,0
85.40912,27.61661,0
85.4092,27.61665,0
85.40926,27.61668,0
85.40931,27.61669,0
85.40933,27.61669,0
85.40935,27.61669,0
85.40936,27.61668,0
85.40937,27.61668,0
85.40937,27.61667,0
85.40938,27.61666,0
85.40939,27.61664,0
85.40939,27.61659,0
85.4094,27.61647,0
85.40942,27.61636,0
85.40944,27.61627,0
85.40945,27.61624,0
85.40946,27.61622,0
85.40947,27.61622,0
85.40947,27.61621,0
85.40949,27.61621,0
85.40952,27.6162,0
85.40961,27.6162,0
85.40967,27.61621,0
85.40971,27.61622,0
85.4098,27.61625,0
85.4099,27.61633,0
85.40996,27.61638,0
85.41001,27.61642,0
85.41006,27.61643,0
85.41009,27.61644,0
85.41011,27.61644,0
85.41013,27.61643,0
85.41014,27.61643,0
85.41015,27.61642,0
85.41017,27.6164,0
85.41017,27.61639,0
85.41018,27.61638,0
85.41019,27.61635,0
85.41021,27.61629,0
85.41024,27.61622,0
85.41028,27.61617,0
85.41032,27.61609,0
85.41034,27.61603,0
85.41035,27.61599,0
85.41039,27.61595,0
85.41043,27.61592,0
85.41045,27.61591,0
85.41054,27.61588,0
85.41074,27.61587,0
85.41084,27.61587,0
85.41089,27.61587,0
85.41092,27.61586,0
85.41095,27.61584,0
85.41098,27.61583,0
85.41101,27.61583,0
85.41105,27.61584,0
85.41108,27.61585,0
85.4112,27.61587,0
85.41122,27.61587,0
85.41124,27.61587,0
85.41127,27.61586,0
85.4113,27.61585,0
85.41131,27.61584,0
85.41133,27.61583,0
85.41136,27.61576,0
85.41142,27.61564,0
85.41149,27.6155,0
85.41158,27.61543,0
85.411582,27.61543,0
85.41156,27.61551,0
85.41154,27.61557,0
85.41152,27.61563,0
85.41149,27.61571,0
85.41146,27.61577,0
85.41145,27.61578,0
85.41142,27.61584,0
85.41134,27.61599,0
85.41128,27.61609,0
85.41124,27.61617,0
85.41121,27.61627,0
85.41121,27.61628,0
85.41119,27.61634,0
85.41114,27.61645,0
85.4111,27.61652,0
85.41106,27.61658,0
85.41103,27.61664,0
85.41103,27.61666,0
85.41103,27.6167,0
85.41104,27.61674,0
85.41106,27.61678,0
85.41107,27.61678,0
85.41109,27.61683,0
85.41112,27.61687,0
85.41116,27.6169,0
85.41121,27.61693,0
85.41125,27.61694,0
85.41127,27.61695,0
85.41134,27.61697,0
85.41142,27.61699,0
85.4115,27.617,0
85.41154,27.617,0
85.4116,27.61701,0
85.41164,27.61703,0
85.41165,27.61703,0
85.41168,27.61706,0
85.41173,27.61711,0
85.41178,27.61715,0
85.41183,27.61718,0
85.4119,27.61719,0
85.41197,27.61722,0
85.41201,27.61726,0
85.41204,27.61731,0
85.41208,27.6174,0
85.41212,27.61748,0
85.41219,27.61755,0
85.41231,27.61758,0
85.41231,27.61759,0
85.41246,27.61761,0
85.41257,27.61766,0
85.41268,27.61773,0
85.41274,27.6178,0
85.41274,27.61781,0
85.41277,27.61788,0
85.41275,27.61805,0
85.41275,27.61812,0
85.41275,27.61816,0
85.41277,27.6182,0
85.41279,27.61823,0
85.41283,27.61825,0
85.41297,27.61831,0
85.41319,27.61833,0
85.41326,27.61835,0
85.41333,27.6184,0
85.41335,27.61843,0
85.41337,27.61846,0
85.4134,27.61856,0
85.4135,27.61867,0
85.41356,27.61871,0
85.41357,27.61871,0
85.41364,27.61873,0
85.41371,27.61874,0
85.41377,27.61874,0
85.41381,27.61874,0
85.41384,27.61874,0
85.41387,27.61874,0
85.41389,27.61874,0
85.41391,27.61875,0
85.41392,27.61876,0
85.41396,27.61879,0
85.41401,27.61885,0
85.41404,27.61891,0
85.4141,27.61911,0
85.41417,27.61934,0
85.414167,27.619338,0
85.41456,27.61929,0
85.41466,27.61933,0
85.41535,27.61951,0
85.4159,27.61989,0
85.41593,27.61991,0
85.41625,27.62031,0
85.41639,27.62016,0
85.41642,27.62013,0
85.41623,27.61985,0
85.41622,27.61984,0
85.41651,27.61938,0
85.41655,27.61932,0
85.41659,27.61903,0
85.416592,27.61903,0
85.41664,27.61904,0
85.41669,27.61904,0
85.41674,27.61905,0
85.41678,27.61904,0
85.41684,27.61902,0
85.4169,27.61901,0
85.41695,27.61899,0
85.41702,27.61898,0
85.41709,27.61895,0
85.41714,27.61893,0
85.41719,27.61891,0
85.41721,27.61891,0
85.41723,27.61891,0
85.41724,27.61891,0
85.41726,27.61891,0
85.41727,27.61891,0
85.41728,27.61892,0
85.41729,27.61892,0
85.4173,27.61892,0
85.41731,27.61893,0
85.41734,27.61898,0
85.41739,27.61905,0
85.41744,27.61911,0
85.41745,27.61914,0
85.41745,27.61916,0
85.41745,27.61918,0
85.41745,27.61924,0
85.41744,27.61932,0
85.41744,27.61934,0
85.41744,27.61935,0
85.41745,27.61936,0
85.41746,27.61938,0
85.41747,27.61939,0
85.41748,27.61939,0
85.41748,27.6194,0
85.41749,27.6194,0
85.41752,27.6194,0
85.41759,27.6194,0
85.41765,27.6194,0
85.41768,27.6194,0
85.41769,27.6194,0
85.4177,27.6194,0
85.41771,27.61941,0
85.41772,27.61942,0
85.41772,27.61943,0
85.41773,27.61944,0
85.41773,27.61946,0
85.41773,27.6195,0
85.41771,27.61955,0
85.41769,27.61961,0
85.41768,27.61966,0
85.41768,27.61969,0
85.41769,27.61973,0
85.41769,27.61979,0
85.41771,27.61984,0
85.41773,27.61988,0
85.41776,27.61993,0
85.41778,27.61997,0
85.4178,27.62,0
85.41782,27.62001,0
85.41786,27.62005,0
85.41787,27.62006,0
85.4179,27.62008,0
85.41793,27.6201,0
85.41794,27.62011,0
85.41795,27.62011,0
85.41796,27.62011,0
85.41798,27.62011,0
85.418,27.6201,0
85.41803,27.62009,0
85.41807,27.62006,0
85.41811,27.62003,0
85.41813,27.62002,0
85.41816,27.62002,0
85.41821,27.62,0
85.41826,27.61999,0
85.41829,27.61997,0
85.41832,27.61996,0
85.41835,27.61995,0
85.41838,27.61994,0
85.41839,27.61994,0
85.41842,27.61993,0
85.41847,27.61994,0
85.41848,27.61994,0
85.41855,27.61996,0
85.41864,27.61997,0
85.4187,27.61998,0
85.41876,27.62,0
85.41881,27.62,0
85.41888,27.62,0
85.41892,27.62,0
85.41895,27.62,0
85.41898,27.62001,0
85.419,27.62003,0
85.41902,27.62006,0
85.41911,27.62013,0
85.41919,27.6202,0
85.41926,27.62026,0
85.41942,27.62038,0
85.41949,27.62044,0
85.41955,27.62048,0
85.41961,27.62049,0
85.41965,27.6205,0
85.41968,27.6205,0
85.41971,27.6205,0
85.41974,27.62049,0
85.41975,27.62049,0
85.41977,27.62048,0
85.41979,27.62046,0
85.41984,27.62041,0
85.4199,27.62034,0
85.41992,27.62033,0
85.41996,27.6203,0
85.41999,27.62028,0
85.42002,27.62026,0
85.42004,27.62025,0
85.42009,27.62022,0
85.42016,27.62019,0
85.42032,27.62013,0
85.42039,27.62009,0
85.42043,27.62008,0
85.42045,27.62007,0
85.42047,27.62007,0
85.4205,27.62008,0
85.42052,27.62009,0
85.42055,27.6201,0
85.42058,27.62014,0
85.42065,27.6202,0
85.42069,27.62025,0
85.42073,27.6203,0
85.42074,27.62031,0
85.42076,27.62033,0
85.42077,27.62033,0
85.42078,27.62034,0
85.42079,27.62034,0
85.42081,27.62034,0
85.42082,27.62034,0
85.42086,27.62034,0
85.42094,27.62033,0
85.42103,27.6203,0
85.42106,27.62029,0
85.4211,27.62028,0
85.42112,27.62028,0
85.4212,27.62026,0
85.42121,27.62026,0
85.42127,27.62024,0
85.42131,27.62023,0
85.42136,27.62024,0
85.42143,27.62027,0
85.42145,27.62028,0
85.42148,27.6203,0
85.4215,27.62031,0
85.42154,27.62033,0
85.42157,27.62034,0
85.42158,27.62035,0
85.4216,27.62035,0
85.42161,27.62035,0
85.42163,27.62034,0
85.42168,27.62032,0
85.42171,27.6203,0
85.42177,27.62025,0
85.42187,27.62016,0
85.42199,27.62009,0
85.422,27.62008,0
85.42207,27.62004,0
85.42211,27.62001,0
85.42212,27.62,0
85.4222,27.61996,0
85.42227,27.61994,0
85.42229,27.61993,0
85.42235,27.61992,0
85.42236,27.61992,0
85.42244,27.61992,0
85.42246,27.61993,0
85.42248,27.61994,0
85.4225,27.61996,0
85.42253,27.61998,0
85.42255,27.62004,0
85.42258,27.6201,0
85.4226,27.62014,0
85.4226,27.62015,0
85.42263,27.62023,0
85.42263,27.62024,0
85.42266,27.62033,0
85.42269,27.62038,0
85.42273,27.62042,0
85.42279,27.62046,0
85.42286,27.6205,0
85.42293,27.62053,0
85.42298,27.62055,0
85.42311,27.62057,0
85.42313,27.62057,0
85.42317,27.62058,0
85.42325,27.62059,0
85.4233,27.62059,0
85.42344,27.62061,0
85.42359,27.62061,0
85.4237,27.62061,0
85.42376,27.62062,0
85.42381,27.62063,0
85.42383,27.62064,0
85.42385,27.62065,0
85.42386,27.62066,0
85.42387,27.62068,0
85.42388,27.62069,0
85.42388,27.6207,0
85.4239,27.62081,0
85.42394,27.6209,0
85.42395,27.62092,0
85.424,27.62098,0
85.42403,27.62102,0
85.42406,27.62105,0
85.42409,27.62107,0
85.42413,27.62108,0
85.4242,27.6211,0
85.42435,27.62113,0
85.42452,27.6212,0
85.42461,27.62122,0
85.42466,27.62122,0
85.42479,27.6212,0
85.42493,27.62118,0
85.42506,27.62117,0
85.42515,27.62115,0
85.42525,27.62113,0
85.42533,27.62113,0
85.42536,27.62113,0
85.42539,27.62114,0
85.42547,27.62116,0
85.42551,27.62118,0
85.42555,27.6212,0
85.4256,27.62124,0
85.42565,27.62133,0
85.42569,27.62141,0
85.42571,27.6215,0
85.42572,27.62151,0
85.42576,27.62159,0
85.42579,27.62163,0
85.42581,27.62171,0
85.42582,27.6218,0
85.42583,27.62184,0
85.42585,27.62191,0
85.42586,27.62194,0
85.4259,27.62202,0
85.42592,27.62205,0
85.42603,27.62227,0
85.42614,27.62244,0
85.42617,27.62249,0
85.4262,27.62253,0
85.42623,27.62257,0
85.42633,27.62267,0
85.42651,27.62281,0
85.42656,27.62283,0
85.42664,27.62285,0
85.42673,27.62288,0
85.42685,27.62289,0
85.42692,27.62288,0
85.42705,27.62287,0
85.42715,27.62285,0
85.42723,27.62284,0
85.427225,27.62284,0
85.42727,27.62287,0
85.42737,27.62295,0
85.42745,27.62298,0
85.42749,27.62299,0
85.42752,27.62299,0
85.42756,27.62299,0
85.42758,27.62298,0
85.4276,27.62297,0
85.42764,27.62294,0
85.42771,27.62288,0
85.42777,27.62281,0
85.42783,27.62275,0
85.42786,27.62273,0
85.42786,27.62272,0
85.4279,27.62271,0
85.42792,27.6227,0
85.42795,27.6227,0
85.42797,27.62271,0
85.428,27.62272,0
85.42803,27.62273,0
85.42807,27.62276,0
85.42812,27.62281,0
85.42815,27.62285,0
85.42815,27.62286,0
85.42815,27.62287,0
85.42815,27.62291,0
85.42815,27.62297,0
85.42815,27.62301,0
85.42815,27.62306,0
85.42816,27.62311,0
85.42818,27.62317,0
85.4282,27.62323,0
85.42821,27.62323,0
85.42823,27.62327,0
85.42827,27.6233,0
85.42831,27.62333,0
85.42836,27.62335,0
85.4284,27.62336,0
85.42843,27.62339,0
85.42845,27.62341,0
85.42846,27.62343,0
85.42847,27.62346,0
85.42848,27.6235,0
85.42851,27.62355,0
85.42854,27.62362,0
85.42859,27.62368,0
85.42868,27.62375,0
85.42879,27.62381,0
85.42892,27.62384,0
85.429,27.62386,0
85.42914,27.62385,0
85.42917,27.62384,0
85.42918,27.62384,0
85.4292,27.62382,0
85.42924,27.62379,0
85.42935,27.62366,0
85.42942,27.62354,0
85.42951,27.62335,0
85.42955,27.62325,0
85.42958,27.62321,0
85.42961,27.62318,0
85.42964,27.62317,0
85.42966,27.62315,0
85.42967,27.62315,0
85.42971,27.62314,0
85.42974,27.62314,0
85.42977,27.62315,0
85.42982,27.62316,0
85.42984,27.62317,0
85.42986,27.62318,0
85.42995,27.62324,0
85.43011,27.62334,0
85.4302,27.62336,0
85.43025,27.62338,0
85.43033,27.62342,0
85.43041,27.62348,0
85.43045,27.62353,0
85.43049,27.62355,0
85.43057,27.62359,0
85.43078,27.62363,0
85.430784,27.623632,0
85.43082,27.62357,0
85.430824,27.623565,0
85.4309,27.62346,0
85.43094,27.62337,0
85.43098,27.6233,0
85.43101,27.62326,0
85.43106,27.62323,0
85.43115,27.62319,0
85.43125,27.62315,0
85.43136,27.62308,0
85.43137,27.62308,0
85.43147,27.62305,0
85.43161,27.62303,0
85.43174,27.62301,0
85.43188,27.62298,0
85.43201,27.62295,0
85.43212,27.62292,0
85.43216,27.62291,0
85.43221,27.62292,0
85.43222,27.62292,0
85.432221,27.62292,0
85.43218,27.62311,0
85.43191,27.62319,0
85.43175,27.62333,0
85.431747,27.623327,0
85.432241,27.622954,0
85.432245,27.622969,0
85.43229,27.62296,0
85.43262,27.623,0
85.43283,27.62295,0
85.43296,27.62286,0
85.43317,27.62261,0
85.43323,27.62262,0
85.43323,27.62265,0
85.43321,27.62288,0
85.43326,27.62296,0
85.43382,27.62315,0
85.43409,27.62315,0
85.43431,27.62312,0
85.434319,27.623094,0
85.43432,27.623089,0
85.434459,27.623198,0
85.434644,27.623268,0
85.435009,27.623363,0
85.435009,27.62336,0
85.43515,27.62336,0
85.43549,27.62332,0
85.43569,27.62345,0
85.43611,27.62356,0
85.43652,27.62376,0
85.43682,27.62399,0
85.43706,27.62431,0
85.43716,27.62431,0
85.43758,27.62459,0
85.43764,27.62467,0
85.43773,27.62462,0
85.43777,27.62472,0
85.43783,27.62466,0
85.43788,27.62469,0
85.43789,27.62476,0
85.43802,27.62489,0
85.43783,27.625,0
85.437933,27.62513,0
85.43794,27.62514,0
85.437942,27.625149,0
85.43797,27.62514,0
85.438147,27.62514,0
85.43817,27.62513,0
85.43827,27.62511,0
85.43853,27.62492,0
85.43877,27.62484,0
85.43896,27.62481,0
85.43907,27.62488,0
85.43925,27.62514,0
85.4393,27.6252,0
85.43936,27.6252,0
85.4394,27.62517,0
85.43944,27.62516,0
85.43945,27.62514,0
85.43948,27.62501,0
85.43957,27.62491,0
85.43961,27.62479,0
85.43969,27.62469,0
85.43975,27.62466,0
85.44014,27.62464,0
85.44026,27.62468,0
85.44031,27.62484,0
85.44025,27.62485,0
85.44016,27.62476,0
85.43998,27.6248,0
85.44006,27.62484,0
85.44,27.62514,0
85.43987,27.6253,0
85.44,27.62532,0
85.44,27.62536,0
85.44011,27.62546,0
85.4401,27.62568,0
85.44016,27.62571,0
85.44027,27.62556,0
85.44037,27.62559,0
85.44043,27.62571,0
85.44038,27.62571,0
85.44037,27.62584,0
85.44041,27.62598,0
85.44052,27.62607,0
85.44053,27.62612,0
85.44071,27.62607,0
85.44072,27.6261,0
85.44078,27.62613,0
85.44093,27.62612,0
85.44121,27.62631,0
85.4414,27.62649,0
85.44149,27.6267,0
85.44147,27.62686,0
85.44155,27.62703,0
85.44152,27.62712,0
85.44164,27.62715,0
85.44161,27.62726,0
85.44177,27.62728,0
85.44182,27.62738,0
85.44186,27.62775,0
85.44198,27.62789,0
85.44226,27.62795,0
85.44227,27.62804,0
85.4422,27.62817,0
85.442333,27.628444,0
</coordinates>
</LineString>
</Placemark>
</Folder>
</Document>
</kml>
