<?xml version="1.0" encoding="UTF-8"?>
<kml xmlns="http://www.opengis.net/kml/2.2">
<Document>
<name>WNW_52.Simba waterfall Asoj 2080</name>
<description/>
<Style id="icon-1899-DB4436-nodesc-normal">
<IconStyle>
<color>ff3644db</color>
<scale>1</scale>
<Icon>
<href>https://www.gstatic.com/mapspro/images/stock/503-wht-blank_maps.png</href>
</Icon>
<hotSpot x="32" xunits="pixels" y="64" yunits="insetPixels"/>
</IconStyle>
<LabelStyle>
<scale>0</scale>
</LabelStyle>
<BalloonStyle>
<text><![CDATA[<h3>$[name]</h3>]]></text>
</BalloonStyle>
</Style>
<Style id="icon-1899-DB4436-nodesc-highlight">
<IconStyle>
<color>ff3644db</color>
<scale>1</scale>
<Icon>
<href>https://www.gstatic.com/mapspro/images/stock/503-wht-blank_maps.png</href>
</Icon>
<hotSpot x="32" xunits="pixels" y="64" yunits="insetPixels"/>
</IconStyle>
<LabelStyle>
<scale>1</scale>
</LabelStyle>
<BalloonStyle>
<text><![CDATA[<h3>$[name]</h3>]]></text>
</BalloonStyle>
</Style>
<StyleMap id="icon-1899-DB4436-nodesc">
<Pair>
<key>normal</key>
<styleUrl>#icon-1899-DB4436-nodesc-normal</styleUrl>
</Pair>
<Pair>
<key>highlight</key>
<styleUrl>#icon-1899-DB4436-nodesc-highlight</styleUrl>
</Pair>
</StyleMap>
<Style id="line-0000FF-2000-nodesc-normal">
<LineStyle>
<color>ffff0000</color>
<width>2</width>
</LineStyle>
<BalloonStyle>
<text><![CDATA[<h3>$[name]</h3>]]></text>
</BalloonStyle>
</Style>
<Style id="line-0000FF-2000-nodesc-highlight">
<LineStyle>
<color>ffff0000</color>
<width>3</width>
</LineStyle>
<BalloonStyle>
<text><![CDATA[<h3>$[name]</h3>]]></text>
</BalloonStyle>
</Style>
<StyleMap id="line-0000FF-2000-nodesc">
<Pair>
<key>normal</key>
<styleUrl>#line-0000FF-2000-nodesc-normal</styleUrl>
</Pair>
<Pair>
<key>highlight</key>
<styleUrl>#line-0000FF-2000-nodesc-highlight</styleUrl>
</Pair>
</StyleMap>
<Style id="line-00CD00-2000-nodesc-normal">
<LineStyle>
<color>ff00cd00</color>
<width>2</width>
</LineStyle>
<BalloonStyle>
<text><![CDATA[<h3>$[name]</h3>]]></text>
</BalloonStyle>
</Style>
<Style id="line-00CD00-2000-nodesc-highlight">
<LineStyle>
<color>ff00cd00</color>
<width>3</width>
</LineStyle>
<BalloonStyle>
<text><![CDATA[<h3>$[name]</h3>]]></text>
</BalloonStyle>
</Style>
<StyleMap id="line-00CD00-2000-nodesc">
<Pair>
<key>normal</key>
<styleUrl>#line-00CD00-2000-nodesc-normal</styleUrl>
</Pair>
<Pair>
<key>highlight</key>
<styleUrl>#line-00CD00-2000-nodesc-highlight</styleUrl>
</Pair>
</StyleMap>
<Style id="line-FF0000-2000-nodesc-normal">
<LineStyle>
<color>ff0000ff</color>
<width>2</width>
</LineStyle>
<BalloonStyle>
<text><![CDATA[<h3>$[name]</h3>]]></text>
</BalloonStyle>
</Style>
<Style id="line-FF0000-2000-nodesc-highlight">
<LineStyle>
<color>ff0000ff</color>
<width>3</width>
</LineStyle>
<BalloonStyle>
<text><![CDATA[<h3>$[name]</h3>]]></text>
</BalloonStyle>
</Style>
<StyleMap id="line-FF0000-2000-nodesc">
<Pair>
<key>normal</key>
<styleUrl>#line-FF0000-2000-nodesc-normal</styleUrl>
</Pair>
<Pair>
<key>highlight</key>
<styleUrl>#line-FF0000-2000-nodesc-highlight</styleUrl>
</Pair>
</StyleMap>
<Folder>
<name>Points</name>
<Placemark>
<name>km02</name>
<styleUrl>#icon-1899-DB4436-nodesc</styleUrl>
<Point>
<coordinates>
85.341274,27.562961,0
</coordinates>
</Point>
</Placemark>
<Placemark>
<name>km05</name>
<styleUrl>#icon-1899-DB4436-nodesc</styleUrl>
<Point>
<coordinates>
85.358877,27.554279,0
</coordinates>
</Point>
</Placemark>
<Placemark>
<name>km04</name>
<styleUrl>#icon-1899-DB4436-nodesc</styleUrl>
<Point>
<coordinates>
85.351224,27.556251,0
</coordinates>
</Point>
</Placemark>
<Placemark>
<name>km01</name>
<styleUrl>#icon-1899-DB4436-nodesc</styleUrl>
<Point>
<coordinates>
85.342752,27.566417,0
</coordinates>
</Point>
</Placemark>
<Placemark>
<name>km00</name>
<styleUrl>#icon-1899-DB4436-nodesc</styleUrl>
<Point>
<coordinates>
85.337911,27.571608,0
</coordinates>
</Point>
</Placemark>
<Placemark>
<name>km03</name>
<styleUrl>#icon-1899-DB4436-nodesc</styleUrl>
<Point>
<coordinates>
85.346217,27.558855,0
</coordinates>
</Point>
</Placemark>
<Placemark>
<name>km08</name>
<styleUrl>#icon-1899-DB4436-nodesc</styleUrl>
<Point>
<coordinates>
85.376072,27.548426,0
</coordinates>
</Point>
</Placemark>
<Placemark>
<name>km07</name>
<styleUrl>#icon-1899-DB4436-nodesc</styleUrl>
<Point>
<coordinates>
85.367585,27.548361,0
</coordinates>
</Point>
</Placemark>
<Placemark>
<name>km11</name>
<styleUrl>#icon-1899-DB4436-nodesc</styleUrl>
<Point>
<coordinates>
85.37765,27.542826,0
</coordinates>
</Point>
</Placemark>
<Placemark>
<name>km06</name>
<styleUrl>#icon-1899-DB4436-nodesc</styleUrl>
<Point>
<coordinates>
85.362303,27.550922,0
</coordinates>
</Point>
</Placemark>
<Placemark>
<name>km10</name>
<styleUrl>#icon-1899-DB4436-nodesc</styleUrl>
<Point>
<coordinates>
85.383851,27.544147,0
</coordinates>
</Point>
</Placemark>
<Placemark>
<name>km09</name>
<styleUrl>#icon-1899-DB4436-nodesc</styleUrl>
<Point>
<coordinates>
85.38272,27.548994,0
</coordinates>
</Point>
</Placemark>
<Placemark>
<name>km13</name>
<styleUrl>#icon-1899-DB4436-nodesc</styleUrl>
<Point>
<coordinates>
85.3838,27.539734,0
</coordinates>
</Point>
</Placemark>
<Placemark>
<name>km12</name>
<styleUrl>#icon-1899-DB4436-nodesc</styleUrl>
<Point>
<coordinates>
85.376992,27.539879,0
</coordinates>
</Point>
</Placemark>
<Placemark>
<name>km15</name>
<styleUrl>#icon-1899-DB4436-nodesc</styleUrl>
<Point>
<coordinates>
85.39511,27.53838,0
</coordinates>
</Point>
</Placemark>
<Placemark>
<name>km14</name>
<styleUrl>#icon-1899-DB4436-nodesc</styleUrl>
<Point>
<coordinates>
85.390594,27.54088,0
</coordinates>
</Point>
</Placemark>
<Placemark>
<name>km17</name>
<styleUrl>#icon-1899-DB4436-nodesc</styleUrl>
<Point>
<coordinates>
85.39411,27.53167,0
</coordinates>
</Point>
</Placemark>
<Placemark>
<name>km16</name>
<styleUrl>#icon-1899-DB4436-nodesc</styleUrl>
<Point>
<coordinates>
85.396039,27.534622,0
</coordinates>
</Point>
</Placemark>
<Placemark>
<name>km18</name>
<styleUrl>#icon-1899-DB4436-nodesc</styleUrl>
<Point>
<coordinates>
85.398281,27.528026,0
</coordinates>
</Point>
</Placemark>
<Placemark>
<name>km20</name>
<styleUrl>#icon-1899-DB4436-nodesc</styleUrl>
<Point>
<coordinates>
85.407179,27.529708,0
</coordinates>
</Point>
</Placemark>
<Placemark>
<name>km19</name>
<styleUrl>#icon-1899-DB4436-nodesc</styleUrl>
<Point>
<coordinates>
85.404921,27.529323,0
</coordinates>
</Point>
</Placemark>
<Placemark>
<name>km22</name>
<styleUrl>#icon-1899-DB4436-nodesc</styleUrl>
<Point>
<coordinates>
85.403522,27.520502,0
</coordinates>
</Point>
</Placemark>
<Placemark>
<name>km21</name>
<styleUrl>#icon-1899-DB4436-nodesc</styleUrl>
<Point>
<coordinates>
85.402482,27.525137,0
</coordinates>
</Point>
</Placemark>
<Placemark>
<name>km23</name>
<styleUrl>#icon-1899-DB4436-nodesc</styleUrl>
<Point>
<coordinates>
85.401667,27.51846,0
</coordinates>
</Point>
</Placemark>
<Placemark>
<name>km24</name>
<styleUrl>#icon-1899-DB4436-nodesc</styleUrl>
<Point>
<coordinates>
85.394092,27.518461,0
</coordinates>
</Point>
</Placemark>
<Placemark>
<name>km25</name>
<styleUrl>#icon-1899-DB4436-nodesc</styleUrl>
<Point>
<coordinates>
85.386071,27.518131,0
</coordinates>
</Point>
</Placemark>
<Placemark>
<name>km26</name>
<styleUrl>#icon-1899-DB4436-nodesc</styleUrl>
<Point>
<coordinates>
85.383837,27.51572,0
</coordinates>
</Point>
</Placemark>
<Placemark>
<name>km27</name>
<styleUrl>#icon-1899-DB4436-nodesc</styleUrl>
<Point>
<coordinates>
85.38451,27.509642,0
</coordinates>
</Point>
</Placemark>
<Placemark>
<name>km29</name>
<styleUrl>#icon-1899-DB4436-nodesc</styleUrl>
<Point>
<coordinates>
85.39122,27.505697,0
</coordinates>
</Point>
</Placemark>
<Placemark>
<name>km28</name>
<styleUrl>#icon-1899-DB4436-nodesc</styleUrl>
<Point>
<coordinates>
85.387971,27.504206,0
</coordinates>
</Point>
</Placemark>
<Placemark>
<name>km31</name>
<styleUrl>#icon-1899-DB4436-nodesc</styleUrl>
<Point>
<coordinates>
85.385034,27.499149,0
</coordinates>
</Point>
</Placemark>
<Placemark>
<name>km30</name>
<styleUrl>#icon-1899-DB4436-nodesc</styleUrl>
<Point>
<coordinates>
85.388758,27.499056,0
</coordinates>
</Point>
</Placemark>
<Placemark>
<name>km32</name>
<styleUrl>#icon-1899-DB4436-nodesc</styleUrl>
<Point>
<coordinates>
85.388581,27.494977,0
</coordinates>
</Point>
</Placemark>
<Placemark>
<name>km33</name>
<styleUrl>#icon-1899-DB4436-nodesc</styleUrl>
<Point>
<coordinates>
85.386218,27.492647,0
</coordinates>
</Point>
</Placemark>
<Placemark>
<name>km34</name>
<styleUrl>#icon-1899-DB4436-nodesc</styleUrl>
<Point>
<coordinates>
85.383954,27.491877,0
</coordinates>
</Point>
</Placemark>
<Placemark>
<name>km35</name>
<styleUrl>#icon-1899-DB4436-nodesc</styleUrl>
<Point>
<coordinates>
85.380714,27.488836,0
</coordinates>
</Point>
</Placemark>
<Placemark>
<name>km36</name>
<styleUrl>#icon-1899-DB4436-nodesc</styleUrl>
<Point>
<coordinates>
85.373974,27.490684,0
</coordinates>
</Point>
</Placemark>
<Placemark>
<name>km37</name>
<styleUrl>#icon-1899-DB4436-nodesc</styleUrl>
<Point>
<coordinates>
85.374437,27.490126,0
</coordinates>
</Point>
</Placemark>
</Folder>
<Folder>
<name>LineStrings</name>
<Placemark>
<name>si</name>
<styleUrl>#line-FF0000-2000-nodesc</styleUrl>
<LineString>
<tessellate>1</tessellate>
<coordinates>
85.374294,27.490291,0
85.374305,27.490298,0
85.374365,27.490374,0
85.374269,27.490451,0
85.374193,27.490516,0
85.374094,27.490595,0
85.374019,27.490657,0
85.373933,27.490717,0
85.37387,27.49079,0
85.373862,27.490886,0
85.373864,27.49098,0
85.373895,27.491075,0
85.373994,27.491113,0
85.374109,27.491128,0
85.374211,27.491135,0
85.374313,27.491171,0
85.374428,27.491217,0
85.374526,27.491247,0
85.374638,27.491273,0
85.374723,27.491342,0
85.374827,27.491384,0
85.37494,27.491417,0
85.375052,27.491423,0
85.375161,27.491401,0
85.375297,27.491377,0
85.375413,27.491338,0
85.375557,27.49132,0
85.375692,27.491284,0
85.375788,27.491213,0
85.375834,27.491116,0
85.375885,27.491007,0
85.376002,27.490965,0
85.376107,27.490985,0
85.376241,27.490982,0
85.37636,27.490949,0
85.376437,27.490868,0
85.376497,27.490793,0
85.376578,27.490728,0
85.376625,27.490629,0
85.376758,27.490606,0
85.376911,27.490623,0
85.377022,27.490604,0
85.377143,27.49058,0
85.377245,27.490582,0
85.377307,27.490664,0
85.377415,27.490617,0
85.377546,27.490618,0
85.377677,27.490637,0
85.377789,27.490638,0
85.37789,27.490656,0
85.377998,27.490621,0
85.378122,27.490618,0
85.378215,27.490677,0
85.37834,27.4907,0
85.378401,27.490785,0
85.378502,27.49079,0
85.378603,27.49084,0
85.378701,27.490877,0
85.378801,27.490923,0
85.378913,27.490981,0
85.379013,27.491004,0
85.379096,27.490927,0
85.379209,27.490854,0
85.379254,27.490764,0
85.379303,27.490674,0
85.379366,27.490595,0
85.379469,27.490541,0
85.37949,27.49041,0
85.379525,27.490277,0
85.379595,27.490197,0
85.379648,27.490097,0
85.379736,27.490029,0
85.379819,27.489974,0
85.37991,27.489897,0
85.380046,27.489826,0
85.38017,27.489784,0
85.380239,27.489708,0
85.380238,27.489606,0
85.380218,27.489504,0
85.380116,27.489427,0
85.380016,27.489357,0
85.37998,27.489269,0
85.380077,27.489212,0
85.380149,27.489143,0
85.380246,27.489086,0
85.380352,27.48905,0
85.380459,27.489025,0
85.380549,27.488957,0
85.380574,27.488852,0
85.38063,27.488652,0
85.380675,27.488517,0
85.380735,27.488399,0
85.380805,27.488309,0
85.380921,27.4883,0
85.381026,27.488353,0
85.381105,27.488448,0
85.381204,27.488498,0
85.381156,27.488595,0
85.381128,27.488683,0
85.381396,27.488827,0
85.381493,27.488891,0
85.381596,27.488918,0
85.381695,27.488979,0
85.381756,27.48907,0
85.381877,27.489058,0
85.381997,27.489039,0
85.382118,27.489058,0
85.382219,27.489112,0
85.382346,27.489154,0
</coordinates>
</LineString>
</Placemark>
<Placemark>
<name>si</name>
<styleUrl>#line-0000FF-2000-nodesc</styleUrl>
<LineString>
<tessellate>1</tessellate>
<coordinates>
85.374437,27.490126,0
85.374446,27.490033,0
85.374391,27.489941,0
85.374419,27.489849,0
85.374492,27.489784,0
85.374602,27.48975,0
85.374699,27.489723,0
85.374612,27.489674,0
85.374527,27.489617,0
85.374458,27.489547,0
85.374371,27.489493,0
85.374291,27.489424,0
85.37423,27.489349,0
85.374203,27.489262,0
85.37418,27.489168,0
85.37424,27.48909,0
85.374274,27.488998,0
85.374316,27.488914,0
85.374388,27.488848,0
85.374463,27.488787,0
85.374543,27.488726,0
85.374645,27.488684,0
85.374703,27.48861,0
85.374792,27.488551,0
85.374855,27.488478,0
85.374932,27.488415,0
85.375008,27.488342,0
85.375071,27.48826,0
85.375136,27.488186,0
85.375216,27.488121,0
85.375274,27.488042,0
85.375276,27.487945,0
85.375281,27.487844,0
85.375361,27.487787,0
85.375285,27.487727,0
85.375176,27.487734,0
85.375205,27.487643,0
85.375286,27.487583,0
85.375356,27.487511,0
85.375328,27.487423,0
85.375242,27.487372,0
85.375156,27.487309,0
85.375053,27.487314,0
85.374945,27.48733,0
85.374845,27.487293,0
85.374741,27.487294,0
85.374631,27.487264,0
85.374554,27.487198,0
85.374469,27.487141,0
85.374372,27.487106,0
85.374258,27.487079,0
85.374159,27.487046,0
85.374086,27.486978,0
85.373987,27.48695,0
85.373941,27.486862,0
85.373908,27.486772,0
85.37389,27.486683,0
85.373873,27.486587,0
85.373874,27.48649,0
85.373783,27.486449,0
85.373713,27.486374,0
85.37372,27.486284,0
85.373724,27.48619,0
85.373697,27.486094,0
85.373701,27.485998,0
85.37367,27.485909,0
85.373658,27.485815,0
85.373625,27.485729,0
85.373727,27.485726,0
85.373829,27.485705,0
85.373757,27.485635,0
85.373678,27.485566,0
85.373574,27.485548,0
85.373494,27.485615,0
85.373389,27.485623,0
85.373287,27.485612,0
85.373188,27.485594,0
85.373087,27.485561,0
85.373004,27.485504,0
85.372943,27.485503,0
</coordinates>
</LineString>
</Placemark>
<Placemark>
<name>si</name>
<styleUrl>#line-FF0000-2000-nodesc</styleUrl>
<LineString>
<tessellate>1</tessellate>
<coordinates>
85.337911,27.571608,0
85.337849,27.57102,0
85.33787,27.57104,0
85.33825,27.57072,0
85.33842,27.5704,0
85.33862,27.57025,0
85.33876,27.57002,0
85.338884,27.569933,0
85.33926,27.56967,0
85.33953,27.56956,0
85.33966,27.56943,0
85.33983,27.56911,0
85.34003,27.56898,0
85.34026,27.56897,0
85.34053,27.56886,0
85.34072,27.56873,0
85.34077,27.56818,0
85.341029,27.568099,0
85.341159,27.568058,0
85.34128,27.56802,0
85.34147,27.56785,0
85.34162,27.56765,0
85.3418,27.56727,0
85.34189,27.56708,0
85.34254,27.56679,0
85.3434,27.5668,0
85.343418,27.566787,0
85.34351,27.56672,0
85.34365,27.56656,0
85.34355,27.5665,0
85.34336,27.56664,0
85.34322,27.56666,0
85.34268,27.56638,0
85.34258,27.56628,0
85.34271,27.56563,0
85.34274,27.5651,0
85.34296,27.5647,0
85.34297,27.56462,0
85.34293,27.56453,0
85.34286,27.56453,0
85.34258,27.56471,0
85.34204,27.56523,0
85.34197,27.56524,0
85.3418,27.56514,0
85.34165,27.5651,0
85.34161,27.56506,0
85.34156,27.56486,0
85.34141,27.56455,0
85.34105,27.56447,0
85.34101,27.56439,0
85.34104,27.56424,0
85.34102,27.56411,0
85.34093,27.56401,0
85.34079,27.56394,0
85.34065,27.56394,0
85.34039,27.56408,0
85.34033,27.56414,0
85.34019,27.56437,0
85.34013,27.56442,0
85.34001,27.56443,0
85.33977,27.56438,0
85.339557,27.564475,0
85.3395,27.5645,0
85.33944,27.56449,0
85.33941,27.56445,0
85.33942,27.56439,0
85.33958,27.56427,0
85.33996,27.56412,0
85.34005,27.56375,0
85.34038,27.56333,0
85.34065,27.56309,0
85.34085,27.56299,0
85.3412,27.563,0
85.34152,27.56283,0
85.34173,27.5629,0
85.3418,27.56289,0
85.34196,27.56258,0
85.34202,27.56253,0
85.34213,27.5625,0
85.34239,27.56252,0
85.34319,27.56226,0
85.34323,27.5622,0
85.34324,27.56194,0
85.34333,27.56184,0
85.34351,27.56175,0
85.34357,27.56168,0
85.34369,27.56117,0
85.34376,27.5611,0
85.34396,27.56102,0
85.34435,27.56098,0
85.34439,27.56095,0
85.34441,27.56085,0
85.34433,27.56079,0
85.34402,27.56079,0
85.34384,27.56083,0
85.34369,27.56081,0
85.3434,27.5606,0
85.34336,27.56055,0
85.34334,27.56049,0
85.34354,27.56033,0
85.34371,27.56013,0
85.34415,27.55982,0
85.34422,27.55949,0
85.34436,27.55945,0
85.34469,27.55943,0
85.34478,27.55937,0
85.34481,27.55927,0
85.34487,27.55863,0
85.346389,27.558884,0
85.346446,27.55878,0
85.34647,27.55879,0
85.34661,27.55864,0
85.34684,27.55856,0
85.34689,27.55851,0
85.34692,27.55844,0
85.34694,27.55816,0
85.34696,27.5581,0
85.34703,27.55806,0
85.34711,27.55806,0
85.34716,27.55809,0
85.34723,27.5582,0
85.34727,27.55821,0
85.34735,27.55817,0
85.34736,27.55811,0
85.34721,27.55797,0
85.34708,27.5579,0
85.34694,27.5579,0
85.34677,27.55797,0
85.34671,27.55796,0
85.34659,27.55783,0
85.34649,27.55777,0
85.34625,27.55768,0
85.34602,27.55765,0
85.345982,27.557636,0
85.34594,27.55762,0
85.34591,27.55759,0
85.34592,27.55753,0
85.345967,27.557512,0
85.34605,27.55748,0
85.34664,27.55749,0
85.34692,27.55741,0
85.34727,27.55746,0
85.34757,27.55738,0
85.34764,27.55733,0
85.34785,27.5572,0
85.34805,27.55725,0
85.3482,27.55723,0
85.34833,27.55706,0
85.34852,27.55704,0
85.34868,27.55717,0
85.34884,27.55716,0
85.34893,27.55704,0
85.34908,27.55699,0
85.34931,27.55704,0
85.34956,27.55726,0
85.34968,27.5572,0
85.34982,27.55702,0
85.35033,27.55694,0
85.35121,27.5567,0
85.35127,27.55658,0
85.35122,27.55622,0
85.3513,27.55615,0
85.35182,27.55607,0
85.35193,27.556064,0
85.35273,27.55602,0
85.35369,27.55586,0
85.35403,27.55589,0
85.35458,27.55604,0
85.35495,27.55603,0
85.35529,27.55591,0
85.35562,27.55573,0
85.35583,27.55543,0
85.35617,27.55513,0
85.35632,27.55495,0
85.35655,27.55458,0
85.35692,27.55436,0
85.35707,27.55422,0
85.35717,27.55425,0
85.35716,27.55436,0
85.35708,27.55449,0
85.35709,27.55466,0
85.35729,27.55501,0
85.35744,27.55505,0
85.35764,27.55494,0
85.35785,27.55475,0
85.35835,27.55408,0
85.35847,27.5541,0
85.3588,27.55432,0
85.35886,27.5543,0
85.3589,27.55425,0
85.35887,27.5541,0
85.35899,27.5538,0
85.3593,27.55375,0
85.3594,27.55364,0
85.35938,27.55312,0
85.35956,27.55298,0
85.3596,27.55272,0
85.35977,27.5527,0
85.36001,27.55294,0
85.36036,27.55312,0
85.36048,27.55334,0
85.36066,27.55353,0
85.36078,27.5536,0
85.36094,27.55362,0
85.361,27.55355,0
85.36095,27.55328,0
85.36099,27.55318,0
85.36119,27.55301,0
85.36128,27.55283,0
85.36107,27.55231,0
85.36101,27.55179,0
85.36089,27.55145,0
85.36107,27.55143,0
85.36126,27.55147,0
85.36181,27.55171,0
85.36195,27.55162,0
85.36254,27.5517,0
85.36286,27.55188,0
85.36299,27.55177,0
85.362889,27.551589,0
85.36267,27.5512,0
85.3623,27.55093,0
85.36237,27.55073,0
85.36228,27.55051,0
85.36211,27.55041,0
85.36198,27.55021,0
85.36177,27.55008,0
85.36179,27.55,0
85.36201,27.54977,0
85.3621,27.54953,0
85.36206,27.54938,0
85.36189,27.54917,0
85.36152,27.54909,0
85.3614,27.54903,0
85.36141,27.54897,0
85.36144,27.54891,0
85.36178,27.54877,0
85.36212,27.54882,0
85.36242,27.54879,0
85.36266,27.54881,0
85.36296,27.54892,0
85.36335,27.54888,0
85.36358,27.54901,0
85.36377,27.54896,0
85.3645,27.54877,0
85.36483,27.54915,0
85.36495,27.54909,0
85.36499,27.54874,0
85.36507,27.54867,0
85.36535,27.54869,0
85.36579,27.54857,0
85.36621,27.54858,0
85.36674,27.54845,0
85.36694,27.54845,0
85.36727,27.54824,0
85.36735,27.54825,0
85.36755,27.54837,0
85.36778,27.54831,0
85.36808,27.5483,0
85.36847,27.54808,0
85.36856,27.54808,0
85.36867,27.54811,0
85.36901,27.54847,0
85.36926,27.54856,0
85.36951,27.54881,0
85.3698,27.54884,0
85.37002,27.54893,0
85.37031,27.54888,0
85.37061,27.54892,0
85.37081,27.54886,0
85.37088,27.5489,0
85.37091,27.5491,0
85.37103,27.54918,0
85.37123,27.54912,0
85.37124,27.54896,0
85.3713,27.54887,0
85.3716,27.54882,0
85.37184,27.5487,0
85.37216,27.54867,0
85.37259,27.54875,0
85.37303,27.54902,0
85.37309,27.54896,0
85.37316,27.54877,0
85.37332,27.54869,0
85.37349,27.54865,0
85.37362,27.54868,0
85.37395,27.54885,0
85.37403,27.54883,0
85.3742,27.54862,0
85.37469,27.54835,0
85.37474,27.54834,0
85.3749,27.54843,0
85.37519,27.54839,0
85.37545,27.54843,0
85.37553,27.54842,0
85.37567,27.54836,0
85.37581,27.54835,0
85.37619,27.54846,0
85.37633,27.54858,0
85.37666,27.54877,0
85.37672,27.54882,0
85.37686,27.54913,0
85.37695,27.54924,0
85.37708,27.54958,0
85.3772,27.549784,0
85.37728,27.54992,0
85.37745,27.55008,0
85.37766,27.55011,0
85.37774,27.55023,0
85.378,27.55021,0
85.37826,27.55036,0
85.37841,27.55031,0
85.37863,27.55016,0
85.378699,27.550059,0
85.3788,27.54991,0
85.37895,27.54979,0
85.37939,27.54965,0
85.3796,27.54969,0
85.37974,27.54987,0
85.38014,27.54987,0
85.38054,27.54996,0
85.38081,27.54991,0
85.38125,27.54999,0
85.38158,27.550007,0
85.38165,27.55001,0
85.38214,27.54997,0
85.38239,27.55001,0
85.38253,27.55012,0
85.38265,27.55012,0
85.382761,27.550094,0
85.38295,27.55005,0
85.38323,27.54991,0
85.38323,27.54975,0
85.38315,27.54961,0
85.38294,27.54948,0
85.38283,27.54945,0
85.38272,27.54913,0
85.38272,27.54903,0
85.38272,27.54885,0
85.38278,27.54859,0
85.38352,27.54819,0
85.38364,27.54803,0
85.3841,27.54781,0
85.38447,27.54773,0
85.38477,27.54759,0
85.38495,27.5474,0
85.38518,27.54729,0
85.38522,27.54724,0
85.385329,27.547257,0
85.385193,27.547153,0
85.385185,27.547134,0
85.385163,27.547123,0
85.385056,27.54707,0
85.384932,27.547057,0
85.384826,27.547046,0
85.384704,27.547039,0
85.384608,27.547084,0
85.384492,27.547092,0
85.384361,27.547084,0
85.384211,27.547063,0
85.38411,27.547046,0
85.384004,27.547017,0
85.383868,27.547059,0
85.383741,27.547095,0
85.383632,27.547155,0
85.383502,27.547153,0
85.383385,27.547189,0
85.383286,27.547222,0
85.383179,27.547216,0
85.38309,27.54716,0
85.383117,27.54705,0
85.383214,27.546924,0
85.383243,27.546833,0
85.38321,27.546722,0
85.383104,27.546659,0
85.382987,27.546627,0
85.382953,27.546519,0
85.382981,27.546396,0
85.383017,27.546303,0
85.383018,27.546196,0
85.383007,27.546071,0
85.38303,27.545938,0
85.383073,27.545854,0
85.383118,27.545767,0
85.383171,27.545675,0
85.38327,27.54562,0
85.383373,27.545542,0
85.383422,27.545454,0
85.383476,27.54537,0
85.383599,27.545307,0
85.38372,27.545275,0
85.383809,27.545198,0
85.383802,27.545081,0
85.383726,27.544965,0
85.383716,27.544849,0
85.383769,27.544742,0
85.383796,27.544629,0
85.383856,27.544526,0
85.383915,27.544422,0
85.383978,27.544314,0
85.384002,27.544217,0
85.383984,27.544122,0
85.383864,27.544124,0
85.383809,27.544216,0
85.383726,27.54432,0
85.38358,27.544375,0
85.383472,27.544398,0
85.383371,27.544443,0
85.383307,27.544532,0
85.383254,27.544617,0
85.383185,27.544684,0
85.38309,27.544745,0
85.382982,27.544794,0
85.382851,27.544829,0
85.382722,27.544862,0
85.382594,27.544832,0
85.382507,27.544735,0
85.382415,27.544675,0
85.382318,27.544569,0
85.382253,27.544458,0
85.382221,27.544353,0
85.382227,27.544254,0
85.382253,27.544146,0
85.382205,27.544035,0
85.382094,27.543976,0
85.381975,27.543967,0
85.38188,27.544046,0
85.381805,27.544117,0
85.381717,27.544179,0
85.381597,27.544249,0
85.381494,27.544287,0
85.381446,27.544188,0
85.381456,27.544068,0
85.381445,27.543969,0
85.381407,27.543876,0
85.381371,27.543789,0
85.381352,27.543698,0
85.381392,27.543583,0
85.381475,27.543503,0
85.381511,27.5434,0
85.381556,27.5433,0
85.381522,27.543198,0
85.381378,27.543184,0
85.381227,27.543199,0
85.381117,27.543217,0
85.380982,27.543173,0
85.380899,27.54312,0
85.380804,27.543051,0
85.380722,27.542965,0
85.380635,27.542879,0
85.38058,27.542787,0
85.380455,27.542832,0
85.380402,27.542932,0
85.380407,27.54305,0
85.380421,27.543155,0
85.380402,27.543271,0
85.380344,27.543382,0
85.38027,27.543448,0
85.380157,27.543481,0
85.380015,27.543482,0
85.379921,27.543424,0
85.379872,27.543311,0
85.379845,27.543172,0
85.379814,27.543063,0
85.379748,27.542977,0
85.379647,27.542898,0
85.379571,27.54283,0
85.379405,27.542842,0
85.379285,27.54286,0
85.379117,27.542847,0
85.378961,27.542838,0
85.378827,27.542851,0
85.378713,27.542884,0
85.378598,27.542891,0
85.378482,27.542846,0
85.378381,27.542828,0
85.378291,27.542889,0
85.378197,27.542957,0
85.378092,27.542997,0
85.377958,27.543036,0
85.377844,27.543015,0
85.37772,27.542969,0
85.377647,27.542875,0
85.377656,27.542753,0
85.377678,27.54265,0
85.377743,27.542565,0
85.377815,27.542484,0
85.377897,27.542421,0
85.377979,27.542333,0
85.378009,27.542232,0
85.377946,27.542136,0
85.37796,27.542017,0
85.378042,27.541922,0
85.378095,27.54183,0
85.378174,27.541735,0
85.378189,27.541632,0
85.378188,27.541529,0
85.378186,27.541437,0
85.37821,27.541344,0
85.378155,27.54123,0
85.378208,27.541118,0
85.37824,27.541031,0
85.378358,27.540949,0
85.378426,27.540855,0
85.378489,27.540769,0
85.378456,27.540673,0
85.378472,27.540532,0
85.378526,27.540423,0
85.378577,27.540322,0
85.378519,27.540213,0
85.378426,27.540141,0
85.378335,27.540086,0
85.378236,27.540047,0
85.378194,27.539936,0
85.378213,27.539847,0
85.378242,27.539722,0
85.378157,27.539646,0
85.37803,27.539667,0
85.377899,27.539731,0
85.377774,27.539802,0
85.377677,27.539872,0
85.377559,27.539898,0
85.377452,27.539988,0
85.377384,27.540109,0
85.377376,27.540208,0
85.377325,27.540288,0
85.377132,27.540339,0
85.377006,27.540402,0
85.376915,27.540449,0
85.376803,27.540496,0
85.376701,27.540511,0
85.376553,27.540527,0
85.376446,27.540544,0
85.376333,27.540542,0
85.376172,27.540552,0
85.37604,27.540532,0
85.375915,27.540512,0
85.375811,27.540539,0
85.37579,27.54063,0
85.375734,27.540721,0
85.375693,27.540806,0
85.375698,27.540914,0
85.375692,27.541013,0
85.375662,27.541111,0
85.375555,27.541136,0
85.375508,27.541051,0
85.375517,27.540933,0
85.375546,27.540834,0
85.37559,27.540739,0
85.375637,27.540633,0
85.375653,27.540542,0
85.375724,27.540432,0
85.37579,27.54034,0
85.375908,27.540336,0
85.376032,27.54036,0
85.376139,27.54038,0
85.376227,27.540302,0
85.376333,27.540251,0
85.37648,27.540244,0
85.376622,27.540226,0
85.376732,27.540182,0
85.376832,27.540108,0
85.376909,27.540029,0
85.376972,27.539949,0
85.377003,27.539839,0
85.377024,27.539749,0
85.377032,27.539644,0
85.377082,27.539548,0
85.377159,27.539482,0
85.377239,27.53942,0
85.377339,27.539391,0
85.377442,27.539345,0
85.377574,27.539284,0
85.377679,27.539279,0
85.377762,27.539214,0
85.377841,27.539155,0
85.377935,27.539105,0
85.378063,27.539038,0
85.378182,27.539003,0
85.378236,27.538908,0
85.378285,27.538825,0
85.378376,27.53877,0
85.378483,27.538755,0
85.378609,27.538741,0
85.378693,27.53869,0
85.378781,27.538602,0
85.378891,27.538592,0
85.378975,27.538647,0
85.379063,27.538737,0
85.379309,27.538702,0
85.379414,27.538727,0
85.37955,27.538757,0
85.379655,27.538753,0
85.37974,27.538685,0
85.379869,27.538697,0
85.380021,27.538689,0
85.380161,27.538649,0
85.380262,27.53858,0
85.380361,27.538527,0
85.380377,27.538433,0
85.380318,27.538411,0
85.380267,27.538278,0
85.380299,27.53819,0
85.380431,27.538116,0
85.380735,27.537943,0
85.380843,27.537919,0
85.380907,27.537998,0
85.380929,27.53811,0
85.381017,27.53819,0
85.381138,27.538242,0
85.381254,27.538257,0
85.381363,27.53826,0
85.38148,27.538335,0
85.381681,27.538495,0
85.381726,27.538593,0
85.381843,27.538629,0
85.381976,27.538665,0
85.382075,27.538694,0
85.382147,27.538787,0
85.382224,27.538908,0
85.382297,27.538977,0
85.382394,27.539018,0
85.382455,27.539114,0
85.382464,27.539217,0
85.382456,27.539319,0
85.382524,27.539398,0
85.382637,27.539403,0
85.382756,27.539409,0
85.382802,27.539516,0
85.382824,27.539636,0
85.382905,27.539719,0
85.383039,27.539684,0
85.383142,27.539637,0
85.383153,27.539517,0
85.38319,27.539405,0
85.383211,27.53931,0
85.383266,27.539204,0
85.383389,27.539193,0
85.383474,27.539244,0
85.38355,27.539354,0
85.383611,27.539471,0
85.383655,27.53956,0
85.383712,27.539641,0
85.383789,27.53972,0
85.383873,27.53983,0
85.383917,27.539943,0
85.383938,27.54005,0
85.384012,27.540159,0
85.384135,27.540181,0
85.384268,27.540122,0
85.384382,27.540069,0
85.384502,27.540042,0
85.384632,27.540044,0
85.384743,27.540072,0
85.384883,27.540111,0
85.384996,27.540175,0
85.385062,27.540259,0
85.385112,27.54036,0
85.385171,27.540473,0
85.385223,27.540557,0
85.385299,27.540659,0
85.385379,27.540721,0
85.385496,27.540788,0
85.385594,27.540873,0
85.385704,27.540942,0
85.385813,27.540972,0
85.385942,27.54097,0
85.386084,27.54093,0
85.386178,27.540885,0
85.386299,27.540832,0
85.386399,27.540809,0
85.386535,27.540828,0
85.386643,27.540898,0
85.386733,27.540951,0
85.386839,27.541006,0
85.386951,27.541077,0
85.387041,27.541134,0
85.387144,27.541206,0
85.387247,27.541269,0
85.387354,27.541283,0
85.387427,27.541351,0
85.387504,27.541435,0
85.387503,27.541541,0
85.387447,27.541622,0
85.387342,27.541684,0
85.387288,27.541791,0
85.387314,27.541884,0
85.387437,27.541889,0
85.387525,27.541789,0
85.387624,27.54174,0
85.387719,27.541667,0
85.387716,27.541561,0
85.387645,27.541445,0
85.387664,27.541338,0
85.387681,27.541241,0
85.38783,27.541203,0
85.387945,27.541172,0
85.388074,27.541161,0
85.388184,27.541225,0
85.388303,27.541281,0
85.38844,27.541334,0
85.388546,27.541341,0
85.388637,27.541388,0
85.388724,27.541467,0
85.388821,27.541575,0
85.388899,27.541645,0
85.389027,27.541719,0
85.389137,27.54176,0
85.389241,27.541744,0
85.389334,27.541707,0
85.389427,27.541632,0
85.389541,27.541549,0
85.389575,27.541409,0
85.389566,27.5413,0
85.389629,27.541185,0
85.389725,27.541156,0
85.389863,27.541159,0
85.390034,27.541137,0
85.390166,27.541077,0
85.390285,27.540998,0
85.390342,27.540905,0
85.390414,27.54084,0
85.390546,27.540861,0
85.390674,27.540912,0
85.39079,27.540934,0
85.39089,27.540914,0
85.391023,27.540845,0
85.391106,27.540781,0
85.391167,27.54064,0
85.391148,27.540535,0
85.391096,27.540438,0
85.39108,27.54034,0
85.391024,27.540226,0
85.390986,27.540131,0
85.391009,27.540021,0
85.391025,27.539921,0
85.391049,27.539833,0
85.391184,27.539843,0
85.3913,27.539849,0
85.391414,27.539839,0
85.391532,27.539806,0
85.391691,27.53984,0
85.391689,27.539974,0
85.391794,27.540065,0
85.391934,27.540167,0
85.39211,27.540138,0
85.392251,27.540099,0
85.392381,27.540091,0
85.392494,27.540003,0
85.39245,27.540135,0
85.392485,27.54026,0
85.392557,27.540282,0
85.392502,27.540205,0
85.392469,27.540314,0
85.392471,27.540424,0
85.39252,27.540561,0
85.392557,27.540685,0
85.3926,27.540788,0
85.392716,27.540779,0
85.392822,27.540711,0
85.392901,27.540563,0
85.392979,27.540464,0
85.393048,27.540376,0
85.393124,27.540294,0
85.393216,27.540212,0
85.393291,27.540121,0
85.393373,27.540031,0
85.393448,27.539951,0
85.39365,27.539928,0
85.393792,27.539878,0
85.393951,27.539982,0
85.394079,27.53994,0
85.394213,27.539905,0
85.394342,27.539864,0
85.394467,27.539832,0
85.394631,27.539907,0
85.394602,27.539928,0
85.394556,27.539842,0
85.394473,27.539651,0
85.39455,27.539441,0
85.394644,27.539305,0
85.394611,27.539217,0
85.394645,27.539125,0
85.394667,27.538999,0
85.394654,27.538909,0
85.394695,27.538714,0
85.394717,27.538616,0
85.394838,27.53825,0
85.394904,27.538085,0
85.395059,27.537998,0
85.394963,27.538035,0
85.395025,27.538185,0
85.395047,27.538296,0
85.395102,27.538377,0
85.3952,27.53842,0
85.395263,27.538515,0
85.395379,27.538495,0
85.395412,27.538404,0
85.395364,27.538285,0
85.395331,27.538161,0
85.395414,27.538093,0
85.395421,27.537981,0
85.39548,27.537866,0
85.395587,27.537856,0
85.395698,27.537831,0
85.395834,27.537805,0
85.395977,27.537786,0
85.396111,27.537778,0
85.39625,27.537775,0
85.396378,27.537762,0
85.396527,27.537836,0
85.396624,27.537889,0
85.396718,27.537937,0
85.396842,27.537922,0
85.396865,27.537816,0
85.396871,27.537726,0
85.396767,27.537639,0
85.396656,27.537536,0
85.396606,27.537427,0
85.396577,27.53732,0
85.396567,27.537204,0
85.396605,27.5371,0
85.396685,27.537024,0
85.396752,27.536942,0
85.396838,27.536887,0
85.396737,27.536826,0
85.396625,27.536768,0
85.396526,27.536724,0
85.396427,27.536797,0
85.396304,27.536838,0
85.396153,27.536865,0
85.396025,27.536867,0
85.395913,27.53683,0
85.395798,27.536799,0
85.395675,27.536728,0
85.395653,27.536615,0
85.39564,27.536456,0
85.395627,27.536352,0
85.395563,27.536268,0
85.395487,27.536166,0
85.395365,27.536189,0
85.39524,27.536198,0
85.395101,27.536189,0
85.394988,27.536171,0
85.394903,27.536117,0
85.394805,27.536029,0
85.394789,27.535923,0
85.394783,27.53583,0
85.39487,27.535775,0
85.394995,27.53576,0
85.395143,27.535749,0
85.395267,27.535728,0
85.395368,27.535669,0
85.395285,27.535582,0
85.395379,27.535532,0
85.395481,27.535498,0
85.395578,27.535426,0
85.395663,27.53534,0
85.395711,27.535223,0
85.395638,27.53514,0
85.395509,27.535103,0
85.395386,27.535095,0
85.395288,27.535066,0
85.395189,27.535026,0
85.395139,27.534938,0
85.395143,27.53481,0
85.39518,27.534707,0
85.395274,27.534619,0
85.395382,27.534578,0
85.395524,27.534578,0
85.39564,27.534589,0
85.395757,27.534625,0
85.395878,27.534643,0
85.395993,27.534646,0
85.396127,27.534576,0
85.396254,27.534577,0
85.396372,27.534554,0
85.396457,27.534494,0
85.3965,27.534366,0
85.396431,27.534243,0
85.396385,27.534141,0
85.396398,27.534052,0
85.396432,27.533951,0
85.396442,27.533853,0
85.39648,27.533727,0
85.396553,27.53365,0
85.396686,27.533561,0
85.396787,27.533504,0
85.396921,27.533454,0
85.397024,27.53342,0
85.397136,27.533438,0
85.397283,27.533464,0
85.397427,27.533461,0
85.397566,27.533509,0
85.397687,27.53345,0
85.397657,27.533354,0
85.397603,27.533245,0
85.397618,27.533149,0
85.397574,27.533065,0
85.397574,27.532912,0
85.39761,27.532824,0
85.397639,27.53272,0
85.397664,27.532594,0
85.397654,27.532478,0
85.397675,27.532379,0
85.397692,27.532289,0
85.397709,27.532166,0
85.397731,27.532066,0
85.397752,27.531947,0
85.397585,27.531926,0
85.397601,27.532159,0
85.397612,27.532349,0
85.397413,27.532399,0
85.397288,27.532446,0
85.397318,27.532386,0
85.397021,27.532321,0
85.396914,27.532253,0
85.396824,27.532171,0
85.396786,27.532087,0
85.396744,27.531995,0
85.396703,27.531907,0
85.396673,27.531804,0
85.396632,27.531694,0
85.396521,27.531967,0
85.396472,27.532074,0
85.396218,27.532118,0
85.396111,27.532123,0
85.395973,27.532119,0
85.395842,27.532136,0
85.395734,27.532167,0
85.395626,27.532156,0
85.395472,27.532137,0
85.395443,27.532124,0
85.395334,27.532079,0
85.395196,27.532088,0
85.395083,27.532109,0
85.394974,27.532174,0
85.394883,27.532245,0
85.394765,27.532207,0
85.394648,27.532085,0
85.394591,27.531998,0
85.394423,27.53198,0
85.394377,27.531865,0
85.394322,27.531742,0
85.394214,27.531681,0
85.394117,27.531651,0
85.394013,27.531609,0
85.394129,27.531682,0
85.39408,27.531766,0
85.39396,27.531825,0
85.393842,27.531783,0
85.393772,27.531672,0
85.393715,27.531583,0
85.393654,27.531498,0
85.393572,27.531378,0
85.393516,27.531286,0
85.393462,27.531197,0
85.393423,27.531112,0
85.39334,27.531015,0
85.393456,27.530952,0
85.393565,27.530962,0
85.393672,27.530971,0
85.393792,27.530999,0
85.393918,27.531016,0
85.394014,27.530984,0
85.394132,27.530936,0
85.394235,27.53091,0
85.394385,27.530889,0
85.394511,27.53091,0
85.394654,27.530921,0
85.394793,27.530907,0
85.394905,27.530837,0
85.395009,27.530792,0
85.395118,27.530784,0
85.39522,27.53076,0
85.395266,27.530614,0
85.394977,27.530648,0
85.39501,27.53052,0
85.395123,27.530444,0
85.39524,27.530395,0
85.39531,27.530289,0
85.395329,27.530192,0
85.395323,27.530059,0
85.395375,27.529976,0
85.39545,27.529899,0
85.395566,27.529855,0
85.395698,27.529849,0
85.395865,27.529885,0
85.395969,27.52995,0
85.396057,27.530018,0
85.396152,27.530088,0
85.396256,27.530186,0
85.396342,27.530239,0
85.396431,27.530281,0
85.396433,27.530026,0
85.396399,27.529877,0
85.396413,27.529781,0
85.396403,27.529657,0
85.396423,27.52952,0
85.396453,27.529398,0
85.396465,27.529294,0
85.396576,27.529265,0
85.396685,27.529299,0
85.396776,27.529339,0
85.396895,27.529344,0
85.397032,27.529351,0
85.397114,27.529251,0
85.397073,27.529146,0
85.39702,27.529028,0
85.397062,27.528925,0
85.397167,27.5288,0
85.397209,27.528693,0
85.397269,27.528617,0
85.39738,27.528584,0
85.397447,27.528514,0
85.39746,27.528421,0
85.397559,27.528379,0
85.397699,27.52837,0
85.39781,27.528382,0
85.397925,27.528329,0
85.397955,27.528221,0
85.39798,27.528083,0
85.39806,27.52801,0
85.398168,27.527993,0
85.398299,27.528031,0
85.398394,27.528066,0
85.398539,27.528054,0
85.398675,27.528007,0
85.398766,27.527953,0
85.398914,27.527946,0
85.399051,27.527956,0
85.399153,27.527962,0
85.399273,27.527998,0
85.399303,27.528098,0
85.399305,27.528196,0
85.39926,27.528316,0
85.39938,27.528397,0
85.399538,27.528401,0
85.399715,27.528414,0
85.399854,27.52844,0
85.399973,27.528418,0
85.400084,27.528411,0
85.400181,27.528376,0
85.400276,27.528319,0
85.400412,27.528303,0
85.400521,27.528262,0
85.400634,27.528278,0
85.400751,27.528274,0
85.400873,27.52825,0
85.400969,27.528302,0
85.401048,27.52836,0
85.401103,27.528447,0
85.401056,27.52855,0
85.400953,27.528624,0
85.400867,27.528697,0
85.400782,27.528798,0
85.400724,27.528895,0
85.400733,27.528994,0
85.400816,27.529064,0
85.400932,27.529035,0
85.401051,27.529017,0
85.401192,27.528988,0
85.401307,27.528959,0
85.401409,27.528916,0
85.401562,27.528907,0
85.401687,27.528855,0
85.401796,27.528802,0
85.401868,27.528703,0
85.401979,27.528668,0
85.402087,27.528684,0
85.402213,27.528715,0
85.402354,27.528736,0
85.40249,27.52872,0
85.402549,27.528803,0
85.402545,27.528907,0
85.402505,27.529013,0
85.402403,27.529079,0
85.402332,27.529178,0
85.402374,27.529284,0
85.402474,27.52936,0
85.402591,27.529369,0
85.402689,27.529411,0
85.402829,27.529391,0
85.402919,27.529329,0
85.403045,27.529278,0
85.403186,27.529269,0
85.40325,27.529152,0
85.403325,27.52907,0
85.403422,27.528986,0
85.403489,27.528875,0
85.403562,27.528803,0
85.40366,27.528753,0
85.403775,27.528755,0
85.403926,27.52876,0
85.404022,27.528719,0
85.404128,27.528712,0
85.404241,27.528705,0
85.404343,27.528738,0
85.404465,27.528863,0
85.404554,27.528928,0
85.404582,27.529045,0
85.404665,27.529136,0
85.404709,27.529235,0
85.404803,27.529299,0
85.404937,27.529326,0
85.405036,27.529295,0
85.405114,27.529237,0
85.405094,27.529147,0
85.404965,27.529136,0
85.404846,27.529135,0
85.404734,27.529084,0
85.404616,27.529033,0
85.404498,27.528996,0
85.404416,27.528859,0
85.40445,27.52874,0
85.404504,27.528644,0
85.404552,27.52854,0
85.404504,27.528446,0
85.404418,27.528378,0
85.404277,27.528349,0
85.404134,27.528334,0
85.40403,27.528335,0
85.403914,27.528366,0
85.403799,27.528314,0
85.403678,27.528287,0
85.403566,27.528286,0
85.40346,27.528193,0
85.403334,27.528167,0
85.403218,27.528118,0
85.40355,27.528221,0
85.403635,27.528293,0
85.403892,27.528167,0
85.40396,27.528273,0
85.404103,27.528212,0
85.4042,27.528133,0
85.404276,27.528047,0
85.40439,27.528016,0
85.404496,27.528033,0
85.404603,27.528109,0
85.404659,27.528212,0
85.404706,27.528307,0
85.404721,27.528418,0
85.404755,27.528533,0
85.404828,27.528648,0
85.404916,27.52874,0
85.405046,27.528724,0
85.405157,27.528697,0
85.405285,27.528734,0
85.405402,27.528775,0
85.405522,27.528832,0
85.405579,27.528927,0
85.405667,27.529023,0
85.405738,27.529099,0
85.405807,27.529208,0
85.405872,27.529283,0
85.405961,27.52934,0
85.406066,27.529331,0
85.406184,27.529347,0
85.406234,27.529432,0
85.406283,27.529518,0
85.406289,27.529641,0
85.406332,27.529756,0
85.4063,27.529854,0
85.406339,27.529984,0
85.406405,27.530053,0
85.406499,27.530167,0
85.406568,27.530278,0
85.406542,27.530429,0
85.406534,27.53055,0
85.406613,27.530647,0
85.406714,27.530666,0
85.406822,27.530637,0
85.406947,27.530598,0
85.407034,27.530508,0
85.407087,27.53043,0
85.407137,27.530309,0
85.407167,27.530212,0
85.407192,27.53011,0
85.407179,27.529979,0
85.407187,27.529879,0
85.407164,27.529771,0
85.407187,27.529671,0
85.407231,27.52956,0
85.407269,27.529437,0
85.407252,27.529322,0
85.407186,27.52925,0
85.407134,27.529092,0
85.407174,27.528967,0
85.40715,27.52886,0
85.407106,27.528758,0
85.407082,27.528661,0
85.407114,27.528566,0
85.407233,27.528495,0
85.407411,27.528445,0
85.407542,27.528388,0
85.40765,27.528399,0
85.407769,27.528335,0
85.407816,27.52824,0
85.407778,27.528111,0
85.407708,27.528011,0
85.407602,27.527956,0
85.407484,27.527977,0
85.407332,27.527969,0
85.407222,27.527989,0
85.407108,27.527971,0
85.406967,27.527972,0
85.406859,27.527944,0
85.406723,27.527923,0
85.406615,27.527885,0
85.406467,27.527841,0
85.406374,27.527879,0
85.406283,27.527928,0
85.406231,27.528007,0
85.406185,27.528101,0
85.406074,27.528069,0
85.405938,27.528087,0
85.40588,27.528009,0
85.405888,27.527904,0
85.405879,27.527809,0
85.405893,27.527696,0
85.405907,27.527598,0
85.405917,27.527503,0
85.40595,27.527388,0
85.405962,27.527289,0
85.40595,27.52719,0
85.405979,27.527098,0
85.405957,27.527004,0
85.405911,27.526914,0
85.405844,27.526835,0
85.405784,27.526737,0
85.405719,27.526659,0
85.405608,27.526602,0
85.405485,27.526572,0
85.40536,27.526576,0
85.405255,27.526591,0
85.40515,27.526556,0
85.405015,27.526505,0
85.404925,27.526443,0
85.404807,27.526397,0
85.404675,27.526389,0
85.404575,27.526334,0
85.404441,27.526282,0
85.404314,27.52622,0
85.404202,27.526159,0
85.404078,27.526081,0
85.403961,27.526053,0
85.40384,27.525987,0
85.403711,27.52593,0
85.40355,27.525914,0
85.403462,27.525854,0
85.403345,27.525837,0
85.403207,27.525764,0
85.403108,27.525713,0
85.403017,27.525666,0
85.402956,27.525572,0
85.402876,27.525454,0
85.402831,27.525333,0
85.40288,27.525222,0
85.402756,27.525171,0
85.402549,27.525176,0
85.402419,27.525101,0
85.40229,27.525073,0
85.402179,27.525053,0
85.402084,27.524985,0
85.40199,27.524889,0
85.401873,27.524831,0
85.401671,27.524826,0
85.401584,27.524735,0
85.401519,27.52462,0
85.401504,27.52452,0
85.401475,27.524399,0
85.401446,27.524275,0
85.401414,27.524162,0
85.401361,27.524067,0
85.401352,27.523939,0
85.401324,27.523804,0
85.401297,27.52367,0
85.401234,27.523571,0
85.401162,27.523487,0
85.401113,27.523388,0
85.401042,27.523296,0
85.40093,27.523214,0
85.40085,27.523151,0
85.400775,27.523045,0
85.400778,27.522941,0
85.400781,27.522835,0
85.400751,27.52273,0
85.400702,27.522631,0
85.40061,27.52255,0
85.400574,27.522459,0
85.400525,27.522367,0
85.400407,27.522283,0
85.40028,27.522209,0
85.400193,27.522131,0
85.400103,27.52204,0
85.40002,27.521926,0
85.399894,27.521838,0
85.399826,27.521755,0
85.399722,27.521617,0
85.399645,27.521525,0
85.399611,27.521426,0
85.399951,27.521438,0
85.400054,27.521389,0
85.40017,27.521478,0
85.400187,27.52136,0
85.400226,27.52127,0
85.400307,27.521214,0
85.400408,27.521164,0
85.400479,27.521088,0
85.400577,27.52101,0
85.40068,27.520953,0
85.400784,27.520942,0
85.400905,27.520936,0
85.400969,27.521031,0
85.401076,27.521044,0
85.40118,27.521019,0
85.401224,27.520994,0
85.401339,27.521001,0
85.401395,27.520986,0
85.401517,27.521016,0
85.40167,27.520996,0
85.401805,27.521013,0
85.401902,27.521059,0
85.402021,27.521093,0
85.402157,27.521111,0
85.402285,27.521101,0
85.402399,27.52103,0
85.40249,27.520973,0
85.402598,27.520925,0
85.402705,27.520849,0
85.402795,27.520799,0
85.402931,27.520763,0
85.403049,27.520687,0
85.40316,27.520607,0
85.403298,27.52052,0
85.403379,27.520414,0
85.403588,27.520543,0
85.403686,27.520521,0
85.40381,27.520514,0
85.403937,27.520537,0
85.404055,27.52055,0
85.404161,27.52059,0
85.404275,27.52062,0
85.404375,27.520639,0
85.404477,27.520669,0
85.404605,27.520699,0
85.404725,27.52073,0
85.404826,27.520743,0
85.404936,27.520763,0
85.405031,27.520807,0
85.405147,27.520827,0
85.405282,27.520817,0
85.405387,27.520778,0
85.405482,27.520728,0
85.405448,27.520624,0
85.405355,27.520546,0
85.405266,27.520474,0
85.405173,27.520402,0
85.405059,27.520332,0
85.404943,27.520278,0
85.404845,27.520222,0
85.404776,27.52013,0
85.404819,27.520018,0
85.404899,27.519908,0
85.4049,27.51981,0
85.40492,27.519689,0
85.404948,27.519596,0
85.405012,27.519468,0
85.405059,27.519368,0
85.405139,27.51927,0
85.405186,27.519179,0
85.405205,27.519077,0
85.40526,27.518994,0
85.405299,27.518899,0
85.405356,27.518814,0
85.405386,27.518706,0
85.405123,27.51911,0
85.404616,27.51924,0
85.404414,27.51927,0
85.404274,27.519186,0
85.404206,27.519087,0
85.404172,27.518997,0
85.404067,27.518905,0
85.40395,27.518842,0
85.403832,27.518758,0
85.403742,27.518707,0
85.403673,27.518829,0
85.403581,27.518875,0
85.403473,27.518824,0
85.403409,27.518896,0
85.403313,27.518945,0
85.403189,27.518905,0
85.403084,27.518955,0
85.403012,27.51887,0
85.402912,27.51889,0
85.402804,27.518916,0
85.40266,27.518881,0
85.402549,27.518854,0
85.402444,27.518843,0
85.402345,27.518882,0
85.402199,27.518888,0
85.4021,27.518869,0
85.401974,27.518861,0
85.401852,27.518855,0
85.401748,27.518851,0
85.401644,27.51884,0
85.401806,27.518556,0
85.401795,27.518555,0
85.401679,27.518656,0
85.401694,27.518545,0
85.401663,27.518447,0
85.401631,27.518343,0
85.401518,27.518262,0
85.401421,27.518182,0
85.401304,27.518132,0
85.401189,27.518134,0
85.40108,27.518191,0
85.401035,27.518292,0
85.400957,27.518404,0
85.400883,27.518475,0
85.40077,27.518463,0
85.400657,27.518411,0
85.400576,27.518292,0
85.400544,27.518164,0
85.400495,27.518081,0
85.400397,27.518008,0
85.40026,27.518021,0
85.400154,27.518002,0
85.400075,27.518062,0
85.399923,27.518123,0
85.399829,27.518252,0
85.399735,27.51829,0
85.399641,27.518357,0
85.399532,27.518304,0
85.399435,27.518272,0
85.399305,27.518264,0
85.399188,27.518257,0
85.399047,27.518251,0
85.398941,27.518223,0
85.398802,27.518224,0
85.398682,27.518232,0
85.398583,27.518206,0
85.39844,27.518198,0
85.39834,27.518209,0
85.398215,27.518287,0
85.398107,27.518301,0
85.397992,27.518324,0
85.397887,27.518343,0
85.397776,27.518341,0
85.397674,27.518369,0
85.39758,27.518404,0
85.397662,27.518352,0
85.397574,27.518397,0
85.39768,27.518445,0
85.39759,27.518402,0
85.397509,27.518331,0
85.397419,27.518257,0
85.397309,27.518171,0
85.397227,27.518081,0
85.397057,27.518009,0
85.396946,27.517938,0
85.396845,27.517878,0
85.396716,27.517869,0
85.396687,27.517977,0
85.396636,27.518088,0
85.396548,27.518194,0
85.396462,27.518269,0
85.396377,27.518396,0
85.396302,27.518504,0
85.396177,27.51855,0
85.396068,27.518557,0
85.395947,27.518532,0
85.395821,27.518557,0
85.395693,27.518562,0
85.39556,27.51853,0
85.395443,27.518453,0
85.395336,27.518366,0
85.395231,27.518303,0
85.39512,27.518274,0
85.395014,27.518259,0
85.394898,27.518224,0
85.394795,27.518179,0
85.394679,27.518169,0
85.394557,27.518176,0
85.39445,27.518207,0
85.394347,27.518253,0
85.394238,27.518282,0
85.394102,27.518322,0
85.394177,27.518428,0
85.394215,27.518527,0
85.394142,27.518463,0
85.394015,27.518457,0
85.393889,27.518477,0
85.393791,27.518517,0
85.393654,27.518559,0
85.39351,27.51859,0
85.393379,27.518618,0
85.393258,27.518599,0
85.393167,27.518558,0
85.393044,27.518522,0
85.392974,27.518433,0
85.39289,27.518364,0
85.392819,27.518235,0
85.392742,27.518127,0
85.392668,27.518052,0
85.39255,27.518003,0
85.39251,27.518091,0
85.392526,27.518258,0
85.392459,27.518349,0
85.392338,27.518356,0
85.392182,27.518399,0
85.392065,27.518409,0
85.391978,27.518337,0
85.391851,27.518311,0
85.39169,27.518297,0
85.391598,27.518425,0
85.391516,27.518485,0
85.391423,27.51852,0
85.391296,27.518534,0
85.39117,27.518555,0
85.391067,27.51856,0
85.390924,27.518563,0
85.390803,27.518537,0
85.390674,27.518552,0
85.390571,27.518559,0
85.390437,27.518537,0
85.390295,27.518501,0
85.390162,27.518494,0
85.390012,27.51848,0
85.389884,27.518467,0
85.389777,27.518423,0
85.389653,27.518361,0
85.389562,27.518318,0
85.38947,27.518248,0
85.389402,27.518155,0
85.389318,27.518091,0
85.389266,27.517977,0
85.38921,27.517874,0
85.389108,27.517814,0
85.389004,27.517744,0
85.38889,27.517689,0
85.38876,27.517657,0
85.388685,27.517564,0
85.388626,27.517489,0
85.38852,27.517458,0
85.388423,27.517577,0
85.388325,27.517734,0
85.388248,27.517803,0
85.388193,27.517901,0
85.388095,27.517934,0
85.387976,27.517872,0
85.387866,27.517809,0
85.387757,27.517744,0
85.387633,27.517711,0
85.387499,27.517689,0
85.387394,27.517663,0
85.387292,27.517628,0
85.387163,27.517614,0
85.387069,27.517753,0
85.387012,27.517849,0
85.386991,27.517941,0
85.386987,27.518032,0
85.386901,27.518086,0
85.386771,27.518107,0
85.386627,27.518144,0
85.386494,27.51819,0
85.386358,27.518187,0
85.386259,27.518105,0
85.386148,27.518103,0
85.386021,27.518148,0
85.385915,27.518252,0
85.385808,27.518315,0
85.385694,27.518423,0
85.385627,27.518493,0
85.385515,27.51854,0
85.385395,27.518444,0
85.385316,27.518367,0
85.385178,27.518326,0
85.385066,27.518357,0
85.384951,27.518374,0
85.384844,27.518359,0
85.384737,27.518337,0
85.384613,27.518313,0
85.384489,27.518293,0
85.38438,27.5183,0
85.384277,27.518355,0
85.384179,27.51844,0
85.384051,27.518497,0
85.383935,27.518528,0
85.383728,27.518458,0
85.383624,27.518394,0
85.383504,27.51832,0
85.383382,27.518251,0
85.383291,27.518425,0
85.383223,27.518506,0
85.383119,27.51859,0
85.383031,27.518665,0
85.382935,27.518699,0
85.382834,27.518736,0
85.382718,27.518736,0
85.382605,27.518691,0
85.382479,27.518648,0
85.382357,27.518582,0
85.382222,27.518565,0
85.382117,27.518534,0
85.381999,27.51849,0
85.381869,27.518464,0
85.381757,27.518477,0
85.381677,27.518384,0
85.38159,27.518302,0
85.38149,27.518224,0
85.381404,27.518175,0
85.381442,27.518061,0
85.381442,27.517951,0
85.381468,27.517828,0
85.381472,27.517726,0
85.381552,27.517634,0
85.381649,27.517604,0
85.381757,27.517589,0
85.381869,27.517568,0
85.381963,27.517521,0
85.382055,27.517448,0
85.382137,27.517365,0
85.38223,27.517301,0
85.382326,27.517246,0
85.382438,27.517233,0
85.382563,27.517234,0
85.382692,27.517262,0
85.382815,27.517301,0
85.382934,27.517299,0
85.383031,27.517267,0
85.383162,27.517187,0
85.383239,27.517126,0
85.383337,27.517056,0
85.383423,27.516993,0
85.383515,27.516914,0
85.383624,27.516829,0
85.38375,27.516782,0
85.383854,27.516729,0
85.383958,27.516666,0
85.383999,27.516578,0
85.383952,27.516492,0
85.383901,27.516398,0
85.383867,27.516297,0
85.383855,27.516203,0
85.383832,27.516112,0
85.383797,27.516006,0
85.383823,27.515916,0
85.383852,27.515798,0
85.383826,27.515666,0
85.38378,27.515568,0
85.383761,27.515459,0
85.383729,27.515342,0
85.383676,27.515232,0
85.383638,27.51513,0
85.383613,27.515015,0
85.383708,27.514943,0
85.383832,27.514974,0
85.383958,27.514986,0
85.384106,27.514989,0
85.384215,27.514965,0
85.384334,27.514915,0
85.384435,27.514878,0
85.384566,27.514852,0
85.384682,27.514807,0
85.384782,27.514727,0
85.38487,27.514649,0
85.384958,27.514587,0
85.38505,27.514521,0
85.385145,27.514445,0
85.385228,27.514375,0
85.385303,27.514289,0
85.385392,27.514231,0
85.385494,27.514215,0
85.385598,27.514198,0
85.385711,27.514183,0
85.385808,27.514136,0
85.385893,27.514039,0
85.385917,27.513905,0
85.385887,27.513796,0
85.385874,27.51369,0
85.385842,27.513579,0
85.385852,27.513475,0
85.385885,27.513376,0
85.385924,27.513268,0
85.385987,27.513159,0
85.386051,27.513062,0
85.386133,27.512993,0
85.386213,27.512928,0
85.386295,27.512873,0
85.386352,27.512752,0
85.386281,27.512656,0
85.386169,27.512597,0
85.386066,27.51254,0
85.385998,27.512438,0
85.385986,27.512335,0
85.385981,27.512234,0
85.385936,27.512144,0
85.385877,27.512037,0
85.385838,27.511952,0
85.385809,27.511838,0
85.385854,27.511757,0
85.385899,27.511654,0
85.385977,27.511538,0
85.386051,27.511454,0
85.386151,27.511372,0
85.386146,27.511276,0
85.386142,27.51117,0
85.386041,27.511093,0
85.385979,27.511006,0
85.385904,27.51091,0
85.38585,27.510776,0
85.38577,27.5107,0
85.385691,27.510639,0
85.38559,27.510587,0
85.385549,27.510481,0
85.385571,27.51039,0
85.385602,27.510298,0
85.385609,27.510205,0
85.385506,27.510149,0
85.38541,27.510104,0
85.385286,27.51005,0
85.385202,27.509996,0
85.385058,27.510027,0
85.384954,27.510067,0
85.384868,27.510126,0
85.384765,27.51014,0
85.384687,27.510062,0
85.384607,27.509955,0
85.384565,27.50986,0
85.38455,27.509736,0
85.384506,27.509632,0
85.384483,27.509526,0
85.38441,27.509446,0
85.384308,27.509378,0
85.38419,27.509383,0
85.384089,27.509343,0
85.383978,27.509297,0
85.383835,27.509259,0
85.383727,27.509241,0
85.383629,27.50917,0
85.383549,27.509086,0
85.383542,27.508964,0
85.383553,27.508846,0
85.383558,27.508756,0
85.38356,27.508644,0
85.383572,27.508528,0
85.383662,27.508437,0
85.38376,27.508403,0
85.38388,27.508392,0
85.384018,27.508382,0
85.384142,27.508437,0
85.384265,27.508488,0
85.384382,27.508526,0
85.384498,27.508535,0
85.384604,27.508494,0
85.384693,27.50841,0
85.384804,27.508333,0
85.38489,27.508281,0
85.384991,27.508217,0
85.385083,27.508166,0
85.385189,27.508103,0
85.385268,27.508023,0
85.385339,27.507951,0
85.385403,27.507862,0
85.385399,27.507754,0
85.385381,27.507645,0
85.38533,27.507482,0
85.385311,27.507379,0
85.38527,27.507272,0
85.385313,27.507148,0
85.385355,27.507026,0
85.385364,27.506915,0
85.385223,27.506887,0
85.385112,27.506858,0
85.385074,27.506812,0
85.385103,27.506693,0
85.385143,27.506583,0
85.385143,27.506479,0
85.385138,27.506383,0
85.385136,27.506268,0
85.385153,27.506178,0
85.38518,27.506069,0
85.3852,27.50597,0
85.38525,27.505863,0
85.385375,27.505797,0
85.385476,27.505773,0
85.385621,27.505756,0
85.385772,27.505735,0
85.385889,27.505715,0
85.385998,27.505705,0
85.386123,27.505691,0
85.386241,27.505656,0
85.386348,27.505614,0
85.386446,27.50558,0
85.386531,27.505498,0
85.386601,27.505407,0
85.386682,27.505348,0
85.386775,27.505281,0
85.386914,27.505217,0
85.38703,27.505162,0
85.38712,27.505108,0
85.387219,27.505062,0
85.387363,27.504993,0
85.38747,27.504938,0
85.387556,27.504867,0
85.38761,27.504763,0
85.387648,27.504642,0
85.387766,27.50457,0
85.387865,27.504493,0
85.387922,27.50438,0
85.387973,27.504256,0
85.387967,27.504124,0
85.387973,27.504032,0
85.388021,27.503922,0
85.388002,27.503833,0
85.387934,27.503714,0
85.387867,27.503616,0
85.387829,27.503491,0
85.387838,27.503383,0
85.38792,27.503287,0
85.388057,27.503337,0
85.388165,27.503417,0
85.388213,27.50351,0
85.388199,27.503634,0
85.388182,27.50373,0
85.388204,27.503831,0
85.388319,27.503882,0
85.388413,27.503918,0
85.388443,27.504034,0
85.388487,27.504155,0
85.388591,27.504203,0
85.388714,27.504189,0
85.388816,27.504185,0
85.388919,27.504245,0
85.389012,27.504314,0
85.389095,27.50439,0
85.389085,27.504489,0
85.38915,27.504569,0
85.389272,27.504584,0
85.389405,27.50457,0
85.389501,27.504532,0
85.389634,27.50455,0
85.389758,27.504599,0
85.389914,27.504646,0
85.390036,27.504699,0
85.390152,27.50474,0
85.390248,27.504793,0
85.390302,27.504877,0
85.390371,27.504966,0
85.390434,27.505042,0
85.390517,27.505103,0
85.39061,27.505155,0
85.390664,27.505274,0
85.39066,27.505367,0
85.390661,27.505486,0
85.390758,27.505586,0
85.390851,27.505645,0
85.390952,27.505741,0
85.391006,27.505842,0
85.391043,27.505953,0
85.391046,27.506061,0
85.390994,27.506191,0
85.390973,27.506314,0
85.390978,27.506424,0
85.39094,27.506528,0
85.390877,27.506637,0
85.390828,27.506721,0
85.390797,27.50684,0
85.390741,27.506941,0
85.390648,27.506989,0
85.390538,27.507032,0
85.390472,27.507131,0
85.390497,27.50723,0
85.390596,27.507287,0
85.390707,27.507359,0
85.390818,27.507374,0
85.390829,27.507275,0
85.390825,27.507149,0
85.390831,27.507035,0
85.390851,27.506939,0
85.390902,27.506812,0
85.390978,27.506709,0
85.391035,27.506599,0
85.391114,27.506522,0
85.391193,27.506418,0
85.391208,27.506308,0
85.391207,27.506192,0
85.391254,27.506066,0
85.391264,27.505964,0
85.391275,27.505867,0
85.391262,27.505775,0
85.391212,27.505682,0
85.39123,27.505557,0
85.39125,27.505461,0
85.391258,27.505357,0
85.391243,27.505253,0
85.391252,27.505151,0
85.391183,27.505058,0
85.391136,27.504949,0
85.391083,27.504869,0
85.391049,27.504775,0
85.391026,27.504669,0
85.390967,27.504556,0
85.39087,27.50445,0
85.390763,27.504343,0
85.390667,27.504252,0
85.390594,27.504177,0
85.390515,27.50409,0
85.390424,27.503991,0
85.390337,27.503888,0
85.390257,27.50383,0
85.390178,27.503761,0
85.390108,27.503665,0
85.390372,27.503569,0
85.390482,27.503502,0
85.39058,27.503409,0
85.390609,27.503305,0
85.390542,27.503217,0
85.390465,27.503158,0
85.390353,27.503107,0
85.390201,27.503104,0
85.390058,27.503084,0
85.389936,27.503041,0
85.389824,27.503019,0
85.389709,27.503008,0
85.389628,27.502914,0
85.389667,27.502818,0
85.38972,27.502723,0
85.38976,27.502628,0
85.38978,27.502528,0
85.38983,27.502429,0
85.389887,27.502341,0
85.389892,27.502229,0
85.38979,27.502194,0
85.389661,27.502231,0
85.389544,27.502205,0
85.38948,27.502133,0
85.389377,27.50204,0
85.389279,27.501995,0
85.389182,27.501948,0
85.389084,27.501888,0
85.389003,27.501813,0
85.388926,27.501743,0
85.388851,27.501642,0
85.38889,27.501548,0
85.388959,27.501469,0
85.389051,27.501411,0
85.389151,27.501363,0
85.389235,27.501308,0
85.389328,27.501246,0
85.3894,27.501169,0
85.389466,27.50107,0
85.389452,27.500958,0
85.38938,27.500857,0
85.389318,27.500772,0
85.389228,27.500672,0
85.389158,27.500581,0
85.389128,27.500484,0
85.389043,27.500406,0
85.388925,27.500308,0
85.388857,27.500217,0
85.388831,27.500123,0
85.388873,27.499993,0
85.388868,27.499894,0
85.388792,27.499815,0
85.388702,27.499746,0
85.388709,27.499651,0
85.388745,27.499567,0
85.388761,27.499475,0
85.388774,27.499374,0
85.388773,27.499271,0
85.388763,27.499137,0
85.388757,27.499036,0
85.38867,27.498956,0
85.388544,27.498945,0
85.38845,27.498994,0
85.388396,27.499079,0
85.388332,27.499163,0
85.388264,27.499239,0
85.388187,27.499322,0
85.388077,27.499406,0
85.387979,27.499496,0
85.387896,27.499573,0
85.387794,27.499626,0
85.387684,27.499561,0
85.387599,27.499473,0
85.387533,27.499395,0
85.387436,27.499335,0
85.387347,27.499249,0
85.387278,27.499152,0
85.387202,27.499062,0
85.3871,27.499006,0
85.386986,27.499058,0
85.386945,27.499142,0
85.386895,27.499235,0
85.386876,27.499344,0
85.386906,27.499435,0
85.386936,27.499532,0
85.386908,27.499619,0
85.386851,27.499728,0
85.386794,27.499819,0
85.386758,27.499923,0
85.386724,27.50002,0
85.386686,27.500124,0
85.386624,27.500203,0
85.386575,27.500296,0
85.386528,27.500395,0
85.3866,27.50032,0
85.386535,27.500421,0
85.38647,27.500503,0
85.386401,27.500594,0
85.386338,27.500703,0
85.386288,27.500794,0
85.386186,27.500806,0
85.386076,27.500791,0
85.385967,27.500778,0
85.385871,27.500716,0
85.385826,27.500618,0
85.385763,27.500546,0
85.38564,27.50049,0
85.385535,27.500453,0
85.385464,27.500381,0
85.385378,27.500308,0
85.385266,27.50025,0
85.385188,27.500179,0
85.385133,27.500094,0
85.385093,27.500003,0
85.38506,27.499881,0
85.385036,27.499779,0
85.385074,27.49968,0
85.385042,27.499573,0
85.384995,27.499492,0
85.38493,27.499392,0
85.384885,27.4993,0
85.384818,27.499202,0
85.384739,27.499104,0
85.384676,27.499027,0
85.384623,27.498935,0
85.384596,27.498844,0
85.384578,27.498748,0
85.384538,27.498645,0
85.384501,27.498534,0
85.384474,27.498415,0
85.384432,27.498309,0
85.384382,27.498226,0
85.384375,27.498121,0
85.384474,27.498163,0
85.384538,27.498276,0
85.384584,27.498377,0
85.384623,27.498465,0
85.384668,27.498562,0
85.384737,27.498661,0
85.384813,27.498735,0
85.384838,27.498824,0
85.384879,27.498936,0
85.384911,27.499027,0
85.385008,27.49908,0
85.385043,27.499175,0
85.385141,27.499231,0
85.385224,27.499299,0
85.385256,27.499412,0
85.385305,27.499512,0
85.385354,27.499618,0
85.385463,27.499701,0
85.385587,27.499748,0
85.385735,27.499785,0
85.385868,27.499735,0
85.385918,27.49965,0
85.38595,27.499547,0
85.385971,27.499436,0
85.385952,27.499296,0
85.385958,27.499199,0
85.385995,27.4991,0
85.386061,27.498982,0
85.386074,27.49886,0
85.386044,27.498758,0
85.386077,27.498672,0
85.386096,27.498583,0
85.386099,27.498475,0
85.386114,27.498348,0
85.386127,27.498215,0
85.386172,27.498109,0
85.386195,27.498013,0
85.38622,27.497925,0
85.386247,27.497826,0
85.386331,27.497728,0
85.38643,27.497704,0
85.386565,27.497712,0
85.386706,27.497699,0
85.386802,27.497657,0
85.386887,27.497602,0
85.386987,27.497541,0
85.387109,27.497513,0
85.387243,27.497528,0
85.38735,27.497566,0
85.387446,27.497637,0
85.387534,27.497704,0
85.387628,27.497637,0
85.387687,27.497527,0
85.387669,27.497387,0
85.387636,27.497292,0
85.387588,27.497187,0
85.387512,27.497089,0
85.387455,27.49701,0
85.387392,27.496919,0
85.387365,27.496811,0
85.387347,27.496709,0
85.387398,27.496611,0
85.38753,27.496544,0
85.387625,27.496505,0
85.387722,27.496466,0
85.387851,27.496438,0
85.387969,27.496417,0
85.38805,27.496345,0
85.388165,27.496248,0
85.388262,27.496154,0
85.388366,27.496074,0
85.388468,27.495986,0
85.388572,27.495928,0
85.388692,27.495889,0
85.388815,27.495864,0
85.388929,27.495832,0
85.389035,27.495805,0
85.389173,27.495808,0
85.389276,27.495759,0
85.389369,27.495675,0
85.38941,27.495553,0
85.389446,27.495466,0
85.389496,27.495363,0
85.389503,27.495255,0
85.389399,27.495181,0
85.389306,27.495137,0
85.389214,27.495075,0
85.389122,27.495005,0
85.389026,27.494969,0
85.388904,27.494944,0
85.388804,27.494964,0
85.388672,27.494962,0
85.388551,27.494982,0
85.388446,27.494978,0
85.388341,27.494937,0
85.388233,27.494929,0
85.388115,27.4949,0
85.388013,27.494849,0
85.387923,27.494803,0
85.387795,27.494815,0
85.387711,27.494884,0
85.387642,27.494978,0
85.387603,27.4951,0
85.387591,27.495203,0
85.387591,27.495306,0
85.387521,27.495403,0
85.387447,27.495481,0
85.387358,27.495525,0
85.387254,27.495529,0
85.387141,27.495514,0
85.387036,27.495564,0
85.387031,27.495693,0
85.387048,27.495789,0
85.38701,27.495877,0
85.386945,27.49597,0
85.386862,27.496031,0
85.386756,27.496104,0
85.386669,27.496177,0
85.386599,27.496245,0
85.386495,27.496315,0
85.386404,27.49638,0
85.386298,27.496385,0
85.38619,27.496356,0
85.386095,27.496296,0
85.386016,27.49623,0
85.385915,27.496161,0
85.385787,27.496143,0
85.385688,27.496124,0
85.385592,27.496057,0
85.385495,27.496021,0
85.38539,27.495987,0
85.385284,27.495961,0
85.385174,27.495947,0
85.385101,27.495882,0
85.385023,27.495817,0
85.384939,27.495761,0
85.384856,27.495692,0
85.384782,27.495622,0
85.384701,27.495549,0
85.384634,27.495478,0
85.384567,27.495408,0
85.384493,27.495345,0
85.38441,27.495277,0
85.38436,27.495194,0
85.384312,27.495111,0
85.384222,27.495064,0
85.384124,27.495032,0
85.384054,27.494954,0
85.384151,27.494877,0
85.384252,27.494816,0
85.384352,27.494791,0
85.384459,27.494766,0
85.384558,27.494685,0
85.384614,27.494598,0
85.384677,27.494518,0
85.384723,27.494418,0
85.384779,27.494335,0
85.384841,27.494234,0
85.384919,27.494138,0
85.385021,27.49406,0
85.385098,27.493999,0
85.385202,27.493943,0
85.385339,27.493893,0
85.385439,27.493854,0
85.385559,27.493847,0
85.385685,27.493807,0
85.385794,27.493742,0
85.38589,27.493693,0
85.386009,27.493637,0
85.386113,27.493604,0
85.386088,27.493516,0
85.386042,27.493414,0
85.386089,27.493329,0
85.386099,27.493227,0
85.386192,27.493151,0
85.386226,27.493064,0
85.386229,27.492965,0
85.386229,27.492869,0
85.386226,27.492735,0
85.386217,27.492627,0
85.386209,27.492533,0
85.386237,27.492444,0
85.38627,27.492345,0
85.386274,27.492237,0
85.386162,27.4922,0
85.386156,27.492294,0
85.386112,27.492384,0
85.386051,27.492488,0
85.385996,27.49257,0
85.385981,27.49266,0
85.385917,27.492744,0
85.385846,27.492814,0
85.385752,27.492854,0
85.38571,27.492937,0
85.385678,27.49304,0
85.385675,27.493134,0
85.385653,27.493227,0
85.385651,27.493332,0
85.385595,27.493435,0
85.385462,27.493455,0
85.385359,27.493377,0
85.385269,27.493317,0
85.385169,27.493282,0
85.38504,27.493303,0
85.384929,27.493355,0
85.384811,27.49338,0
85.384709,27.493363,0
85.384612,27.493408,0
85.384567,27.493504,0
85.384518,27.493586,0
85.384453,27.493667,0
85.384316,27.493693,0
85.384162,27.493695,0
85.384053,27.493692,0
85.383929,27.493713,0
85.383828,27.493725,0
85.383702,27.493711,0
85.383572,27.493694,0
85.383463,27.493706,0
85.38331,27.493725,0
85.3832,27.493741,0
85.383096,27.49374,0
85.382967,27.49375,0
85.382798,27.493718,0
85.38272,27.493637,0
85.382745,27.493515,0
85.382744,27.493424,0
85.382725,27.493322,0
85.382714,27.49323,0
85.382652,27.493136,0
85.382551,27.493087,0
85.382545,27.492971,0
85.382525,27.492881,0
85.38252,27.492776,0
85.382533,27.492681,0
85.382524,27.492579,0
85.38245,27.492516,0
85.382462,27.492422,0
85.382466,27.492328,0
85.382463,27.49222,0
85.382551,27.492292,0
85.382618,27.492384,0
85.382681,27.492468,0
85.382761,27.492544,0
85.382836,27.492626,0
85.382872,27.492711,0
85.382937,27.492792,0
85.383046,27.492815,0
85.383144,27.492769,0
85.383244,27.492718,0
85.383351,27.492679,0
85.38345,27.492635,0
85.383503,27.492524,0
85.3834,27.492487,0
85.383309,27.492543,0
85.383205,27.492534,0
85.383133,27.492467,0
85.383232,27.492424,0
85.383346,27.492363,0
85.38343,27.492307,0
85.383527,27.492275,0
85.3836,27.492203,0
85.38365,27.492105,0
85.383704,27.492019,0
85.383767,27.491926,0
85.38387,27.491901,0
85.383968,27.491874,0
85.384068,27.49186,0
85.384178,27.491912,0
85.384286,27.491906,0
85.384185,27.491817,0
85.384087,27.49179,0
85.383973,27.491767,0
85.383842,27.491748,0
85.383734,27.491739,0
85.383636,27.491778,0
85.383552,27.491846,0
85.383446,27.491863,0
85.383319,27.491822,0
85.383262,27.491709,0
85.383189,27.491621,0
85.383081,27.491584,0
85.382959,27.491549,0
85.382853,27.491525,0
85.382777,27.491451,0
85.382683,27.491389,0
85.38272,27.491293,0
85.382831,27.491293,0
85.382938,27.491295,0
85.383041,27.491298,0
85.383161,27.491323,0
85.383261,27.491378,0
85.383379,27.491397,0
85.383507,27.491405,0
85.383637,27.491394,0
85.383777,27.491387,0
85.383897,27.491388,0
85.384003,27.491372,0
85.384104,27.491311,0
85.384182,27.491251,0
85.384276,27.491196,0
85.384359,27.491141,0
85.384406,27.491029,0
85.384372,27.490938,0
85.384294,27.49087,0
85.384198,27.490791,0
85.384149,27.49068,0
85.384114,27.490581,0
85.384082,27.490491,0
85.384013,27.490422,0
85.383927,27.490361,0
85.383842,27.490311,0
85.38376,27.490253,0
85.383739,27.490149,0
85.383678,27.490057,0
85.383676,27.489963,0
85.383707,27.489864,0
85.383667,27.489775,0
85.383623,27.489686,0
85.383634,27.489579,0
85.383587,27.48947,0
85.383507,27.489413,0
85.383389,27.489373,0
85.383272,27.489364,0
85.383155,27.489347,0
85.383057,27.4893,0
85.383003,27.48922,0
85.382938,27.489145,0
85.38282,27.489091,0
85.38273,27.489133,0
85.382639,27.489181,0
85.382536,27.489227,0
85.382418,27.489209,0
85.382321,27.489168,0
85.382221,27.489124,0
85.38209,27.489159,0
85.381986,27.489165,0
85.381885,27.489162,0
85.381783,27.489144,0
85.381708,27.489079,0
85.381719,27.488982,0
85.381692,27.488887,0
85.38162,27.488824,0
85.381521,27.488789,0
85.381422,27.48874,0
85.381366,27.488644,0
85.381294,27.488569,0
85.38119,27.488524,0
85.381087,27.488475,0
85.380978,27.488456,0
85.380882,27.488498,0
85.380771,27.488571,0
85.380721,27.488676,0
85.380724,27.488775,0
85.380706,27.488884,0
85.380612,27.488966,0
85.380502,27.488951,0
85.38038,27.48898,0
85.380279,27.489043,0
85.380175,27.489096,0
85.380082,27.489139,0
85.379987,27.489201,0
85.380022,27.489295,0
85.380111,27.489359,0
85.380198,27.489427,0
85.380234,27.489544,0
85.380235,27.489662,0
85.380158,27.489739,0
85.380057,27.489756,0
85.379945,27.489794,0
85.379855,27.489876,0
85.379744,27.489962,0
85.379685,27.490064,0
85.379618,27.490147,0
85.379534,27.490241,0
85.379465,27.490317,0
85.379439,27.490413,0
85.379379,27.490508,0
85.379369,27.490622,0
85.379345,27.490736,0
85.379344,27.490859,0
85.379335,27.490957,0
85.379312,27.491051,0
85.379208,27.49108,0
85.379099,27.491085,0
85.378991,27.491026,0
85.378911,27.490962,0
85.378805,27.490919,0
85.378687,27.490895,0
85.378593,27.490846,0
85.37848,27.490762,0
85.378378,27.490714,0
85.378272,27.490675,0
85.378222,27.490757,0
85.378105,27.490723,0
85.377999,27.490717,0
85.377864,27.490707,0
85.37776,27.490704,0
85.377636,27.490686,0
85.37753,27.490683,0
85.377417,27.490688,0
85.377281,27.490691,0
85.37715,27.490656,0
85.377033,27.490649,0
85.376903,27.490655,0
85.376796,27.490683,0
85.376671,27.490689,0
85.376618,27.490774,0
85.376558,27.490847,0
85.376474,27.490911,0
85.376358,27.490985,0
85.376223,27.491009,0
85.376111,27.491,0
85.37598,27.491022,0
85.375888,27.491146,0
85.375845,27.491237,0
85.375748,27.491322,0
85.375596,27.491358,0
85.375458,27.49138,0
85.37532,27.491419,0
85.375183,27.491462,0
85.375067,27.491497,0
85.374945,27.491477,0
85.374826,27.491449,0
85.374736,27.491397,0
85.374675,27.4913,0
85.374546,27.4913,0
85.374426,27.491256,0
85.374308,27.491199,0
85.374191,27.491171,0
85.3741,27.491126,0
85.373998,27.491096,0
85.373901,27.491069,0
85.373816,27.491008,0
85.373805,27.4909,0
85.373845,27.490807,0
85.373914,27.490731,0
85.374011,27.490657,0
85.374106,27.490587,0
85.374183,27.490511,0
85.374251,27.490433,0
85.374272,27.490343,0
85.374374,27.490349,0
85.374318,27.490267,0
85.374368,27.490187,0
85.374453,27.490128,0
85.374499,27.490211,0
85.374508,27.490303,0
85.374549,27.490394,0
85.374598,27.490482,0
85.374539,27.490405,0
85.374509,27.490311,0
85.374482,27.490217,0
85.374437,27.490129,0
85.374437,27.490126,0
</coordinates>
</LineString>
</Placemark>
<Placemark>
<name>si</name>
<styleUrl>#line-FF0000-2000-nodesc</styleUrl>
<LineString>
<tessellate>1</tessellate>
<coordinates>
85.370142,27.79088,0
85.370131,27.79087,0
85.37001,27.79097,0
85.36979,27.79099,0
85.36959,27.79108,0
85.36948,27.79108,0
85.36929,27.7909,0
85.36919,27.79072,0
85.36908,27.79065,0
85.369,27.79072,0
85.36889,27.79077,0
85.36863,27.79048,0
85.36835,27.79025,0
85.368331,27.790249,0
85.36835,27.79025,0
85.37001,27.79097,0
85.36979,27.79099,0
85.36959,27.79108,0
85.36948,27.79108,0
85.36929,27.7909,0
85.36919,27.79072,0
85.36908,27.79065,0
85.369,27.79072,0
85.36889,27.79077,0
85.36863,27.79048,0
85.36835,27.79025,0
85.36799,27.79024,0
85.36767,27.79001,0
85.36751,27.78994,0
85.36732,27.78991,0
85.36691,27.7901,0
85.36689,27.78978,0
85.3668,27.78955,0
85.36665,27.78938,0
85.36665,27.78946,0
85.36639,27.78955,0
85.36618,27.78955,0
85.36596,27.78931,0
85.36578,27.78916,0
85.36531,27.78908,0
85.36443,27.78869,0
85.36428,27.78867,0
85.36403,27.78874,0
85.36377,27.78866,0
85.36365,27.78862,0
85.36362,27.78849,0
85.36353,27.78837,0
85.36335,27.78831,0
85.36316,27.78839,0
85.36301,27.78839,0
85.36283,27.78834,0
85.36258,27.78834,0
85.3623,27.78826,0
85.36219,27.78829,0
85.36222,27.78837,0
85.36235,27.78841,0
85.36213,27.78854,0
85.36187,27.78843,0
85.36155,27.78849,0
85.3615,27.78873,0
85.36138,27.7889,0
85.36144,27.78913,0
85.3614,27.78925,0
85.36122,27.78925,0
85.36106,27.78918,0
85.360818,27.789226,0
</coordinates>
</LineString>
</Placemark>
<Placemark>
<name>si</name>
<styleUrl>#line-00CD00-2000-nodesc</styleUrl>
<LineString>
<tessellate>1</tessellate>
<coordinates>
85.373197,27.485694,0
85.373245,27.485635,0
85.373321,27.485574,0
85.373424,27.48557,0
85.373522,27.485546,0
85.373566,27.485464,0
85.373648,27.485517,0
85.373651,27.485609,0
85.373605,27.485692,0
85.373579,27.485782,0
85.373489,27.485832,0
85.373509,27.485922,0
85.373475,27.48583,0
85.373487,27.485732,0
85.373368,27.48573,0
85.373288,27.485785,0
85.373388,27.485802,0
85.373486,27.485827,0
85.373424,27.485907,0
85.373509,27.485849,0
85.373579,27.485783,0
85.373491,27.485737,0
85.373514,27.485829,0
85.373538,27.485918,0
85.373559,27.486012,0
85.373633,27.486091,0
85.373665,27.486179,0
85.373723,27.486264,0
85.373689,27.486349,0
85.37374,27.486433,0
85.373844,27.486437,0
85.373849,27.486527,0
85.373839,27.486617,0
85.373883,27.486701,0
85.373915,27.486796,0
85.373924,27.48689,0
85.374004,27.486962,0
85.374092,27.487023,0
85.374195,27.487043,0
85.374306,27.487061,0
85.374379,27.487134,0
85.374462,27.487192,0
85.374561,27.487215,0
85.374674,27.487214,0
85.37478,27.487247,0
85.374886,27.487254,0
85.37499,27.487269,0
85.375081,27.487319,0
85.375162,27.487387,0
85.375245,27.487444,0
85.375158,27.487501,0
85.375155,27.487594,0
85.375124,27.48769,0
85.375051,27.487761,0
85.374975,27.487832,0
85.374871,27.487852,0
85.374826,27.48794,0
85.374783,27.488023,0
85.3747,27.488075,0
85.374612,27.48812,0
85.374515,27.488164,0
85.37441,27.488185,0
85.374314,27.488227,0
85.374221,27.488281,0
85.374149,27.488345,0
85.374081,27.488427,0
85.374005,27.488504,0
85.373923,27.488566,0
85.373866,27.488641,0
85.37377,27.488682,0
85.373675,27.488717,0
85.373587,27.488779,0
85.373527,27.488852,0
85.373433,27.48889,0
85.373385,27.488978,0
85.373397,27.48907,0
85.373374,27.489158,0
85.373454,27.489222,0
85.373522,27.489292,0
85.373515,27.489385,0
85.373559,27.489471,0
85.373583,27.489574,0
85.37359,27.489665,0
85.373604,27.489757,0
85.373706,27.489803,0
85.373753,27.48989,0
85.373808,27.489975,0
85.373873,27.490047,0
85.373976,27.490055,0
85.374042,27.490127,0
85.374127,27.490182,0
85.374216,27.490241,0
85.374294,27.490291,0
</coordinates>
</LineString>
</Placemark>
</Folder>
</Document>
</kml>
