<?xml version="1.0" encoding="UTF-8"?>
<kml xmlns="http://www.opengis.net/kml/2.2">
<Document>
<name>WNW_57. Mardi trek trail</name>
<description/>
<Style id="icon-1899-DB4436-nodesc-normal">
<IconStyle>
<color>ff3644db</color>
<scale>1</scale>
<Icon>
<href>https://www.gstatic.com/mapspro/images/stock/503-wht-blank_maps.png</href>
</Icon>
<hotSpot x="32" xunits="pixels" y="64" yunits="insetPixels"/>
</IconStyle>
<LabelStyle>
<scale>0</scale>
</LabelStyle>
<BalloonStyle>
<text><![CDATA[<h3>$[name]</h3>]]></text>
</BalloonStyle>
</Style>
<Style id="icon-1899-DB4436-nodesc-highlight">
<IconStyle>
<color>ff3644db</color>
<scale>1</scale>
<Icon>
<href>https://www.gstatic.com/mapspro/images/stock/503-wht-blank_maps.png</href>
</Icon>
<hotSpot x="32" xunits="pixels" y="64" yunits="insetPixels"/>
</IconStyle>
<LabelStyle>
<scale>1</scale>
</LabelStyle>
<BalloonStyle>
<text><![CDATA[<h3>$[name]</h3>]]></text>
</BalloonStyle>
</Style>
<StyleMap id="icon-1899-DB4436-nodesc">
<Pair>
<key>normal</key>
<styleUrl>#icon-1899-DB4436-nodesc-normal</styleUrl>
</Pair>
<Pair>
<key>highlight</key>
<styleUrl>#icon-1899-DB4436-nodesc-highlight</styleUrl>
</Pair>
</StyleMap>
<Style id="line-F0F000-2000-nodesc-normal">
<LineStyle>
<color>ff00f0f0</color>
<width>2</width>
</LineStyle>
<BalloonStyle>
<text><![CDATA[<h3>$[name]</h3>]]></text>
</BalloonStyle>
</Style>
<Style id="line-F0F000-2000-nodesc-highlight">
<LineStyle>
<color>ff00f0f0</color>
<width>3</width>
</LineStyle>
<BalloonStyle>
<text><![CDATA[<h3>$[name]</h3>]]></text>
</BalloonStyle>
</Style>
<StyleMap id="line-F0F000-2000-nodesc">
<Pair>
<key>normal</key>
<styleUrl>#line-F0F000-2000-nodesc-normal</styleUrl>
</Pair>
<Pair>
<key>highlight</key>
<styleUrl>#line-F0F000-2000-nodesc-highlight</styleUrl>
</Pair>
</StyleMap>
<Style id="line-FF0000-2000-nodesc-normal">
<LineStyle>
<color>ff0000ff</color>
<width>2</width>
</LineStyle>
<BalloonStyle>
<text><![CDATA[<h3>$[name]</h3>]]></text>
</BalloonStyle>
</Style>
<Style id="line-FF0000-2000-nodesc-highlight">
<LineStyle>
<color>ff0000ff</color>
<width>3</width>
</LineStyle>
<BalloonStyle>
<text><![CDATA[<h3>$[name]</h3>]]></text>
</BalloonStyle>
</Style>
<StyleMap id="line-FF0000-2000-nodesc">
<Pair>
<key>normal</key>
<styleUrl>#line-FF0000-2000-nodesc-normal</styleUrl>
</Pair>
<Pair>
<key>highlight</key>
<styleUrl>#line-FF0000-2000-nodesc-highlight</styleUrl>
</Pair>
</StyleMap>
<Folder>
<name>Points</name>
<Placemark>
<name>Pritam Deurali, D-5km, Alt-2214m</name>
<styleUrl>#icon-1899-DB4436-nodesc</styleUrl>
<Point>
<coordinates>
83.827941,28.328022,0
</coordinates>
</Point>
</Placemark>
<Placemark>
<name>Forest Camp, D-14km, Alt-2445m</name>
<styleUrl>#icon-1899-DB4436-nodesc</styleUrl>
<Point>
<coordinates>
83.843322,28.383208,0
</coordinates>
</Point>
</Placemark>
<Placemark>
<name>Badal Dada, D-18.5km, Alt-3287m</name>
<styleUrl>#icon-1899-DB4436-nodesc</styleUrl>
<Point>
<coordinates>
83.854327,28.415029,0
</coordinates>
</Point>
</Placemark>
<Placemark>
<name>काँडे, D-0, Alt-1733m</name>
<styleUrl>#icon-1899-DB4436-nodesc</styleUrl>
<Point>
<coordinates>
83.824096,28.292365,0
</coordinates>
</Point>
</Placemark>
<Placemark>
<name>Australian BC, D-2km, Alt- 2036m</name>
<styleUrl>#icon-1899-DB4436-nodesc</styleUrl>
<Point>
<coordinates>
83.826027,28.304019,0
</coordinates>
</Point>
</Placemark>
<Placemark>
<name>km21</name>
<styleUrl>#icon-1899-DB4436-nodesc</styleUrl>
<Point>
<coordinates>
83.867884,28.433244,0
</coordinates>
</Point>
</Placemark>
<Placemark>
<name>Low Camp, D-17km, Alt-2995m</name>
<styleUrl>#icon-1899-DB4436-nodesc</styleUrl>
<Point>
<coordinates>
83.857162,28.403084,0
</coordinates>
</Point>
</Placemark>
<Placemark>
<name>Mardi lower BC, D-26km, Alt-4222m</name>
<styleUrl>#icon-1899-DB4436-nodesc</styleUrl>
<Point>
<coordinates>
83.895072,28.45999,0
</coordinates>
</Point>
</Placemark>
<Placemark>
<name>Mardi High Camp, D-21km, Alt-3536m</name>
<styleUrl>#icon-1899-DB4436-nodesc</styleUrl>
<Point>
<coordinates>
83.867763,28.433356,0
</coordinates>
</Point>
</Placemark>
<Placemark>
<name>View Point, D-23km, Alt-3986m</name>
<styleUrl>#icon-1899-DB4436-nodesc</styleUrl>
<Point>
<coordinates>
83.87848,28.449534,0
</coordinates>
</Point>
</Placemark>
<Placemark>
<name>Sidhing</name>
<styleUrl>#icon-1899-DB4436-nodesc</styleUrl>
<Point>
<coordinates>
83.874511,28.384694,0
</coordinates>
</Point>
</Placemark>
</Folder>
<Folder>
<name>LineStrings</name>
<Placemark>
<name>Mardi uphill</name>
<styleUrl>#line-FF0000-2000-nodesc</styleUrl>
<LineString>
<tessellate>1</tessellate>
<coordinates>
83.824096,28.292365,0
83.824118,28.292378,0
83.82407,28.29244,0
83.82415,28.29263,0
83.82419,28.29264,0
83.82424,28.29274,0
83.82416,28.29279,0
83.82408,28.29292,0
83.82404,28.29314,0
83.82394,28.29342,0
83.82389,28.29355,0
83.8238,28.29364,0
83.82367,28.29373,0
83.82345,28.29383,0
83.82326,28.29386,0
83.82297,28.29407,0
83.82277,28.29416,0
83.82225,28.29426,0
83.82209,28.29435,0
83.82186,28.29434,0
83.8218,28.29442,0
83.82179,28.29467,0
83.82165,28.29483,0
83.82156,28.29508,0
83.82154,28.29528,0
83.82164,28.29542,0
83.82161,28.29565,0
83.82157,28.29572,0
83.82144,28.29584,0
83.82108,28.29597,0
83.82101,28.29605,0
83.82102,28.29613,0
83.82093,28.29622,0
83.82092,28.29634,0
83.82094,28.29643,0
83.82091,28.29648,0
83.82101,28.29666,0
83.82099,28.29685,0
83.82113,28.29708,0
83.821147,28.297209,0
83.82118,28.29745,0
83.82125,28.29761,0
83.8213,28.29767,0
83.8213,28.2978,0
83.82151,28.2981,0
83.8216,28.29814,0
83.82163,28.29824,0
83.82181,28.2985,0
83.82193,28.29881,0
83.82193,28.2989,0
83.82185,28.29898,0
83.82171,28.29901,0
83.82164,28.29915,0
83.82166,28.29935,0
83.82174,28.29957,0
83.82153,28.29975,0
83.8212,28.29986,0
83.8211,28.29998,0
83.82082,28.3001,0
83.82078,28.30017,0
83.82073,28.30044,0
83.82075,28.30055,0
83.82079,28.30061,0
83.82091,28.30065,0
83.82106,28.30078,0
83.82108,28.30097,0
83.82125,28.30129,0
83.82141,28.30147,0
83.82143,28.30164,0
83.82174,28.30182,0
83.82223,28.30237,0
83.82225,28.30245,0
83.82237,28.30248,0
83.82238,28.30251,0
83.82246,28.30252,0
83.82248,28.30258,0
83.82273,28.30267,0
83.82295,28.30287,0
83.82304,28.30314,0
83.82311,28.30348,0
83.82327,28.3039,0
83.82321,28.30402,0
83.82326,28.30411,0
83.82321,28.30421,0
83.823328,28.304328,0
83.82338,28.30438,0
83.82339,28.30438,0
83.82349,28.30448,0
83.82356,28.30438,0
83.82359,28.30433,0
83.82377,28.30438,0
83.82463,28.30462,0
83.82499,28.30459,0
83.8253,28.30452,0
83.82541,28.30438,0
83.82567,28.30402,0
83.82568,28.30387,0
83.82586,28.30379,0
83.82639,28.30385,0
83.82668,28.30363,0
83.8269,28.3035,0
83.82718,28.30343,0
83.82726,28.30343,0
83.82738,28.30351,0
83.82738,28.30354,0
83.82791,28.30378,0
83.82813,28.3039,0
83.82814,28.30401,0
83.828242,28.304098,0
83.82828,28.30413,0
83.82828,28.304192,0
83.82828,28.30424,0
83.82824,28.30438,0
83.82821,28.30444,0
83.828211,28.304454,0
83.82823,28.3048,0
83.82853,28.30511,0
83.82858,28.30516,0
83.82862,28.30528,0
83.82858,28.30573,0
83.82848,28.30605,0
83.82858,28.30654,0
83.8284,28.30666,0
83.82832,28.30685,0
83.82815,28.30712,0
83.82799,28.30729,0
83.82783,28.30753,0
83.82771,28.3078,0
83.82769,28.30801,0
83.82785,28.30821,0
83.82786,28.30832,0
83.82779,28.30853,0
83.8278,28.30875,0
83.82787,28.30891,0
83.82792,28.30914,0
83.8279,28.30958,0
83.828125,28.309847,0
83.82822,28.30996,0
83.82824,28.31017,0
83.82818,28.31032,0
83.82835,28.3108,0
83.82853,28.3109,0
83.8286,28.31103,0
83.82869,28.31108,0
83.82874,28.31117,0
83.82887,28.31125,0
83.82899,28.31139,0
83.82929,28.31161,0
83.82937,28.31186,0
83.82957,28.31215,0
83.82958,28.31229,0
83.82963,28.31241,0
83.82975,28.31248,0
83.83006,28.31248,0
83.83016,28.31253,0
83.8302,28.31259,0
83.83027,28.31273,0
83.83032,28.31316,0
83.83044,28.31341,0
83.83054,28.31386,0
83.83052,28.31404,0
83.8304,28.31423,0
83.83039,28.31442,0
83.83044,28.31462,0
83.8306,28.31485,0
83.83054,28.315,0
83.83035,28.31515,0
83.830312,28.31543,0
83.830296,28.315551,0
83.83027,28.31574,0
83.83028,28.31609,0
83.83024,28.31621,0
83.83024,28.31642,0
83.83017,28.3166,0
83.83017,28.31683,0
83.83009,28.31739,0
83.82992,28.31781,0
83.82993,28.31807,0
83.829951,28.31811,0
83.83007,28.31834,0
83.83009,28.31857,0
83.83028,28.31875,0
83.8302,28.31926,0
83.83017,28.31933,0
83.83007,28.31942,0
83.83002,28.31952,0
83.83002,28.31959,0
83.83006,28.31968,0
83.83013,28.31974,0
83.8302,28.31986,0
83.83016,28.32015,0
83.8301,28.3203,0
83.83008,28.32094,0
83.83,28.32126,0
83.83004,28.32158,0
83.83002,28.32178,0
83.83008,28.32196,0
83.83018,28.32204,0
83.83022,28.32212,0
83.83021,28.32225,0
83.83014,28.32234,0
83.83,28.32244,0
83.82988,28.32248,0
83.82985,28.32252,0
83.82984,28.32263,0
83.82989,28.32287,0
83.82995,28.32298,0
83.83006,28.32292,0
83.83022,28.32332,0
83.83012,28.3236,0
83.83004,28.32372,0
83.82997,28.32397,0
83.82979,28.32426,0
83.82974,28.3246,0
83.82952,28.32479,0
83.82945,28.32492,0
83.82946,28.32504,0
83.82944,28.3251,0
83.82938,28.32517,0
83.82921,28.32529,0
83.82913,28.32539,0
83.82907,28.32561,0
83.82914,28.32575,0
83.82918,28.32607,0
83.82917,28.32645,0
83.82922,28.32681,0
83.8292,28.32738,0
83.82911,28.32754,0
83.82911,28.3278,0
83.82921,28.32807,0
83.82944,28.32826,0
83.8296,28.32833,0
83.82965,28.32838,0
83.82969,28.3287,0
83.82974,28.32872,0
83.82987,28.32903,0
83.82986,28.32918,0
83.8298,28.3293,0
83.82981,28.3294,0
83.82993,28.32956,0
83.82992,28.32967,0
83.82984,28.32981,0
83.82997,28.32993,0
83.829995,28.329999,0
83.82999,28.33,0
83.83035,28.33018,0
83.83082,28.33058,0
83.83094,28.33064,0
83.83187,28.33079,0
83.83191,28.33083,0
83.83187,28.33087,0
83.83176,28.3309,0
83.83187,28.33094,0
83.83197,28.33106,0
83.832,28.33151,0
83.83225,28.3317,0
83.83234,28.33173,0
83.83242,28.33183,0
83.83269,28.33204,0
83.83284,28.33221,0
83.83299,28.3323,0
83.8332,28.3325,0
83.83364,28.33279,0
83.83372,28.3329,0
83.83383,28.33295,0
83.83408,28.33321,0
83.83434,28.33334,0
83.83439,28.33345,0
83.83492,28.33373,0
83.83504,28.33382,0
83.83534,28.33388,0
83.83571,28.33405,0
83.83583,28.33413,0
83.83603,28.33421,0
83.83611,28.33422,0
83.83625,28.33416,0
83.83674,28.33423,0
83.83748,28.33446,0
83.83817,28.33487,0
83.83832,28.33492,0
83.83847,28.3349,0
83.83866,28.335,0
83.8387,28.33505,0
83.83867,28.3351,0
83.8387,28.33513,0
83.83903,28.33514,0
83.83916,28.3351,0
83.83925,28.33511,0
83.8395,28.33518,0
83.83954,28.33525,0
83.83974,28.33539,0
83.83979,28.33537,0
83.83986,28.33539,0
83.84014,28.33527,0
83.84021,28.33518,0
83.84029,28.33518,0
83.84056,28.33527,0
83.84076,28.33531,0
83.84083,28.33541,0
83.84102,28.3355,0
83.84101,28.33563,0
83.84124,28.33575,0
83.84163,28.33607,0
83.84184,28.33618,0
83.84206,28.33643,0
83.8421,28.33656,0
83.84223,28.33664,0
83.84235,28.33679,0
83.84272,28.33684,0
83.84278,28.33693,0
83.84284,28.33711,0
83.84278,28.33729,0
83.84288,28.33756,0
83.84291,28.33782,0
83.84303,28.33797,0
83.843,28.33815,0
83.84315,28.33833,0
83.84342,28.33857,0
83.84349,28.33894,0
83.84333,28.33982,0
83.8434,28.34001,0
83.84324,28.34028,0
83.84328,28.34037,0
83.84308,28.3407,0
83.84307,28.34109,0
83.84316,28.34122,0
83.84318,28.34162,0
83.84312,28.34192,0
83.84294,28.34206,0
83.84287,28.34244,0
83.84289,28.34257,0
83.84245,28.34285,0
83.84226,28.343,0
83.84224,28.34306,0
83.84223,28.34309,0
83.84207,28.34316,0
83.84193,28.34333,0
83.84188,28.34348,0
83.84176,28.34357,0
83.84172,28.34369,0
83.84171,28.34386,0
83.84166,28.34401,0
83.84141,28.34424,0
83.84137,28.34444,0
83.84133,28.34449,0
83.84123,28.3445,0
83.84127,28.34456,0
83.84117,28.34474,0
83.84124,28.34488,0
83.84129,28.3451,0
83.84146,28.34529,0
83.84152,28.34543,0
83.84158,28.34547,0
83.8416,28.345517,0
83.8417,28.34575,0
83.84176,28.34602,0
83.84176,28.34626,0
83.84182,28.34638,0
83.84179,28.34645,0
83.84183,28.34649,0
83.84184,28.34657,0
83.84178,28.34668,0
83.84183,28.34671,0
83.8418,28.34676,0
83.84195,28.34686,0
83.8421,28.34704,0
83.84217,28.34721,0
83.84237,28.34738,0
83.84243,28.34753,0
83.84238,28.34763,0
83.84244,28.34777,0
83.8425,28.34803,0
83.84259,28.34815,0
83.84262,28.34829,0
83.84268,28.34844,0
83.84272,28.34885,0
83.84292,28.34908,0
83.84327,28.35007,0
83.84339,28.35029,0
83.84334,28.35049,0
83.84344,28.35077,0
83.84355,28.35081,0
83.84354,28.35102,0
83.84358,28.35116,0
83.84376,28.35131,0
83.84377,28.35142,0
83.84368,28.35175,0
83.8437,28.35208,0
83.84387,28.35246,0
83.84399,28.35255,0
83.84439,28.35268,0
83.84449,28.35274,0
83.84464,28.35292,0
83.84479,28.35293,0
83.84497,28.35307,0
83.84509,28.35324,0
83.84522,28.35349,0
83.84544,28.35365,0
83.84562,28.35366,0
83.84583,28.35375,0
83.84593,28.35381,0
83.84608,28.35397,0
83.84624,28.35421,0
83.84644,28.35437,0
83.84654,28.35451,0
83.84679,28.35472,0
83.84689,28.35488,0
83.84712,28.35499,0
83.84727,28.35513,0
83.84737,28.35529,0
83.84749,28.35534,0
83.84766,28.35551,0
83.84778,28.35565,0
83.84779,28.35572,0
83.84802,28.35599,0
83.84816,28.35606,0
83.84845,28.35634,0
83.84865,28.35671,0
83.84865,28.35681,0
83.84871,28.3569,0
83.8487,28.35698,0
83.84882,28.3571,0
83.84885,28.35723,0
83.84892,28.3573,0
83.84889,28.35737,0
83.84894,28.35746,0
83.84901,28.3575,0
83.84908,28.35779,0
83.84906,28.35801,0
83.84919,28.35817,0
83.84923,28.35836,0
83.8493,28.35841,0
83.84926,28.35852,0
83.84935,28.35872,0
83.84945,28.35882,0
83.84948,28.3588,0
83.84959,28.35893,0
83.84962,28.35903,0
83.84977,28.35928,0
83.84965,28.35931,0
83.84942,28.35954,0
83.84927,28.35974,0
83.84928,28.35984,0
83.8492,28.35999,0
83.84904,28.35995,0
83.84898,28.35999,0
83.84887,28.35994,0
83.84879,28.35993,0
83.84875,28.36003,0
83.84867,28.36001,0
83.84864,28.36009,0
83.84855,28.36009,0
83.84853,28.36027,0
83.84842,28.3605,0
83.84829,28.36061,0
83.84804,28.36093,0
83.84781,28.36115,0
83.84795,28.36123,0
83.84798,28.36148,0
83.84778,28.36155,0
83.84781,28.36165,0
83.84778,28.36171,0
83.84775,28.36178,0
83.84766,28.36178,0
83.8474,28.36181,0
83.84688,28.36206,0
83.84681,28.36223,0
83.8467,28.36227,0
83.84641,28.36207,0
83.8463,28.36194,0
83.84618,28.3619,0
83.84602,28.36226,0
83.84584,28.36239,0
83.84573,28.36235,0
83.84568,28.3624,0
83.84536,28.36269,0
83.84535,28.36284,0
83.84524,28.36291,0
83.84519,28.36313,0
83.84524,28.36347,0
83.84552,28.36384,0
83.84546,28.36401,0
83.8452,28.36409,0
83.84514,28.36424,0
83.84482,28.36447,0
83.84492,28.3649,0
83.84521,28.36504,0
83.84523,28.36513,0
83.84505,28.36541,0
83.84511,28.36547,0
83.84511,28.36556,0
83.84503,28.3656,0
83.84506,28.36582,0
83.84493,28.36601,0
83.84501,28.36621,0
83.84482,28.36637,0
83.84482,28.36657,0
83.84491,28.36666,0
83.84471,28.36695,0
83.84476,28.36745,0
83.84496,28.36766,0
83.84499,28.36781,0
83.84481,28.36815,0
83.84493,28.36856,0
83.84519,28.36903,0
83.8456,28.36929,0
83.84562,28.36956,0
83.8452,28.36987,0
83.84515,28.37026,0
83.84496,28.37089,0
83.84473,28.37109,0
83.84463,28.37145,0
83.8443,28.37155,0
83.84404,28.37185,0
83.84386,28.37228,0
83.84386,28.37253,0
83.84367,28.37261,0
83.8434,28.37307,0
83.84356,28.3738,0
83.8436,28.37444,0
83.84353,28.37531,0
83.8434,28.37598,0
83.84337,28.37655,0
83.84349,28.37699,0
83.84311,28.37739,0
83.84295,28.37787,0
83.84248,28.37812,0
83.84223,28.3791,0
83.84243,28.37983,0
83.84247,28.38076,0
83.842799,28.38161,0
83.84285,28.38174,0
83.84291,28.38191,0
83.84298,28.38244,0
83.84306,28.38275,0
83.84314,28.38292,0
83.84315,28.38319,0
83.84319,28.38323,0
83.84336,28.3834,0
83.84327,28.38353,0
83.84332,28.38357,0
83.843274,28.383633,0
83.843228,28.383694,0
83.84318,28.38376,0
83.84321,28.38393,0
83.84361,28.38424,0
83.84373,28.38459,0
83.84393,28.38492,0
83.84426,28.38522,0
83.84445,28.38567,0
83.84477,28.38572,0
83.84503,28.38572,0
83.84513,28.38576,0
83.84527,28.38605,0
83.84535,28.38611,0
83.84537,28.38633,0
83.84542,28.38637,0
83.84568,28.38639,0
83.84602,28.38631,0
83.84624,28.38612,0
83.84637,28.38612,0
83.84662,28.38621,0
83.84694,28.38643,0
83.84722,28.38653,0
83.84739,28.38655,0
83.84745,28.38661,0
83.84756,28.38654,0
83.84766,28.38651,0
83.84792,28.38652,0
83.84805,28.38647,0
83.84815,28.38655,0
83.84822,28.38666,0
83.84841,28.38677,0
83.84844,28.38699,0
83.84851,28.38724,0
83.8487,28.38737,0
83.84881,28.38739,0
83.84884,28.38747,0
83.84908,28.38753,0
83.84922,28.38747,0
83.84934,28.38733,0
83.84947,28.38726,0
83.84962,28.38739,0
83.84981,28.38742,0
83.84991,28.38737,0
83.85002,28.38743,0
83.85022,28.3874,0
83.85012,28.38752,0
83.85029,28.38773,0
83.85004,28.38797,0
83.85006,28.38805,0
83.84999,28.38821,0
83.84989,28.38832,0
83.849,28.38882,0
83.84899,28.38887,0
83.84891,28.38902,0
83.84863,28.38921,0
83.84847,28.38928,0
83.84828,28.38944,0
83.84824,28.38955,0
83.84805,28.38964,0
83.84787,28.38993,0
83.8478,28.39017,0
83.84789,28.39035,0
83.84829,28.39073,0
83.84835,28.39082,0
83.8484,28.39106,0
83.84865,28.39128,0
83.84915,28.39164,0
83.84924,28.39185,0
83.84924,28.39192,0
83.84931,28.39203,0
83.84937,28.39204,0
83.8495,28.3922,0
83.84976,28.39229,0
83.84985,28.39247,0
83.85002,28.39266,0
83.84998,28.39283,0
83.85002,28.39296,0
83.85023,28.39319,0
83.85041,28.39334,0
83.85056,28.39337,0
83.85069,28.39345,0
83.85058,28.39365,0
83.85065,28.39377,0
83.85063,28.39384,0
83.8508,28.39393,0
83.85094,28.39406,0
83.85102,28.39433,0
83.85107,28.39438,0
83.8512,28.39447,0
83.85131,28.3946,0
83.85148,28.39468,0
83.85136,28.39488,0
83.85139,28.3951,0
83.85128,28.39525,0
83.85143,28.39535,0
83.85151,28.39579,0
83.85165,28.39592,0
83.85169,28.3961,0
83.85168,28.39642,0
83.85153,28.39759,0
83.85184,28.39772,0
83.85197,28.39793,0
83.8524,28.39814,0
83.85255,28.39825,0
83.8528,28.39832,0
83.85325,28.3989,0
83.85325,28.39896,0
83.85363,28.39921,0
83.85379,28.39945,0
83.85389,28.39965,0
83.85413,28.39978,0
83.85425,28.39997,0
83.85451,28.40019,0
83.85487,28.40033,0
83.85492,28.40049,0
83.85503,28.4005,0
83.85538,28.40106,0
83.85552,28.40126,0
83.85552,28.40137,0
83.85588,28.40188,0
83.8561,28.40237,0
83.85638,28.40259,0
83.85657,28.40263,0
83.85669,28.40272,0
83.85679,28.40284,0
83.85703,28.40325,0
83.85713,28.40337,0
83.85703,28.40325,0
83.8568,28.40337,0
83.85674,28.40334,0
83.85629,28.40344,0
83.85594,28.4036,0
83.8558,28.40374,0
83.85569,28.40406,0
83.85561,28.4041,0
83.85549,28.40478,0
83.85531,28.40508,0
83.85525,28.40543,0
83.85532,28.4055,0
83.85528,28.40568,0
83.85545,28.40591,0
83.85562,28.40644,0
83.85592,28.40662,0
83.85596,28.40704,0
83.85601,28.40704,0
83.8561,28.40723,0
83.85613,28.40736,0
83.85647,28.40784,0
83.85653,28.40786,0
83.85656,28.40793,0
83.85656,28.408,0
83.85661,28.40813,0
83.85659,28.40822,0
83.85662,28.4084,0
83.85671,28.40868,0
83.8567,28.4089,0
83.85674,28.40928,0
83.85672,28.40961,0
83.85683,28.40985,0
83.85685,28.40997,0
83.85684,28.41012,0
83.85672,28.41035,0
83.85666,28.41058,0
83.85645,28.41088,0
83.85641,28.4112,0
83.85615,28.41155,0
83.85616,28.41193,0
83.85614,28.41204,0
83.85607,28.41216,0
83.85604,28.41239,0
83.85597,28.4125,0
83.8558,28.4133,0
83.8557,28.41359,0
83.8555,28.41386,0
83.85544,28.41398,0
83.85526,28.41419,0
83.85522,28.41428,0
83.85529,28.41445,0
83.85521,28.41458,0
83.85522,28.41467,0
83.85508,28.41482,0
83.85502,28.41507,0
83.85505,28.41517,0
83.85502,28.41532,0
83.85505,28.41538,0
83.85499,28.41592,0
83.855011,28.41607,0
83.85502,28.41613,0
83.85511,28.41631,0
83.85539,28.4166,0
83.85557,28.41688,0
83.85599,28.41739,0
83.85613,28.41738,0
83.85621,28.41749,0
83.85613,28.41754,0
83.85625,28.41772,0
83.85646,28.41785,0
83.85655,28.41831,0
83.85668,28.4185,0
83.85676,28.41874,0
83.85692,28.41884,0
83.85706,28.41905,0
83.85726,28.41915,0
83.85738,28.41932,0
83.85745,28.41935,0
83.85754,28.41949,0
83.85758,28.41964,0
83.85786,28.41986,0
83.85794,28.41997,0
83.85794,28.42009,0
83.85803,28.42033,0
83.85809,28.42039,0
83.85847,28.42083,0
83.85858,28.42088,0
83.85898,28.42128,0
83.85914,28.42135,0
83.85928,28.42173,0
83.85936,28.42186,0
83.8593,28.42201,0
83.85931,28.42209,0
83.85959,28.42249,0
83.85977,28.42288,0
83.85994,28.42302,0
83.85994,28.42318,0
83.86018,28.42351,0
83.86028,28.42378,0
83.86021,28.42391,0
83.86032,28.42436,0
83.86044,28.42442,0
83.8606,28.42443,0
83.86077,28.42464,0
83.86094,28.42474,0
83.86102,28.42475,0
83.86107,28.42484,0
83.86088,28.4251,0
83.86084,28.42529,0
83.86088,28.42547,0
83.86095,28.42554,0
83.86134,28.42573,0
83.8616,28.42579,0
83.86179,28.42608,0
83.86199,28.42622,0
83.86213,28.42645,0
83.86217,28.42663,0
83.86256,28.42712,0
83.86259,28.42726,0
83.86284,28.42745,0
83.86294,28.42761,0
83.86298,28.42775,0
83.86317,28.4279,0
83.86313,28.42792,0
83.86315,28.42797,0
83.86329,28.42802,0
83.86341,28.42818,0
83.86366,28.42831,0
83.86397,28.42854,0
83.86453,28.42923,0
83.86491,28.42952,0
83.86501,28.42957,0
83.86504,28.42968,0
83.86507,28.43022,0
83.86521,28.43032,0
83.86531,28.43035,0
83.86538,28.43053,0
83.86553,28.43061,0
83.86567,28.43063,0
83.86567,28.43077,0
83.86577,28.43094,0
83.86587,28.431,0
83.86591,28.43112,0
83.86589,28.43118,0
83.86599,28.43134,0
83.86632,28.43149,0
83.86654,28.43145,0
83.86664,28.43161,0
83.86685,28.43173,0
83.86696,28.43172,0
83.86705,28.43176,0
83.86709,28.43186,0
83.86704,28.43195,0
83.86709,28.43216,0
83.86723,28.43231,0
83.86739,28.43236,0
83.867485,28.432465,0
83.867497,28.432479,0
83.86758,28.43257,0
83.86755,28.43265,0
83.86763,28.43275,0
83.86762,28.43282,0
83.86777,28.43303,0
83.86781,28.43318,0
83.86789,28.43325,0
83.868006,28.433558,0
83.86803,28.43362,0
83.86816,28.43369,0
83.8684,28.433823,0
83.86843,28.43384,0
83.868681,28.433945,0
83.86874,28.43397,0
83.86917,28.43405,0
83.869352,28.434115,0
83.86956,28.43419,0
83.86963,28.43427,0
83.86976,28.43441,0
83.86993,28.43441,0
83.86994,28.4345,0
83.87004,28.4346,0
83.8701,28.43483,0
83.87045,28.43505,0
83.87067,28.43505,0
83.87078,28.43534,0
83.87108,28.43572,0
83.87122,28.43582,0
83.87164,28.43605,0
83.87175,28.43624,0
83.87175,28.43645,0
83.87169,28.43655,0
83.87177,28.43687,0
83.87176,28.43693,0
83.87183,28.43704,0
83.87181,28.43716,0
83.87184,28.43732,0
83.87186,28.43731,0
83.87196,28.43746,0
83.87196,28.43765,0
83.87209,28.43773,0
83.87204,28.43776,0
83.87206,28.43783,0
83.87214,28.43788,0
83.87213,28.4379,0
83.87219,28.43797,0
83.87231,28.43802,0
83.87237,28.43808,0
83.8724,28.43815,0
83.8724,28.43828,0
83.87236,28.43829,0
83.87245,28.43839,0
83.87255,28.43876,0
83.87257,28.43885,0
83.87263,28.43888,0
83.87261,28.43901,0
83.8727,28.43927,0
83.87279,28.43933,0
83.87285,28.43945,0
83.873,28.43958,0
83.87315,28.43961,0
83.87325,28.43971,0
83.87418,28.44058,0
83.87426,28.44111,0
83.87414,28.4413,0
83.87423,28.4415,0
83.8742,28.4418,0
83.87433,28.44203,0
83.87507,28.44277,0
83.87512,28.4429,0
83.87528,28.44303,0
83.87547,28.44307,0
83.87551,28.44318,0
83.87558,28.44325,0
83.87563,28.44323,0
83.87574,28.4434,0
83.87574,28.44361,0
83.87586,28.44379,0
83.87604,28.44385,0
83.87615,28.44397,0
83.87612,28.4445,0
83.87614,28.44473,0
83.87621,28.44494,0
83.87622,28.44517,0
83.87617,28.44522,0
83.87621,28.44542,0
83.87683,28.44656,0
83.87705,28.44674,0
83.87682,28.447,0
83.87687,28.44721,0
83.87689,28.44749,0
83.87668,28.44769,0
83.87672,28.44793,0
83.87688,28.4482,0
83.87701,28.44862,0
83.87761,28.44889,0
83.87829,28.44952,0
83.87842,28.44991,0
83.87843,28.45064,0
83.87849,28.45082,0
83.87852,28.45126,0
83.87947,28.45229,0
83.87977,28.4527,0
83.8802,28.45309,0
83.88037,28.45314,0
83.88077,28.45354,0
83.88109,28.45369,0
83.88117,28.45388,0
83.88129,28.45399,0
83.88146,28.45427,0
83.88165,28.45433,0
83.88184,28.4545,0
83.88197,28.45472,0
83.88218,28.45486,0
83.88228,28.45486,0
83.88229,28.45491,0
83.88241,28.45494,0
83.8827,28.45522,0
83.88317,28.45545,0
83.88323,28.45555,0
83.88355,28.45568,0
83.8837,28.45572,0
83.88411,28.45603,0
83.88421,28.45614,0
83.88428,28.45616,0
83.88431,28.45625,0
83.88449,28.4564,0
83.88465,28.45647,0
83.88474,28.45644,0
83.88483,28.4565,0
83.88485,28.45658,0
83.88536,28.45685,0
83.8855,28.45696,0
83.88565,28.45697,0
83.88586,28.45705,0
83.88616,28.45702,0
83.88631,28.45706,0
83.88649,28.45698,0
83.88713,28.45704,0
83.88771,28.45704,0
83.88788,28.4571,0
83.88828,28.4573,0
83.88867,28.45754,0
83.88904,28.45782,0
83.88931,28.45792,0
83.8898,28.45797,0
83.89039,28.45834,0
83.89064,28.45831,0
83.89128,28.45864,0
83.8916,28.45873,0
83.89209,28.45887,0
83.89292,28.45875,0
83.89311,28.45882,0
83.89317,28.45903,0
83.89319,28.45913,0
83.89362,28.4594,0
83.89397,28.45951,0
83.89427,28.45972,0
83.89466,28.4598,0
83.89504,28.45991,0
83.895124,28.459998,0
</coordinates>
</LineString>
</Placemark>
<Placemark>
<name>mardi downhill</name>
<styleUrl>#line-F0F000-2000-nodesc</styleUrl>
<LineString>
<tessellate>1</tessellate>
<coordinates>
83.857055,28.403405,0
83.857123,28.403361,0
83.85703,28.40325,0
83.85679,28.40284,0
83.85669,28.40272,0
83.85676,28.40259,0
83.8566,28.40249,0
83.85662,28.40245,0
83.85658,28.40238,0
83.85659,28.40226,0
83.85653,28.40218,0
83.8564,28.40209,0
83.85638,28.40197,0
83.8567,28.40163,0
83.85673,28.4015,0
83.85664,28.40142,0
83.85663,28.40128,0
83.85678,28.40115,0
83.8568,28.40106,0
83.85681,28.40096,0
83.85668,28.40083,0
83.85651,28.40074,0
83.85641,28.40059,0
83.85631,28.40033,0
83.85629,28.4002,0
83.85606,28.39989,0
83.85587,28.39981,0
83.85571,28.39961,0
83.85572,28.39958,0
83.85563,28.39955,0
83.85567,28.39946,0
83.85539,28.39894,0
83.85552,28.39895,0
83.85566,28.39892,0
83.85564,28.39881,0
83.85572,28.39863,0
83.85579,28.39861,0
83.85577,28.39851,0
83.8559,28.39842,0
83.85589,28.39831,0
83.85576,28.39817,0
83.8557,28.39803,0
83.85561,28.39754,0
83.85573,28.39749,0
83.8557,28.3969,0
83.85549,28.39661,0
83.85548,28.39631,0
83.8556,28.3961,0
83.85573,28.39604,0
83.8559,28.39608,0
83.85596,28.39617,0
83.856,28.39617,0
83.85603,28.39605,0
83.85617,28.39598,0
83.8564,28.39597,0
83.85699,28.39579,0
83.85723,28.39551,0
83.85764,28.39519,0
83.85772,28.3952,0
83.85805,28.39483,0
83.85811,28.39457,0
83.85829,28.39444,0
83.85826,28.39415,0
83.85839,28.394,0
83.85846,28.394,0
83.85865,28.39376,0
83.85875,28.39374,0
83.85903,28.3935,0
83.85914,28.3932,0
83.85936,28.39294,0
83.85939,28.39283,0
83.85974,28.39302,0
83.85981,28.39286,0
83.85997,28.3929,0
83.86011,28.39264,0
83.860472,28.392372,0
83.86069,28.39221,0
83.8609,28.3923,0
83.861,28.3921,0
83.86088,28.39188,0
83.86096,28.39183,0
83.86099,28.39172,0
83.86117,28.39168,0
83.86112,28.39157,0
83.86141,28.39109,0
83.86212,28.39022,0
83.86217,28.38997,0
83.86241,28.3897,0
83.86378,28.38866,0
83.86374,28.38856,0
83.8639,28.38833,0
83.86477,28.38788,0
83.86493,28.38803,0
83.86588,28.38776,0
83.86627,28.38738,0
83.86656,28.38737,0
83.86682,28.38711,0
83.86715,28.38694,0
83.86727,28.38677,0
83.86803,28.38639,0
83.86832,28.38631,0
83.86847,28.38634,0
83.86888,28.38616,0
83.86902,28.38619,0
83.86963,28.38606,0
83.87013,28.38589,0
83.87034,28.38561,0
83.87056,28.38566,0
83.8706,28.3855,0
83.87068,28.38535,0
83.871,28.38508,0
83.87119,28.38502,0
83.87117,28.3849,0
83.87112,28.38484,0
83.87123,28.38477,0
83.87132,28.38462,0
83.87153,28.38455,0
83.87156,28.38458,0
83.87174,28.3844,0
83.871905,28.384276,0
83.87198,28.38422,0
83.87207,28.38418,0
83.87222,28.38417,0
83.8729,28.38392,0
83.87342,28.38369,0
83.87345,28.38373,0
83.87341,28.38379,0
</coordinates>
</LineString>
</Placemark>
</Folder>
</Document>
</kml>
