<?xml version="1.0" encoding="UTF-8"?>
<kml xmlns="http://www.opengis.net/kml/2.2">
<Document>
<name>Dhulikhel- namobuddha- Puranogaun</name>
<description>Dhulikhel-Devithan-Kavre Bhanjyang-Faskot-Thapagaun-Fulbari chowk-Kami Gaun-Ghahate ko Bhir-Namobuddha-Shyampati-Sutkeridhunga-Puranagaun(Viral old Newari Village)-Kotdevi Mandir-Aiseluchaur-Dapchekhola-Kashikhanda-Pipalchaur(300+years Newari Village)-Lakayena-Patale Gaun...And back to KTM </description>
<Style id="line-000000-1200-nodesc-normal">
<LineStyle>
<color>ff000000</color>
<width>1.2</width>
</LineStyle>
<BalloonStyle>
<text><![CDATA[<h3>$[name]</h3>]]></text>
</BalloonStyle>
</Style>
<Style id="line-000000-1200-nodesc-highlight">
<LineStyle>
<color>ff000000</color>
<width>1.8</width>
</LineStyle>
<BalloonStyle>
<text><![CDATA[<h3>$[name]</h3>]]></text>
</BalloonStyle>
</Style>
<StyleMap id="line-000000-1200-nodesc">
<Pair>
<key>normal</key>
<styleUrl>#line-000000-1200-nodesc-normal</styleUrl>
</Pair>
<Pair>
<key>highlight</key>
<styleUrl>#line-000000-1200-nodesc-highlight</styleUrl>
</Pair>
</StyleMap>
<Folder>
<name>Dhulikhel namobddha hike 1 Feb 2024</name>
<Placemark>
<name>dhulikhel-namobudha hike</name>
<styleUrl>#line-000000-1200-nodesc</styleUrl>
<LineString>
<tessellate>1</tessellate>
<coordinates>
85.553805,27.618566,0
85.553914,27.618192,0
85.554039,27.617788,0
85.554147,27.617432,0
85.554556,27.617401,0
85.555057,27.617364,0
85.555718,27.617096,0
85.556784,27.616785,0
85.557332,27.61634,0
85.558734,27.616134,0
85.559292,27.61542,0
85.55875,27.614615,0
85.559245,27.614088,0
85.560863,27.61413,0
85.561726,27.614733,0
85.563352,27.614537,0
85.563683,27.614504,0
85.564451,27.614163,0
85.564924,27.613647,0
85.564688,27.612893,0
85.565563,27.612439,0
85.565751,27.612473,0
85.566561,27.612152,0
85.566874,27.611567,0
85.567547,27.610894,0
85.568129,27.610481,0
85.566388,27.609409,0
85.565891,27.609297,0
85.565881,27.608865,0
85.564579,27.608659,0
85.563188,27.608615,0
85.562352,27.608309,0
85.560687,27.607065,0
85.560713,27.606518,0
85.560586,27.604712,0
85.560493,27.603328,0
85.559897,27.602431,0
85.559513,27.601831,0
85.558661,27.601222,0
85.558595,27.600563,0
85.55734,27.600626,0
85.557353,27.599782,0
85.556723,27.598894,0
85.556931,27.597108,0
85.557989,27.595808,0
85.558261,27.594261,0
85.558518,27.593216,0
85.559622,27.592171,0
85.560921,27.590994,0
85.5619,27.591488,0
85.562926,27.590716,0
85.564313,27.590851,0
85.565492,27.590588,0
85.566576,27.59046,0
85.567599,27.589661,0
85.568671,27.589315,0
85.569507,27.589766,0
85.570197,27.589826,0
85.571059,27.589396,0
85.573616,27.586646,0
85.57395,27.58645,0
85.574788,27.586216,0
85.576251,27.582417,0
85.57574,27.580608,0
85.578548,27.575288,0
85.579637,27.57527,0
85.580916,27.573221,0
85.58552,27.572265,0
85.586122,27.571199,0
85.587081,27.570279,0
85.588086,27.569517,0
85.589776,27.568843,0
85.590557,27.56778,0
85.591499,27.566955,0
85.592943,27.566019,0
85.593694,27.565089,0
85.593815,27.564482,0
85.59452,27.563737,0
85.595281,27.56276,0
85.596048,27.561667,0
85.596556,27.5606,0
85.596912,27.560188,0
85.597304,27.559747,0
85.597563,27.559185,0
85.597441,27.558733,0
85.597581,27.55835,0
85.597875,27.557562,0
85.598254,27.557194,0
85.598614,27.556516,0
85.598786,27.556271,0
85.599113,27.556035,0
85.599499,27.5558,0
85.599971,27.555681,0
85.600405,27.555536,0
85.600635,27.55525,0
85.60105,27.55503,0
85.601511,27.554926,0
85.60208,27.554974,0
85.602463,27.555004,0
85.602768,27.554975,0
85.603176,27.554652,0
85.603543,27.554385,0
85.604187,27.554212,0
85.604617,27.554133,0
85.605143,27.553897,0
85.605762,27.553744,0
85.606202,27.553771,0
85.606665,27.553291,0
85.607573,27.553083,0
85.608445,27.552711,0
85.609322,27.552392,0
85.610196,27.552417,0
85.610729,27.552207,0
85.611181,27.551808,0
85.61166,27.551593,0
85.612287,27.551472,0
85.612535,27.550062,0
85.612432,27.551421,0
85.613514,27.551262,0
85.61464,27.550431,0
85.615504,27.550056,0
85.614954,27.551192,0
85.614082,27.552058,0
85.612217,27.553344,0
85.611579,27.5547,0
85.612827,27.555957,0
85.614583,27.557561,0
85.613906,27.55854,0
85.616008,27.561275,0
85.617548,27.562299,0
85.616397,27.564189,0
85.616582,27.566503,0
85.617229,27.566771,0
85.617,27.568752,0
85.617026,27.570358,0
85.616446,27.571561,0
85.61663,27.572709,0
85.616465,27.573659,0
85.615749,27.574709,0
85.615312,27.574744,0
85.614898,27.576028,0
85.61486,27.57744,0
85.614901,27.577857,0
85.615082,27.578873,0
85.615363,27.579074,0
85.615198,27.579723,0
85.615287,27.580359,0
85.614749,27.580667,0
85.614844,27.580984,0
85.615023,27.58205,0
85.615213,27.582322,0
85.615408,27.583097,0
85.616641,27.583209,0
85.616485,27.585427,0
85.616944,27.586927,0
85.619303,27.586923,0
85.618428,27.588892,0
</coordinates>
</LineString>
</Placemark>
</Folder>
</Document>
</kml>
