<?xml version="1.0" encoding="UTF-8"?>
<kml xmlns="http://www.opengis.net/kml/2.2">
<Document>
<name>WNW_93. North ABC trail projection</name>
<description>just plan</description>
<Style id="icon-1899-DB4436-nodesc-normal">
<IconStyle>
<color>ff3644db</color>
<scale>1</scale>
<Icon>
<href>https://www.gstatic.com/mapspro/images/stock/503-wht-blank_maps.png</href>
</Icon>
<hotSpot x="32" xunits="pixels" y="64" yunits="insetPixels"/>
</IconStyle>
<LabelStyle>
<scale>0</scale>
</LabelStyle>
<BalloonStyle>
<text><![CDATA[<h3>$[name]</h3>]]></text>
</BalloonStyle>
</Style>
<Style id="icon-1899-DB4436-nodesc-highlight">
<IconStyle>
<color>ff3644db</color>
<scale>1</scale>
<Icon>
<href>https://www.gstatic.com/mapspro/images/stock/503-wht-blank_maps.png</href>
</Icon>
<hotSpot x="32" xunits="pixels" y="64" yunits="insetPixels"/>
</IconStyle>
<LabelStyle>
<scale>1</scale>
</LabelStyle>
<BalloonStyle>
<text><![CDATA[<h3>$[name]</h3>]]></text>
</BalloonStyle>
</Style>
<StyleMap id="icon-1899-DB4436-nodesc">
<Pair>
<key>normal</key>
<styleUrl>#icon-1899-DB4436-nodesc-normal</styleUrl>
</Pair>
<Pair>
<key>highlight</key>
<styleUrl>#icon-1899-DB4436-nodesc-highlight</styleUrl>
</Pair>
</StyleMap>
<Style id="line-0000FF-5883-nodesc-normal">
<LineStyle>
<color>ffff0000</color>
<width>5.883</width>
</LineStyle>
<BalloonStyle>
<text><![CDATA[<h3>$[name]</h3>]]></text>
</BalloonStyle>
</Style>
<Style id="line-0000FF-5883-nodesc-highlight">
<LineStyle>
<color>ffff0000</color>
<width>8.8245</width>
</LineStyle>
<BalloonStyle>
<text><![CDATA[<h3>$[name]</h3>]]></text>
</BalloonStyle>
</Style>
<StyleMap id="line-0000FF-5883-nodesc">
<Pair>
<key>normal</key>
<styleUrl>#line-0000FF-5883-nodesc-normal</styleUrl>
</Pair>
<Pair>
<key>highlight</key>
<styleUrl>#line-0000FF-5883-nodesc-highlight</styleUrl>
</Pair>
</StyleMap>
<Style id="line-FF0000-6464-nodesc-normal">
<LineStyle>
<color>ff0000ff</color>
<width>6.464</width>
</LineStyle>
<BalloonStyle>
<text><![CDATA[<h3>$[name]</h3>]]></text>
</BalloonStyle>
</Style>
<Style id="line-FF0000-6464-nodesc-highlight">
<LineStyle>
<color>ff0000ff</color>
<width>9.696</width>
</LineStyle>
<BalloonStyle>
<text><![CDATA[<h3>$[name]</h3>]]></text>
</BalloonStyle>
</Style>
<StyleMap id="line-FF0000-6464-nodesc">
<Pair>
<key>normal</key>
<styleUrl>#line-FF0000-6464-nodesc-normal</styleUrl>
</Pair>
<Pair>
<key>highlight</key>
<styleUrl>#line-FF0000-6464-nodesc-highlight</styleUrl>
</Pair>
</StyleMap>
<Folder>
<name>Points</name>
<Placemark>
<name>20</name>
<styleUrl>#icon-1899-DB4436-nodesc</styleUrl>
<Point>
<coordinates>
83.776284,28.634637,0
</coordinates>
</Point>
</Placemark>
<Placemark>
<name>13</name>
<styleUrl>#icon-1899-DB4436-nodesc</styleUrl>
<Point>
<coordinates>
83.608572,28.439536,0
</coordinates>
</Point>
</Placemark>
<Placemark>
<name>21</name>
<styleUrl>#icon-1899-DB4436-nodesc</styleUrl>
<Point>
<coordinates>
83.651922,28.493045,0
</coordinates>
</Point>
</Placemark>
<Placemark>
<name>07</name>
<styleUrl>#icon-1899-DB4436-nodesc</styleUrl>
<Point>
<coordinates>
83.594154,28.394674,0
</coordinates>
</Point>
</Placemark>
<Placemark>
<name>16</name>
<styleUrl>#icon-1899-DB4436-nodesc</styleUrl>
<Point>
<coordinates>
83.749949,28.609986,0
</coordinates>
</Point>
</Placemark>
<Placemark>
<name>08</name>
<styleUrl>#icon-1899-DB4436-nodesc</styleUrl>
<Point>
<coordinates>
83.599256,28.40163,0
</coordinates>
</Point>
</Placemark>
<Placemark>
<name>15</name>
<styleUrl>#icon-1899-DB4436-nodesc</styleUrl>
<Point>
<coordinates>
83.742361,28.604691,0
</coordinates>
</Point>
</Placemark>
<Placemark>
<name>22</name>
<styleUrl>#icon-1899-DB4436-nodesc</styleUrl>
<Point>
<coordinates>
83.789865,28.64685,0
</coordinates>
</Point>
</Placemark>
<Placemark>
<name>10</name>
<styleUrl>#icon-1899-DB4436-nodesc</styleUrl>
<Point>
<coordinates>
83.598264,28.417013,0
</coordinates>
</Point>
</Placemark>
<Placemark>
<name>27</name>
<styleUrl>#icon-1899-DB4436-nodesc</styleUrl>
<Point>
<coordinates>
83.664155,28.531954,0
</coordinates>
</Point>
</Placemark>
<Placemark>
<name>12</name>
<styleUrl>#icon-1899-DB4436-nodesc</styleUrl>
<Point>
<coordinates>
83.715105,28.597227,0
</coordinates>
</Point>
</Placemark>
<Placemark>
<name>22</name>
<styleUrl>#icon-1899-DB4436-nodesc</styleUrl>
<Point>
<coordinates>
83.654756,28.501087,0
</coordinates>
</Point>
</Placemark>
<Placemark>
<name>Beni</name>
<styleUrl>#icon-1899-DB4436-nodesc</styleUrl>
<Point>
<coordinates>
83.567435,28.34827,0
</coordinates>
</Point>
</Placemark>
<Placemark>
<name>16</name>
<styleUrl>#icon-1899-DB4436-nodesc</styleUrl>
<Point>
<coordinates>
83.627216,28.457414,0
</coordinates>
</Point>
</Placemark>
<Placemark>
<name>01</name>
<styleUrl>#icon-1899-DB4436-nodesc</styleUrl>
<Point>
<coordinates>
83.564964,28.356963,0
</coordinates>
</Point>
</Placemark>
<Placemark>
<name>09</name>
<styleUrl>#icon-1899-DB4436-nodesc</styleUrl>
<Point>
<coordinates>
83.694061,28.583571,0
</coordinates>
</Point>
</Placemark>
<Placemark>
<name>06</name>
<styleUrl>#icon-1899-DB4436-nodesc</styleUrl>
<Point>
<coordinates>
83.588373,28.388009,0
</coordinates>
</Point>
</Placemark>
<Placemark>
<name>03</name>
<styleUrl>#icon-1899-DB4436-nodesc</styleUrl>
<Point>
<coordinates>
83.56784,28.374223,0
</coordinates>
</Point>
</Placemark>
<Placemark>
<name>14</name>
<styleUrl>#icon-1899-DB4436-nodesc</styleUrl>
<Point>
<coordinates>
83.615631,28.445795,0
</coordinates>
</Point>
</Placemark>
<Placemark>
<name>08</name>
<styleUrl>#icon-1899-DB4436-nodesc</styleUrl>
<Point>
<coordinates>
83.691827,28.575023,0
</coordinates>
</Point>
</Placemark>
<Placemark>
<name>10</name>
<styleUrl>#icon-1899-DB4436-nodesc</styleUrl>
<Point>
<coordinates>
83.69782,28.591808,0
</coordinates>
</Point>
</Placemark>
<Placemark>
<name>11</name>
<styleUrl>#icon-1899-DB4436-nodesc</styleUrl>
<Point>
<coordinates>
83.705954,28.596342,0
</coordinates>
</Point>
</Placemark>
<Placemark>
<name>Nosrth ABC camp</name>
<styleUrl>#icon-1899-DB4436-nodesc</styleUrl>
<Point>
<coordinates>
83.790493,28.648472,0
</coordinates>
</Point>
</Placemark>
<Placemark>
<name>14</name>
<styleUrl>#icon-1899-DB4436-nodesc</styleUrl>
<Point>
<coordinates>
83.732963,28.602081,0
</coordinates>
</Point>
</Placemark>
<Placemark>
<name>00</name>
<styleUrl>#icon-1899-DB4436-nodesc</styleUrl>
<Point>
<coordinates>
83.673656,28.536638,0
</coordinates>
</Point>
</Placemark>
<Placemark>
<name>18</name>
<styleUrl>#icon-1899-DB4436-nodesc</styleUrl>
<Point>
<coordinates>
83.635693,28.47282,0
</coordinates>
</Point>
</Placemark>
<Placemark>
<name>26</name>
<styleUrl>#icon-1899-DB4436-nodesc</styleUrl>
<Point>
<coordinates>
83.667118,28.525943,0
</coordinates>
</Point>
</Placemark>
<Placemark>
<name>20</name>
<styleUrl>#icon-1899-DB4436-nodesc</styleUrl>
<Point>
<coordinates>
83.648016,28.485587,0
</coordinates>
</Point>
</Placemark>
<Placemark>
<name>02</name>
<styleUrl>#icon-1899-DB4436-nodesc</styleUrl>
<Point>
<coordinates>
83.674757,28.543025,0
</coordinates>
</Point>
</Placemark>
<Placemark>
<name>19</name>
<styleUrl>#icon-1899-DB4436-nodesc</styleUrl>
<Point>
<coordinates>
83.642321,28.478896,0
</coordinates>
</Point>
</Placemark>
<Placemark>
<name>18</name>
<styleUrl>#icon-1899-DB4436-nodesc</styleUrl>
<Point>
<coordinates>
83.760992,28.623298,0
</coordinates>
</Point>
</Placemark>
<Placemark>
<name>04</name>
<styleUrl>#icon-1899-DB4436-nodesc</styleUrl>
<Point>
<coordinates>
83.574629,28.376337,0
</coordinates>
</Point>
</Placemark>
<Placemark>
<name>05</name>
<styleUrl>#icon-1899-DB4436-nodesc</styleUrl>
<Point>
<coordinates>
83.582753,28.380974,0
</coordinates>
</Point>
</Placemark>
<Placemark>
<name>regular routeJeep upto beni</name>
<styleUrl>#icon-1899-DB4436-nodesc</styleUrl>
<Point>
<coordinates>
83.56785,28.34768,0
</coordinates>
</Point>
</Placemark>
<Placemark>
<name>02</name>
<styleUrl>#icon-1899-DB4436-nodesc</styleUrl>
<Point>
<coordinates>
83.566244,28.365789,0
</coordinates>
</Point>
</Placemark>
<Placemark>
<name>Hum Khola</name>
<styleUrl>#icon-1899-DB4436-nodesc</styleUrl>
<Point>
<coordinates>
83.7103,28.5975,0
</coordinates>
</Point>
</Placemark>
<Placemark>
<name>23</name>
<styleUrl>#icon-1899-DB4436-nodesc</styleUrl>
<Point>
<coordinates>
83.657636,28.508847,0
</coordinates>
</Point>
</Placemark>
<Placemark>
<name>25</name>
<styleUrl>#icon-1899-DB4436-nodesc</styleUrl>
<Point>
<coordinates>
83.665845,28.520315,0
</coordinates>
</Point>
</Placemark>
<Placemark>
<name>28</name>
<styleUrl>#icon-1899-DB4436-nodesc</styleUrl>
<Point>
<coordinates>
83.67043,28.537881,0
</coordinates>
</Point>
</Placemark>
<Placemark>
<name>12</name>
<styleUrl>#icon-1899-DB4436-nodesc</styleUrl>
<Point>
<coordinates>
83.60153,28.433215,0
</coordinates>
</Point>
</Placemark>
<Placemark>
<name>21</name>
<styleUrl>#icon-1899-DB4436-nodesc</styleUrl>
<Point>
<coordinates>
83.782118,28.641522,0
</coordinates>
</Point>
</Placemark>
<Placemark>
<name>05</name>
<styleUrl>#icon-1899-DB4436-nodesc</styleUrl>
<Point>
<coordinates>
83.681628,28.555574,0
</coordinates>
</Point>
</Placemark>
<Placemark>
<name>Bhusket mela</name>
<styleUrl>#icon-1899-DB4436-nodesc</styleUrl>
<Point>
<coordinates>
83.757408,28.614723,0
</coordinates>
</Point>
</Placemark>
<Placemark>
<name>17</name>
<styleUrl>#icon-1899-DB4436-nodesc</styleUrl>
<Point>
<coordinates>
83.631063,28.465406,0
</coordinates>
</Point>
</Placemark>
<Placemark>
<name>19</name>
<styleUrl>#icon-1899-DB4436-nodesc</styleUrl>
<Point>
<coordinates>
83.768085,28.629685,0
</coordinates>
</Point>
</Placemark>
<Placemark>
<name>04</name>
<styleUrl>#icon-1899-DB4436-nodesc</styleUrl>
<Point>
<coordinates>
83.677488,28.551165,0
</coordinates>
</Point>
</Placemark>
<Placemark>
<name>29</name>
<styleUrl>#icon-1899-DB4436-nodesc</styleUrl>
<Point>
<coordinates>
83.67382,28.53641,0
</coordinates>
</Point>
</Placemark>
<Placemark>
<name>01</name>
<styleUrl>#icon-1899-DB4436-nodesc</styleUrl>
<Point>
<coordinates>
83.676575,28.543471,0
</coordinates>
</Point>
</Placemark>
<Placemark>
<name>15</name>
<styleUrl>#icon-1899-DB4436-nodesc</styleUrl>
<Point>
<coordinates>
83.622451,28.450985,0
</coordinates>
</Point>
</Placemark>
<Placemark>
<name>06</name>
<styleUrl>#icon-1899-DB4436-nodesc</styleUrl>
<Point>
<coordinates>
83.687481,28.559587,0
</coordinates>
</Point>
</Placemark>
<Placemark>
<name>13</name>
<styleUrl>#icon-1899-DB4436-nodesc</styleUrl>
<Point>
<coordinates>
83.724951,28.597716,0
</coordinates>
</Point>
</Placemark>
<Placemark>
<name>03</name>
<styleUrl>#icon-1899-DB4436-nodesc</styleUrl>
<Point>
<coordinates>
83.675479,28.550889,0
</coordinates>
</Point>
</Placemark>
<Placemark>
<name>11</name>
<styleUrl>#icon-1899-DB4436-nodesc</styleUrl>
<Point>
<coordinates>
83.598202,28.425563,0
</coordinates>
</Point>
</Placemark>
<Placemark>
<name>17</name>
<styleUrl>#icon-1899-DB4436-nodesc</styleUrl>
<Point>
<coordinates>
83.757617,28.615016,0
</coordinates>
</Point>
</Placemark>
<Placemark>
<name>00</name>
<styleUrl>#icon-1899-DB4436-nodesc</styleUrl>
<Point>
<coordinates>
83.567333,28.348587,0
</coordinates>
</Point>
</Placemark>
<Placemark>
<name>24</name>
<styleUrl>#icon-1899-DB4436-nodesc</styleUrl>
<Point>
<coordinates>
83.659132,28.514053,0
</coordinates>
</Point>
</Placemark>
<Placemark>
<name>Pancha Tal</name>
<styleUrl>#icon-1899-DB4436-nodesc</styleUrl>
<Point>
<coordinates>
83.787914,28.642008,0
</coordinates>
</Point>
</Placemark>
<Placemark>
<name>Phutphutey fall</name>
<styleUrl>#icon-1899-DB4436-nodesc</styleUrl>
<Point>
<coordinates>
83.72646,28.59924,0
</coordinates>
</Point>
</Placemark>
<Placemark>
<name>Reserve jeep upto this place</name>
<styleUrl>#icon-1899-DB4436-nodesc</styleUrl>
<Point>
<coordinates>
83.710155,28.597834,0
</coordinates>
</Point>
</Placemark>
<Placemark>
<name>07</name>
<styleUrl>#icon-1899-DB4436-nodesc</styleUrl>
<Point>
<coordinates>
83.690195,28.566712,0
</coordinates>
</Point>
</Placemark>
<Placemark>
<name>09</name>
<styleUrl>#icon-1899-DB4436-nodesc</styleUrl>
<Point>
<coordinates>
83.5998,28.408938,0
</coordinates>
</Point>
</Placemark>
</Folder>
<Folder>
<name>LineStrings</name>
<Placemark>
<name/>
<styleUrl>#line-0000FF-5883-nodesc</styleUrl>
<LineString>
<tessellate>1</tessellate>
<coordinates>
83.567333,28.348587,0
83.567333,28.350626,0
83.566561,28.351608,0
83.566629,28.351637,0
83.56645,28.35196,0
83.566362,28.352075,0
83.56603,28.35251,0
83.56554,28.35342,0
83.56531,28.35404,0
83.565305,28.354056,0
83.565311,28.354036,0
83.56531,28.35404,0
83.56504,28.35486,0
83.565,28.35551,0
83.56502,28.35624,0
83.56496,28.35702,0
83.56507,28.35782,0
83.56509,28.35856,0
83.56526,28.35935,0
83.56563,28.36037,0
83.56571,28.36177,0
83.56595,28.3624,0
83.56598,28.36265,0
83.56596,28.36338,0
83.56609,28.36404,0
83.56625,28.36439,0
83.56633,28.36468,0
83.566307,28.364979,0
83.56624,28.36584,0
83.56626,28.36675,0
83.56624,28.36698,0
83.56628,28.36715,0
83.56654,28.36783,0
83.56658,28.36818,0
83.56665,28.36838,0
83.5668,28.36865,0
83.56741,28.36955,0
83.56745,28.36965,0
83.56761,28.36986,0
83.56768,28.37003,0
83.56797,28.37024,0
83.568,28.37033,0
83.56802,28.37072,0
83.56803,28.37095,0
83.5681,28.37119,0
83.56807,28.37137,0
83.56808,28.37155,0
83.56803,28.37179,0
83.56786,28.37203,0
83.56785,28.37217,0
83.56772,28.37231,0
83.56786,28.37306,0
83.56782,28.37316,0
83.56781,28.37344,0
83.56775,28.37363,0
83.56778,28.37411,0
83.56786,28.37426,0
83.56797,28.37465,0
83.56809,28.37479,0
83.56814,28.37515,0
83.56798,28.37526,0
83.56809,28.37532,0
83.5681,28.3754,0
83.56806,28.37549,0
83.56787,28.37571,0
83.56788,28.37589,0
83.56801,28.37633,0
83.568016,28.376404,0
83.568017,28.376417,0
83.568018,28.37643,0
83.56802,28.37645,0
83.5681,28.37649,0
83.568402,28.37655,0
83.56855,28.37658,0
83.56879,28.37657,0
83.56896,28.37645,0
83.56911,28.37622,0
83.56943,28.37598,0
83.56978,28.37575,0
83.56999,28.37569,0
83.57011,28.37572,0
83.57057,28.37597,0
83.57079,28.37605,0
83.5709,28.376056,0
83.57098,28.37606,0
83.5712,28.376022,0
83.57127,28.37601,0
83.57194,28.37615,0
83.571991,28.376168,0
83.572231,28.376251,0
83.572258,28.376261,0
83.572332,28.376286,0
83.5724,28.37631,0
83.57258,28.3763,0
83.572659,28.376307,0
83.57301,28.37634,0
83.57344,28.37637,0
83.5736,28.37634,0
83.5738,28.37626,0
83.57407,28.37609,0
83.57416,28.37606,0
83.5743,28.37611,0
83.57488,28.37651,0
83.57525,28.37691,0
83.57542,28.37721,0
83.57556,28.37765,0
83.57568,28.37774,0
83.57573,28.37782,0
83.5758,28.37812,0
83.57586,28.37823,0
83.575955,28.378295,0
83.57652,28.37868,0
83.57723,28.3791,0
83.57777,28.37933,0
83.578089,28.379452,0
83.58007,28.38021,0
83.58143,28.38064,0
83.58161,28.38072,0
83.58175,28.38083,0
83.58182,28.38083,0
83.58209,28.38083,0
83.58265,28.38094,0
83.58377,28.38131,0
83.58398,28.38143,0
83.58407,28.38149,0
83.58421,28.38174,0
83.58434,28.38222,0
83.58465,28.38259,0
83.58475,28.3828,0
83.58482,28.3833,0
83.58491,28.38354,0
83.58509,28.38377,0
83.58667,28.38524,0
83.58747,28.38605,0
83.58756,28.38618,0
83.5878,28.38669,0
83.58846,28.38821,0
83.58869,28.38849,0
83.58897,28.38871,0
83.58997,28.38938,0
83.59095,28.38991,0
83.59192,28.3905,0
83.5922,28.39074,0
83.59232,28.39093,0
83.59244,28.39124,0
83.59247,28.39151,0
83.592467,28.391632,0
83.592467,28.39163,0
83.59245,28.39242,0
83.59248,28.39296,0
83.5926,28.39336,0
83.59279,28.39362,0
83.5929,28.39372,0
83.59355,28.39418,0
83.59449,28.39495,0
83.59525,28.39548,0
83.59539,28.39563,0
83.59551,28.39579,0
83.59577,28.39631,0
83.59612,28.39711,0
83.59625,28.39721,0
83.59674,28.39745,0
83.59715,28.39779,0
83.59752,28.39804,0
83.59821,28.39831,0
83.59828,28.39838,0
83.59832,28.39845,0
83.59838,28.39875,0
83.5984,28.39898,0
83.59836,28.3994,0
83.59842,28.39985,0
83.598494,28.39998,0
83.59889,28.40068,0
83.59907,28.40106,0
83.59914,28.40121,0
83.5994,28.40147,0
83.59942,28.40156,0
83.5994,28.4016,0
83.59934,28.40163,0
83.59914,28.40163,0
83.599,28.40156,0
83.59876,28.4013,0
83.59868,28.4013,0
83.59863,28.40135,0
83.59862,28.40153,0
83.59864,28.40166,0
83.59887,28.40211,0
83.59892,28.40244,0
83.598859,28.40265,0
83.5988,28.40285,0
83.59863,28.40307,0
83.59826,28.40347,0
83.59814,28.40382,0
83.59804,28.40467,0
83.59805,28.40489,0
83.59815,28.40538,0
83.59831,28.40585,0
83.59843,28.40604,0
83.59913,28.40684,0
83.59928,28.40708,0
83.59992,28.40835,0
83.59994,28.40846,0
83.59987,28.40877,0
83.5997,28.40918,0
83.59966,28.40947,0
83.59951,28.4099,0
83.59902,28.41081,0
83.59875,28.41144,0
83.59874,28.41163,0
83.59875,28.41177,0
83.59901,28.41262,0
83.59909,28.4127,0
83.59963,28.41305,0
83.59972,28.4132,0
83.59974,28.41341,0
83.59971,28.41386,0
83.599664,28.414019,0
83.59958,28.41431,0
83.59941,28.41462,0
83.5993,28.41475,0
83.59904,28.41498,0
83.59862,28.4155,0
83.59832,28.41582,0
83.59823,28.41602,0
83.5982,28.4162,0
83.59818,28.41647,0
83.59822,28.41687,0
83.59843,28.41755,0
83.59884,28.41805,0
83.59897,28.41836,0
83.59903,28.41856,0
83.59905,28.41911,0
83.599,28.41943,0
83.59887,28.41994,0
83.59863,28.42039,0
83.59815,28.42156,0
83.59813,28.42167,0
83.59822,28.42189,0
83.59842,28.4221,0
83.59854,28.4223,0
83.59859,28.42248,0
83.5986,28.4227,0
83.59851,28.42366,0
83.59817,28.42576,0
83.59826,28.42624,0
83.5986,28.42698,0
83.59864,28.4274,0
83.59858,28.42772,0
83.59851,28.42785,0
83.59829,28.42811,0
83.59821,28.42826,0
83.59818,28.42855,0
83.59858,28.42953,0
83.598818,28.43025,0
83.599,28.4308,0
83.59909,28.43123,0
83.59923,28.43164,0
83.5993,28.43175,0
83.5997,28.43216,0
83.59992,28.43234,0
83.60031,28.4326,0
83.60064,28.43277,0
83.60108,28.43301,0
83.60143,28.43315,0
83.6016,28.43326,0
83.60191,28.43355,0
83.60228,28.43406,0
83.60257,28.43427,0
83.60274,28.43449,0
83.60289,28.43469,0
83.60347,28.43568,0
83.60404,28.43615,0
83.60463,28.43656,0
83.60534,28.43712,0
83.60576,28.43731,0
83.60596,28.43747,0
83.60618,28.43762,0
83.60721,28.43865,0
83.60761,28.43893,0
83.60801,28.43912,0
83.60829,28.4393,0
83.608393,28.439386,0
83.608392,28.439386,0
83.60878,28.43971,0
83.60893,28.43985,0
83.60927,28.44003,0
83.60998,28.44085,0
83.6103,28.44114,0
83.61056,28.44127,0
83.6108,28.44147,0
83.61165,28.44254,0
83.61171,28.44263,0
83.61184,28.44271,0
83.61203,28.4429,0
83.61225,28.44307,0
83.61317,28.44344,0
83.613297,28.443565,0
83.61371,28.44397,0
83.61422,28.44429,0
83.6147,28.44455,0
83.61479,28.44465,0
83.61485,28.44477,0
83.61535,28.44539,0
83.615963,28.446275,0
83.61605,28.4464,0
83.61634,28.44666,0
83.6165,28.44711,0
83.616547,28.447172,0
83.61683,28.44754,0
83.61688,28.4477,0
83.61679,28.44806,0
83.6168,28.44814,0
83.61686,28.4482,0
83.6171,28.4483,0
83.61745,28.44861,0
83.61817,28.44889,0
83.61845,28.44915,0
83.61907,28.44946,0
83.62014,28.4501,0
83.62056,28.45055,0
83.62111,28.45099,0
83.62168,28.45088,0
83.62224,28.45062,0
83.62238,28.45071,0
83.62265,28.45176,0
83.62279,28.45209,0
83.62299,28.45245,0
83.62315,28.45262,0
83.62337,28.45276,0
83.62356,28.45291,0
83.6238,28.45316,0
83.62395,28.45326,0
83.62446,28.45342,0
83.62478,28.45359,0
83.62507,28.45409,0
83.62516,28.45417,0
83.62531,28.45416,0
83.6257,28.45396,0
83.62593,28.4539,0
83.62619,28.45391,0
83.62632,28.45399,0
83.62637,28.45408,0
83.62638,28.45426,0
83.62627,28.45495,0
83.62635,28.4562,0
83.62645,28.45644,0
83.62661,28.4567,0
83.62707,28.45721,0
83.62735,28.4576,0
83.62749,28.45786,0
83.62779,28.45861,0
83.62793,28.45882,0
83.62818,28.45903,0
83.62867,28.45932,0
83.62884,28.4595,0
83.62897,28.45973,0
83.6292,28.46036,0
83.6294,28.46076,0
83.62944,28.46093,0
83.62944,28.46118,0
83.62955,28.46138,0
83.6296,28.4615,0
83.62962,28.46173,0
83.62955,28.46204,0
83.62955,28.46226,0
83.62979,28.46324,0
83.63058,28.46474,0
83.63086,28.46492,0
83.63094,28.46502,0
83.63115,28.46568,0
83.6312,28.46619,0
83.6313,28.4666,0
83.63164,28.46708,0
83.63172,28.46748,0
83.63205,28.468317,0
83.63224,28.4688,0
83.632248,28.468856,0
83.632254,28.468899,0
83.6323,28.46923,0
83.63267,28.46973,0
83.63296,28.47038,0
83.63348,28.47116,0
83.63374,28.47153,0
83.63394,28.47164,0
83.63433,28.47177,0
83.63454,28.47179,0
83.6347,28.47184,0
83.63489,28.47181,0
83.635,28.47187,0
83.63548,28.47238,0
83.63578,28.473,0
83.63588,28.47315,0
83.63636,28.47347,0
83.63652,28.47361,0
83.63674,28.4742,0
83.6368,28.4743,0
83.63747,28.47466,0
83.63779,28.47478,0
83.63802,28.4749,0
83.63817,28.47504,0
83.63832,28.47534,0
83.63839,28.47538,0
83.63853,28.47541,0
83.63861,28.47547,0
83.6387,28.47561,0
83.63889,28.47624,0
83.639,28.47637,0
83.63913,28.47646,0
83.6394,28.47684,0
83.63963,28.47695,0
83.63978,28.476981,0
83.63992,28.47701,0
83.64013,28.47702,0
83.64036,28.47699,0
83.6405,28.47702,0
83.64104,28.47747,0
83.641142,28.477643,0
83.641167,28.477687,0
83.64124,28.47781,0
83.641292,28.477869,0
83.64138,28.47797,0
83.6415,28.47804,0
83.6418,28.47814,0
83.64197,28.47835,0
83.64233,28.47891,0
83.64251,28.47911,0
83.64258,28.47925,0
83.64267,28.47948,0
83.64273,28.48005,0
83.64281,28.48032,0
83.64294,28.48056,0
83.64341,28.48118,0
83.64387,28.48172,0
83.64502,28.48245,0
83.645304,28.482686,0
83.64544,28.4828,0
83.64648,28.48325,0
83.64685,28.48341,0
83.64707,28.48355,0
83.6472,28.48365,0
83.64721,28.48373,0
83.64716,28.48392,0
83.64716,28.48437,0
83.64715,28.48451,0
83.64711,28.48464,0
83.64712,28.48471,0
83.64758,28.48511,0
83.64811,28.48569,0
83.64821,28.48586,0
83.6481,28.48622,0
83.64791,28.48651,0
83.64792,28.48666,0
83.64809,28.48722,0
83.64863,28.48801,0
83.64875,28.48813,0
83.64883,28.48828,0
83.64891,28.48875,0
83.64897,28.48895,0
83.64923,28.48936,0
83.64923,28.48953,0
83.64899,28.48988,0
83.64897,28.48996,0
83.64893,28.49015,0
83.64896,28.49033,0
83.64903,28.49045,0
83.64929,28.49074,0
83.6499,28.49132,0
83.65004,28.49143,0
83.65022,28.49164,0
83.65108,28.49232,0
83.65155,28.49262,0
83.6517,28.49275,0
83.65192,28.49304,0
83.65208,28.4934,0
83.65233,28.4936,0
83.65209,28.49375,0
83.65304,28.49455,0
83.65317,28.49501,0
83.65338,28.49541,0
83.6537,28.49615,0
83.65368,28.49629,0
83.6538,28.49647,0
83.65386,28.49671,0
83.653851,28.49683,0
83.65384,28.49699,0
83.65391,28.4972,0
83.65396,28.49758,0
83.65395,28.49766,0
83.65393,28.49788,0
83.65398,28.49818,0
83.65426,28.49859,0
83.65419,28.49878,0
83.65418,28.49899,0
83.65427,28.49925,0
83.65433,28.49971,0
83.65442,28.49988,0
83.65454,28.49997,0
83.65455,28.5006,0
83.65468,28.50098,0
83.654876,28.501254,0
83.65556,28.50221,0
83.65618,28.50269,0
83.65632,28.50285,0
83.65637,28.50293,0
83.6564,28.50306,0
83.65643,28.50335,0
83.65671,28.50382,0
83.65731,28.50455,0
83.65736,28.50469,0
83.65734,28.50486,0
83.65731,28.50516,0
83.65733,28.50529,0
83.65745,28.50546,0
83.657509,28.505491,0
83.6576,28.50554,0
83.6578,28.5056,0
83.65795,28.50576,0
83.65802,28.50591,0
83.65806,28.50618,0
83.65815,28.50642,0
83.65839,28.50684,0
83.65839,28.50694,0
83.65819,28.50727,0
83.65807,28.50759,0
83.65793,28.50815,0
83.65758,28.50898,0
83.65749,28.50906,0
83.6574,28.50914,0
83.6573,28.50931,0
83.65715,28.50974,0
83.6569,28.51012,0
83.6566,28.51036,0
83.65646,28.51054,0
83.65644,28.51075,0
83.65673,28.51204,0
83.65698,28.51273,0
83.65701,28.51313,0
83.65707,28.5134,0
83.65718,28.513643,0
83.65719,28.51364,0
83.65728,28.51361,0
83.65732,28.51365,0
83.65738,28.51376,0
83.65743,28.51399,0
83.65756,28.51423,0
83.657567,28.514251,0
83.65757,28.51425,0
83.65762,28.51423,0
83.65797,28.51408,0
83.65802,28.51408,0
83.65805,28.51403,0
83.658,28.51366,0
83.65804,28.51363,0
83.65818,28.51319,0
83.65826,28.51302,0
83.65832,28.51302,0
83.65834,28.5132,0
83.65843,28.51325,0
83.65855,28.51325,0
83.65861,28.51329,0
83.65913,28.5139,0
83.65909,28.51399,0
83.65932,28.51433,0
83.65971,28.51468,0
83.65996,28.51482,0
83.66039,28.51522,0
83.66172,28.51599,0
83.661823,28.516123,0
83.66248,28.51697,0
83.66261,28.51715,0
83.66285,28.51737,0
83.66295,28.51742,0
83.66323,28.51769,0
83.66352,28.51769,0
83.66367,28.51772,0
83.66378,28.51788,0
83.66432,28.5184,0
83.66443,28.51862,0
83.66447,28.51876,0
83.66481,28.51908,0
83.66492,28.51929,0
83.66493,28.51939,0
83.66496,28.51946,0
83.66507,28.51955,0
83.6651,28.5197,0
83.66507,28.51984,0
83.66512,28.51993,0
83.6652,28.52002,0
83.66549,28.52016,0
83.66582,28.52031,0
83.6662,28.52039,0
83.66634,28.52038,0
83.66664,28.52044,0
83.6666,28.52054,0
83.66676,28.52066,0
83.66692,28.52074,0
83.6677,28.52062,0
83.66783,28.52057,0
83.66796,28.52058,0
83.66801,28.52062,0
83.66809,28.52088,0
83.66807,28.52097,0
83.66797,28.52111,0
83.66759,28.52118,0
83.66751,28.52124,0
83.66738,28.52147,0
83.6669,28.52208,0
83.66644,28.52222,0
83.66609,28.52242,0
83.66595,28.52258,0
83.66576,28.52294,0
83.66567,28.52322,0
83.66563,28.52338,0
83.66564,28.52365,0
83.66583,28.5241,0
83.66611,28.5244,0
83.66644,28.52463,0
83.66651,28.52473,0
83.66657,28.52503,0
83.66674,28.5253,0
83.66677,28.52546,0
83.66702,28.52562,0
83.66709,28.52572,0
83.66711,28.52581,0
83.66714,28.52633,0
83.66694,28.52683,0
83.66691,28.52707,0
83.66687,28.52715,0
83.66674,28.52724,0
83.66664,28.52722,0
83.66662,28.52719,0
83.66662,28.52711,0
83.6667,28.52678,0
83.66685,28.52649,0
83.66673,28.52644,0
83.66668,28.52648,0
83.66643,28.52685,0
83.66624,28.52707,0
83.6661,28.52715,0
83.66598,28.52728,0
83.6659,28.52744,0
83.66584,28.52792,0
83.66571,28.5282,0
83.66523,28.52845,0
83.66505,28.52857,0
83.665,28.52862,0
83.66487,28.5289,0
83.6648,28.52898,0
83.66441,28.52932,0
83.66406,28.5295,0
83.66398,28.52957,0
83.66383,28.52971,0
83.66381,28.52989,0
83.66399,28.53043,0
83.664128,28.53098,0
83.66415,28.53107,0
83.664133,28.53172,0
83.66413,28.53183,0
83.66418,28.53208,0
83.66433,28.53219,0
83.66461,28.53227,0
83.66483,28.53242,0
83.66518,28.53256,0
83.66545,28.53273,0
83.66556,28.53282,0
83.66572,28.53308,0
83.66628,28.53335,0
83.66654,28.53364,0
83.66685,28.53384,0
83.66698,28.53397,0
83.66704,28.53405,0
83.66704,28.53431,0
83.6671,28.53445,0
83.66711,28.53464,0
83.66723,28.53506,0
83.66748,28.53548,0
83.66775,28.53573,0
83.66773,28.53582,0
83.6676,28.53605,0
83.66763,28.53621,0
83.66769,28.53627,0
83.66794,28.53653,0
83.66799,28.53684,0
83.66812,28.537,0
83.66867,28.53734,0
83.66905,28.53763,0
83.66963,28.53783,0
83.66995,28.5379,0
83.67034,28.5379,0
83.67063,28.53784,0
83.67082,28.53774,0
83.67104,28.53756,0
83.67159,28.53732,0
83.6717,28.53725,0
83.67188,28.53719,0
83.67233,28.53703,0
83.67247,28.53692,0
83.67265,28.53668,0
83.67286,28.53651,0
83.67333,28.53631,0
83.67351,28.53627,0
83.6737,28.53624,0
83.6739,28.5361,0
83.67396,28.53609,0
83.67405,28.53613,0
83.67403,28.53627,0
83.67397,28.53634,0
83.67385,28.53637,0
83.67382,28.53641,0
</coordinates>
</LineString>
</Placemark>
<Placemark>
<name/>
<styleUrl>#line-FF0000-6464-nodesc</styleUrl>
<LineString>
<tessellate>1</tessellate>
<coordinates>
83.673656,28.536638,0
83.673661,28.536628,0
83.67359,28.5366,0
83.6736,28.53653,0
83.67365,28.53649,0
83.67389,28.53652,0
83.67414,28.53668,0
83.67433,28.53676,0
83.67441,28.53687,0
83.67444,28.53712,0
83.67461,28.5375,0
83.67465,28.53757,0
83.67481,28.53768,0
83.674812,28.537681,0
83.674742,28.537788,0
83.674744,28.537784,0
83.67472,28.53782,0
83.67469,28.53805,0
83.67462,28.53827,0
83.67459,28.53828,0
83.67456,28.53826,0
83.67455,28.53808,0
83.67452,28.53805,0
83.67446,28.53807,0
83.67449,28.53828,0
83.67443,28.53905,0
83.67476,28.53954,0
83.67609,28.54045,0
83.67618,28.54138,0
83.67647,28.54262,0
83.67677,28.54506,0
83.67598,28.54409,0
83.67578,28.54321,0
83.67543,28.54195,0
83.67468,28.54146,0
83.67532,28.54283,0
83.6746,28.54222,0
83.67503,28.54442,0
83.67475,28.54513,0
83.67474,28.54791,0
83.67525,28.54821,0
83.67522,28.54845,0
83.67533,28.54876,0
83.67516,28.54955,0
83.67512,28.5504,0
83.67516,28.55119,0
83.67528,28.55122,0
83.67536,28.55112,0
83.67552,28.55081,0
83.67591,28.5505,0
83.67645,28.54998,0
83.6765,28.54963,0
83.67691,28.54957,0
83.6777,28.55009,0
83.67801,28.55019,0
83.67826,28.55038,0
83.67826,28.55048,0
83.67793,28.55037,0
83.67753,28.55037,0
83.67688,28.55016,0
83.67679,28.55021,0
83.67746,28.55064,0
83.67766,28.55064,0
83.67793,28.55074,0
83.67815,28.55096,0
83.67836,28.55107,0
83.67839,28.55119,0
83.67804,28.5511,0
83.6778,28.55088,0
83.67749,28.55088,0
83.67685,28.55077,0
83.67676,28.55088,0
83.67706,28.55096,0
83.67752,28.55118,0
83.6775,28.55126,0
83.677,28.55116,0
83.67682,28.55118,0
83.67676,28.5514,0
83.67685,28.55147,0
83.67721,28.55145,0
83.67777,28.55156,0
83.67815,28.55179,0
83.67816,28.55191,0
83.67757,28.55183,0
83.67738,28.55185,0
83.67736,28.55195,0
83.67794,28.55216,0
83.67882,28.55262,0
83.67917,28.55273,0
83.67927,28.55305,0
83.67985,28.55357,0
83.68058,28.55379,0
83.68136,28.55415,0
83.68156,28.55439,0
83.68149,28.55508,0
83.68163,28.55558,0
83.68172,28.55588,0
83.68145,28.55616,0
83.68157,28.55689,0
83.68171,28.55706,0
83.681731,28.55721,0
83.68173,28.557208,0
83.68175,28.55735,0
83.68185,28.55755,0
83.68216,28.55758,0
83.68269,28.55714,0
83.68304,28.5569,0
83.68315,28.55662,0
83.68328,28.55641,0
83.6834,28.55638,0
83.68359,28.55641,0
83.68411,28.55692,0
83.68493,28.55761,0
83.68532,28.55776,0
83.6858,28.55826,0
83.68622,28.55861,0
83.68665,28.5588,0
83.68742,28.55949,0
83.68776,28.56003,0
83.68795,28.56084,0
83.68825,28.56136,0
83.68849,28.5619,0
83.68908,28.56274,0
83.68947,28.56323,0
83.68943,28.56333,0
83.68922,28.56327,0
83.68892,28.56335,0
83.68902,28.56367,0
83.68933,28.56404,0
83.68985,28.56429,0
83.69016,28.56473,0
83.69028,28.56511,0
83.69023,28.56535,0
83.68994,28.5653,0
83.68978,28.56539,0
83.68979,28.56557,0
83.69019,28.56607,0
83.69019,28.56669,0
83.69048,28.5679,0
83.69047,28.56815,0
83.69005,28.56844,0
83.68994,28.56878,0
83.69036,28.56907,0
83.6903,28.56998,0
83.69114,28.57141,0
83.69192,28.57398,0
83.69184,28.57487,0
83.69159,28.57776,0
83.69237,28.57883,0
83.69385,28.58298,0
83.69503,28.58629,0
83.69711,28.59129,0
83.70106,28.59417,0
83.70202,28.59487,0
83.70374,28.59456,0
83.7059,28.59634,0
83.70737,28.59639,0
83.70906,28.59765,0
83.709274,28.597646,0
83.709275,28.597646,0
83.70961,28.59764,0
83.70996,28.59738,0
83.71031,28.5973,0
83.71064,28.59677,0
83.71166,28.59699,0
83.7133,28.59692,0
83.71476,28.59723,0
83.71582,28.59722,0
83.71678,28.5972,0
83.7188,28.59648,0
83.72048,28.59647,0
83.72305,28.59709,0
83.72545,28.59788,0
83.72739,28.59886,0
83.72895,28.60129,0
83.73037,28.60131,0
83.73217,28.60219,0
83.73406,28.60193,0
83.73779,28.60399,0
83.7382,28.60422,0
83.74096,28.60431,0
83.74456,28.60529,0
83.74604,28.60706,0
83.7483,28.60968,0
83.75024,28.61004,0
83.75194,28.61113,0
83.75361,28.61113,0
83.75394,28.61216,0
83.75585,28.61346,0
83.75689,28.61417,0
83.75829,28.6158,0
83.75927,28.61777,0
83.75972,28.6208,0
83.75977,28.62095,0
83.76016,28.62236,0
83.76266,28.62518,0
83.76394,28.62588,0
83.7665,28.62846,0
83.76844,28.62996,0
83.7702,28.63034,0
83.77143,28.6316,0
83.77351,28.63253,0
83.77369,28.63275,0
83.77433,28.63351,0
83.77674,28.6349,0
83.77711,28.63651,0
83.77857,28.63801,0
83.7792,28.63955,0
83.78096,28.64096,0
83.78174,28.64134,0
83.78344,28.64216,0
83.78402,28.64309,0
83.784393,28.643257,0
83.784391,28.643256,0
83.78791,28.64483,0
83.7891,28.64575,0
83.789443,28.645868,0
83.790557,28.648458,0
83.790556,28.648454,0
</coordinates>
</LineString>
</Placemark>
</Folder>
</Document>
</kml>
