<?xml version="1.0" encoding="UTF-8"?>
<kml xmlns="http://www.opengis.net/kml/2.2">
<Document>
<name>WNW_94.South ABC trail projection</name>
<description>projection only</description>
<Style id="icon-1899-DB4436-nodesc-normal">
<IconStyle>
<color>ff3644db</color>
<scale>1</scale>
<Icon>
<href>https://www.gstatic.com/mapspro/images/stock/503-wht-blank_maps.png</href>
</Icon>
<hotSpot x="32" xunits="pixels" y="64" yunits="insetPixels"/>
</IconStyle>
<LabelStyle>
<scale>0</scale>
</LabelStyle>
<BalloonStyle>
<text><![CDATA[<h3>$[name]</h3>]]></text>
</BalloonStyle>
</Style>
<Style id="icon-1899-DB4436-nodesc-highlight">
<IconStyle>
<color>ff3644db</color>
<scale>1</scale>
<Icon>
<href>https://www.gstatic.com/mapspro/images/stock/503-wht-blank_maps.png</href>
</Icon>
<hotSpot x="32" xunits="pixels" y="64" yunits="insetPixels"/>
</IconStyle>
<LabelStyle>
<scale>1</scale>
</LabelStyle>
<BalloonStyle>
<text><![CDATA[<h3>$[name]</h3>]]></text>
</BalloonStyle>
</Style>
<StyleMap id="icon-1899-DB4436-nodesc">
<Pair>
<key>normal</key>
<styleUrl>#icon-1899-DB4436-nodesc-normal</styleUrl>
</Pair>
<Pair>
<key>highlight</key>
<styleUrl>#icon-1899-DB4436-nodesc-highlight</styleUrl>
</Pair>
</StyleMap>
<Style id="line-0097A7-8000-nodesc-normal">
<LineStyle>
<color>ffa79700</color>
<width>8</width>
</LineStyle>
<BalloonStyle>
<text><![CDATA[<h3>$[name]</h3>]]></text>
</BalloonStyle>
</Style>
<Style id="line-0097A7-8000-nodesc-highlight">
<LineStyle>
<color>ffa79700</color>
<width>12</width>
</LineStyle>
<BalloonStyle>
<text><![CDATA[<h3>$[name]</h3>]]></text>
</BalloonStyle>
</Style>
<StyleMap id="line-0097A7-8000-nodesc">
<Pair>
<key>normal</key>
<styleUrl>#line-0097A7-8000-nodesc-normal</styleUrl>
</Pair>
<Pair>
<key>highlight</key>
<styleUrl>#line-0097A7-8000-nodesc-highlight</styleUrl>
</Pair>
</StyleMap>
<Folder>
<name>Points</name>
<Placemark>
<name>km10</name>
<styleUrl>#icon-1899-DB4436-nodesc</styleUrl>
<Point>
<coordinates>
83.829103,28.354803,0
</coordinates>
</Point>
</Placemark>
<Placemark>
<name>km33</name>
<styleUrl>#icon-1899-DB4436-nodesc</styleUrl>
<Point>
<coordinates>
83.892562,28.492616,0
</coordinates>
</Point>
</Placemark>
<Placemark>
<name>km18</name>
<styleUrl>#icon-1899-DB4436-nodesc</styleUrl>
<Point>
<coordinates>
83.822488,28.410782,0
</coordinates>
</Point>
</Placemark>
<Placemark>
<name>km01</name>
<styleUrl>#icon-1899-DB4436-nodesc</styleUrl>
<Point>
<coordinates>
83.821645,28.299141,0
</coordinates>
</Point>
</Placemark>
<Placemark>
<name>km09</name>
<styleUrl>#icon-1899-DB4436-nodesc</styleUrl>
<Point>
<coordinates>
83.824659,28.351228,0
</coordinates>
</Point>
</Placemark>
<Placemark>
<name>km14</name>
<styleUrl>#icon-1899-DB4436-nodesc</styleUrl>
<Point>
<coordinates>
83.825397,28.38532,0
</coordinates>
</Point>
</Placemark>
<Placemark>
<name>km31</name>
<styleUrl>#icon-1899-DB4436-nodesc</styleUrl>
<Point>
<coordinates>
83.884553,28.479162,0
</coordinates>
</Point>
</Placemark>
<Placemark>
<name>km03</name>
<styleUrl>#icon-1899-DB4436-nodesc</styleUrl>
<Point>
<coordinates>
83.827902,28.309525,0
</coordinates>
</Point>
</Placemark>
<Placemark>
<name>km21</name>
<styleUrl>#icon-1899-DB4436-nodesc</styleUrl>
<Point>
<coordinates>
83.821181,28.427906,0
</coordinates>
</Point>
</Placemark>
<Placemark>
<name>km30</name>
<styleUrl>#icon-1899-DB4436-nodesc</styleUrl>
<Point>
<coordinates>
83.876874,28.474454,0
</coordinates>
</Point>
</Placemark>
<Placemark>
<name>km08</name>
<styleUrl>#icon-1899-DB4436-nodesc</styleUrl>
<Point>
<coordinates>
83.824226,28.342888,0
</coordinates>
</Point>
</Placemark>
<Placemark>
<name>km16</name>
<styleUrl>#icon-1899-DB4436-nodesc</styleUrl>
<Point>
<coordinates>
83.824447,28.400047,0
</coordinates>
</Point>
</Placemark>
<Placemark>
<name>km20</name>
<styleUrl>#icon-1899-DB4436-nodesc</styleUrl>
<Point>
<coordinates>
83.817324,28.421213,0
</coordinates>
</Point>
</Placemark>
<Placemark>
<name>km00</name>
<styleUrl>#icon-1899-DB4436-nodesc</styleUrl>
<Point>
<coordinates>
83.82416,28.292407,0
</coordinates>
</Point>
</Placemark>
<Placemark>
<name>km06</name>
<styleUrl>#icon-1899-DB4436-nodesc</styleUrl>
<Point>
<coordinates>
83.830508,28.333406,0
</coordinates>
</Point>
</Placemark>
<Placemark>
<name>km38</name>
<styleUrl>#icon-1899-DB4436-nodesc</styleUrl>
<Point>
<coordinates>
83.903034,28.527461,0
</coordinates>
</Point>
</Placemark>
<Placemark>
<name>km35</name>
<styleUrl>#icon-1899-DB4436-nodesc</styleUrl>
<Point>
<coordinates>
83.903411,28.505328,0
</coordinates>
</Point>
</Placemark>
<Placemark>
<name>km27</name>
<styleUrl>#icon-1899-DB4436-nodesc</styleUrl>
<Point>
<coordinates>
83.857385,28.458127,0
</coordinates>
</Point>
</Placemark>
<Placemark>
<name>km23</name>
<styleUrl>#icon-1899-DB4436-nodesc</styleUrl>
<Point>
<coordinates>
83.835732,28.433396,0
</coordinates>
</Point>
</Placemark>
<Placemark>
<name>km02</name>
<styleUrl>#icon-1899-DB4436-nodesc</styleUrl>
<Point>
<coordinates>
83.825527,28.304218,0
</coordinates>
</Point>
</Placemark>
<Placemark>
<name>km37</name>
<styleUrl>#icon-1899-DB4436-nodesc</styleUrl>
<Point>
<coordinates>
83.908087,28.521553,0
</coordinates>
</Point>
</Placemark>
<Placemark>
<name>km17</name>
<styleUrl>#icon-1899-DB4436-nodesc</styleUrl>
<Point>
<coordinates>
83.822273,28.40607,0
</coordinates>
</Point>
</Placemark>
<Placemark>
<name>km41</name>
<styleUrl>#icon-1899-DB4436-nodesc</styleUrl>
<Point>
<coordinates>
83.87604,28.53116,0
</coordinates>
</Point>
</Placemark>
<Placemark>
<name>km26</name>
<styleUrl>#icon-1899-DB4436-nodesc</styleUrl>
<Point>
<coordinates>
83.850761,28.452581,0
</coordinates>
</Point>
</Placemark>
<Placemark>
<name>km29</name>
<styleUrl>#icon-1899-DB4436-nodesc</styleUrl>
<Point>
<coordinates>
83.869224,28.469604,0
</coordinates>
</Point>
</Placemark>
<Placemark>
<name>km04</name>
<styleUrl>#icon-1899-DB4436-nodesc</styleUrl>
<Point>
<coordinates>
83.830099,28.317326,0
</coordinates>
</Point>
</Placemark>
<Placemark>
<name>km32</name>
<styleUrl>#icon-1899-DB4436-nodesc</styleUrl>
<Point>
<coordinates>
83.888895,28.485451,0
</coordinates>
</Point>
</Placemark>
<Placemark>
<name>km13</name>
<styleUrl>#icon-1899-DB4436-nodesc</styleUrl>
<Point>
<coordinates>
83.826203,28.377301,0
</coordinates>
</Point>
</Placemark>
<Placemark>
<name>km24</name>
<styleUrl>#icon-1899-DB4436-nodesc</styleUrl>
<Point>
<coordinates>
83.841682,28.439663,0
</coordinates>
</Point>
</Placemark>
<Placemark>
<name>km39</name>
<styleUrl>#icon-1899-DB4436-nodesc</styleUrl>
<Point>
<coordinates>
83.893466,28.529416,0
</coordinates>
</Point>
</Placemark>
<Placemark>
<name>km19</name>
<styleUrl>#icon-1899-DB4436-nodesc</styleUrl>
<Point>
<coordinates>
83.818803,28.413832,0
</coordinates>
</Point>
</Placemark>
<Placemark>
<name>km22</name>
<styleUrl>#icon-1899-DB4436-nodesc</styleUrl>
<Point>
<coordinates>
83.828989,28.428307,0
</coordinates>
</Point>
</Placemark>
<Placemark>
<name>km05</name>
<styleUrl>#icon-1899-DB4436-nodesc</styleUrl>
<Point>
<coordinates>
83.82916,28.325353,0
</coordinates>
</Point>
</Placemark>
<Placemark>
<name>km34</name>
<styleUrl>#icon-1899-DB4436-nodesc</styleUrl>
<Point>
<coordinates>
83.898792,28.49792,0
</coordinates>
</Point>
</Placemark>
<Placemark>
<name>km40</name>
<styleUrl>#icon-1899-DB4436-nodesc</styleUrl>
<Point>
<coordinates>
83.883536,28.530893,0
</coordinates>
</Point>
</Placemark>
<Placemark>
<name>km36</name>
<styleUrl>#icon-1899-DB4436-nodesc</styleUrl>
<Point>
<coordinates>
83.906156,28.513351,0
</coordinates>
</Point>
</Placemark>
<Placemark>
<name>km15</name>
<styleUrl>#icon-1899-DB4436-nodesc</styleUrl>
<Point>
<coordinates>
83.827121,28.392705,0
</coordinates>
</Point>
</Placemark>
<Placemark>
<name>km07</name>
<styleUrl>#icon-1899-DB4436-nodesc</styleUrl>
<Point>
<coordinates>
83.832412,28.339963,0
</coordinates>
</Point>
</Placemark>
<Placemark>
<name>km11</name>
<styleUrl>#icon-1899-DB4436-nodesc</styleUrl>
<Point>
<coordinates>
83.825674,28.361964,0
</coordinates>
</Point>
</Placemark>
<Placemark>
<name>km28</name>
<styleUrl>#icon-1899-DB4436-nodesc</styleUrl>
<Point>
<coordinates>
83.862333,28.464283,0
</coordinates>
</Point>
</Placemark>
<Placemark>
<name>km25</name>
<styleUrl>#icon-1899-DB4436-nodesc</styleUrl>
<Point>
<coordinates>
83.845657,28.44677,0
</coordinates>
</Point>
</Placemark>
<Placemark>
<name>km12</name>
<styleUrl>#icon-1899-DB4436-nodesc</styleUrl>
<Point>
<coordinates>
83.82601,28.369904,0
</coordinates>
</Point>
</Placemark>
</Folder>
<Folder>
<name>LineStrings</name>
<Placemark>
<name/>
<styleUrl>#line-0097A7-8000-nodesc</styleUrl>
<LineString>
<tessellate>1</tessellate>
<coordinates>
83.82416,28.292407,0
83.824116,28.292381,0
83.82407,28.29244,0
83.82415,28.29263,0
83.82419,28.29264,0
83.82424,28.29274,0
83.82416,28.29279,0
83.82408,28.29292,0
83.82404,28.29314,0
83.82394,28.29342,0
83.82389,28.29355,0
83.8238,28.29364,0
83.82367,28.29373,0
83.82345,28.29383,0
83.82326,28.29386,0
83.82297,28.29407,0
83.82277,28.29416,0
83.82225,28.29426,0
83.82209,28.29435,0
83.82186,28.29434,0
83.8218,28.29442,0
83.82179,28.29467,0
83.82165,28.29483,0
83.82156,28.29508,0
83.82154,28.29528,0
83.82164,28.29542,0
83.82161,28.29565,0
83.82157,28.29572,0
83.82144,28.29584,0
83.82108,28.29597,0
83.82101,28.29605,0
83.82102,28.29613,0
83.82093,28.29622,0
83.82092,28.29634,0
83.82094,28.29643,0
83.82091,28.29648,0
83.82101,28.29666,0
83.82099,28.29685,0
83.82113,28.29708,0
83.821147,28.297209,0
83.82118,28.29745,0
83.82125,28.29761,0
83.8213,28.29767,0
83.8213,28.2978,0
83.82151,28.2981,0
83.8216,28.29814,0
83.82163,28.29824,0
83.82181,28.2985,0
83.82193,28.29881,0
83.82193,28.2989,0
83.82185,28.29898,0
83.82171,28.29901,0
83.82164,28.29915,0
83.82166,28.29935,0
83.82174,28.29957,0
83.82153,28.29975,0
83.8212,28.29986,0
83.8211,28.29998,0
83.82082,28.3001,0
83.82078,28.30017,0
83.82073,28.30044,0
83.82075,28.30055,0
83.82079,28.30061,0
83.82091,28.30065,0
83.82106,28.30078,0
83.82108,28.30097,0
83.82125,28.30129,0
83.82141,28.30147,0
83.82143,28.30164,0
83.82174,28.30182,0
83.82223,28.30237,0
83.82225,28.30245,0
83.82237,28.30248,0
83.82238,28.30251,0
83.82246,28.30252,0
83.82248,28.30258,0
83.82273,28.30267,0
83.82295,28.30287,0
83.82304,28.30314,0
83.82311,28.30348,0
83.82327,28.3039,0
83.82321,28.30402,0
83.82326,28.30411,0
83.82321,28.30421,0
83.823328,28.304328,0
83.82338,28.30438,0
83.82339,28.30438,0
83.82349,28.30448,0
83.82356,28.30438,0
83.82359,28.30433,0
83.82377,28.30438,0
83.82463,28.30462,0
83.82499,28.30459,0
83.8253,28.30452,0
83.82541,28.30438,0
83.82567,28.30402,0
83.82568,28.30387,0
83.82586,28.30379,0
83.82639,28.30385,0
83.82668,28.30363,0
83.8269,28.3035,0
83.82718,28.30343,0
83.82726,28.30343,0
83.82738,28.30351,0
83.82738,28.30354,0
83.82791,28.30378,0
83.82813,28.3039,0
83.82814,28.30401,0
83.828242,28.304098,0
83.82828,28.30413,0
83.82828,28.30424,0
83.82824,28.30438,0
83.82821,28.30444,0
83.828211,28.304454,0
83.82823,28.3048,0
83.82853,28.30511,0
83.82858,28.30516,0
83.82862,28.30528,0
83.82858,28.30573,0
83.82848,28.30605,0
83.82858,28.30654,0
83.8284,28.30666,0
83.82832,28.30685,0
83.82815,28.30712,0
83.82799,28.30729,0
83.82783,28.30753,0
83.82771,28.3078,0
83.82769,28.30801,0
83.82785,28.30821,0
83.82786,28.30832,0
83.82779,28.30853,0
83.8278,28.30875,0
83.82787,28.30891,0
83.82792,28.30914,0
83.8279,28.30958,0
83.828125,28.309847,0
83.82822,28.30996,0
83.82824,28.31017,0
83.82818,28.31032,0
83.82835,28.3108,0
83.82853,28.3109,0
83.8286,28.31103,0
83.82869,28.31108,0
83.82874,28.31117,0
83.82887,28.31125,0
83.82899,28.31139,0
83.82929,28.31161,0
83.82937,28.31186,0
83.82957,28.31215,0
83.82958,28.31229,0
83.82963,28.31241,0
83.82975,28.31248,0
83.83006,28.31248,0
83.83016,28.31253,0
83.8302,28.31259,0
83.83027,28.31273,0
83.83032,28.31316,0
83.83044,28.31341,0
83.83054,28.31386,0
83.83052,28.31404,0
83.8304,28.31423,0
83.83039,28.31442,0
83.83044,28.31462,0
83.8306,28.31485,0
83.83054,28.315,0
83.83035,28.31515,0
83.830312,28.31543,0
83.830296,28.315551,0
83.83027,28.31574,0
83.83028,28.31609,0
83.83024,28.31621,0
83.83024,28.31642,0
83.83017,28.3166,0
83.83017,28.31683,0
83.83009,28.31739,0
83.82992,28.31781,0
83.82993,28.31807,0
83.829951,28.31811,0
83.83007,28.31834,0
83.83009,28.31857,0
83.83028,28.31875,0
83.8302,28.31926,0
83.83017,28.31933,0
83.83007,28.31942,0
83.83002,28.31952,0
83.83002,28.31959,0
83.83006,28.31968,0
83.83013,28.31974,0
83.8302,28.31986,0
83.83016,28.32015,0
83.8301,28.3203,0
83.83008,28.32094,0
83.83,28.32126,0
83.83004,28.32158,0
83.83002,28.32178,0
83.83008,28.32196,0
83.83018,28.32204,0
83.83022,28.32212,0
83.83021,28.32225,0
83.83014,28.32234,0
83.83,28.32244,0
83.82988,28.32248,0
83.82985,28.32252,0
83.82984,28.32263,0
83.82989,28.32287,0
83.82995,28.32298,0
83.83006,28.32292,0
83.83022,28.32332,0
83.83012,28.3236,0
83.83004,28.32372,0
83.82997,28.32397,0
83.82979,28.32426,0
83.82974,28.3246,0
83.82952,28.32479,0
83.82945,28.32492,0
83.82946,28.32504,0
83.82944,28.3251,0
83.82938,28.32517,0
83.82921,28.32529,0
83.82913,28.32539,0
83.82907,28.32561,0
83.82914,28.32575,0
83.82918,28.32607,0
83.82917,28.32645,0
83.82922,28.32681,0
83.8292,28.32738,0
83.82911,28.32754,0
83.82911,28.3278,0
83.82921,28.32807,0
83.82944,28.32826,0
83.8296,28.32833,0
83.82965,28.32838,0
83.82969,28.3287,0
83.82974,28.32872,0
83.82987,28.32903,0
83.82986,28.32918,0
83.8298,28.3293,0
83.82981,28.3294,0
83.82993,28.32956,0
83.82992,28.32967,0
83.82984,28.32981,0
83.82997,28.32993,0
83.829995,28.329999,0
83.83012,28.33035,0
83.83028,28.33097,0
83.83051,28.33155,0
83.83066,28.33164,0
83.83074,28.33179,0
83.83066,28.33195,0
83.83079,28.33232,0
83.83076,28.33247,0
83.83083,28.33267,0
83.83103,28.33286,0
83.83095,28.3331,0
83.8308,28.33323,0
83.8306,28.33326,0
83.83058,28.33336,0
83.83033,28.33352,0
83.83026,28.33372,0
83.83025,28.33391,0
83.83052,28.33411,0
83.83073,28.33417,0
83.83067,28.33432,0
83.83078,28.33458,0
83.83047,28.33488,0
83.83055,28.33512,0
83.8305,28.3352,0
83.83026,28.33518,0
83.82998,28.33526,0
83.83018,28.33563,0
83.82999,28.3358,0
83.83007,28.3362,0
83.8302,28.33638,0
83.83007,28.33655,0
83.83021,28.33666,0
83.83024,28.33681,0
83.83016,28.33713,0
83.83026,28.3372,0
83.8304,28.33724,0
83.83049,28.33745,0
83.830874,28.337716,0
83.83098,28.33779,0
83.83125,28.33825,0
83.83149,28.33854,0
83.83177,28.3388,0
83.8319,28.33886,0
83.83221,28.33881,0
83.83232,28.33883,0
83.8323,28.33899,0
83.83236,28.339,0
83.83234,28.33906,0
83.83249,28.33922,0
83.8325,28.33932,0
83.83259,28.33949,0
83.83256,28.33954,0
83.83264,28.33963,0
83.8325,28.33992,0
83.83244,28.33997,0
83.83236,28.33995,0
83.83216,28.33999,0
83.83208,28.33999,0
83.83203,28.34001,0
83.83202,28.34007,0
83.83195,28.34018,0
83.83155,28.34016,0
83.83135,28.34029,0
83.83123,28.34032,0
83.83084,28.34037,0
83.83059,28.34037,0
83.83054,28.3404,0
83.83039,28.34057,0
83.83,28.34068,0
83.82992,28.34083,0
83.82944,28.34098,0
83.82929,28.34099,0
83.82916,28.34097,0
83.82894,28.34088,0
83.82879,28.34073,0
83.82875,28.34065,0
83.82863,28.34052,0
83.82863,28.34047,0
83.8282,28.34059,0
83.82805,28.34068,0
83.82804,28.34088,0
83.8279,28.34102,0
83.82771,28.34113,0
83.82741,28.34116,0
83.8273,28.34121,0
83.82715,28.34148,0
83.82713,28.34164,0
83.82671,28.34175,0
83.82662,28.341802,0
83.82657,28.34183,0
83.82652,28.34188,0
83.82645,28.34205,0
83.8264,28.34209,0
83.82611,28.3421,0
83.826,28.34218,0
83.8259,28.34222,0
83.82568,28.34226,0
83.82557,28.34227,0
83.82534,28.34236,0
83.82518,28.34245,0
83.82502,28.34262,0
83.82467,28.34275,0
83.82433,28.34279,0
83.82431,28.34286,0
83.82423,28.34288,0
83.82414,28.34306,0
83.82405,28.34325,0
83.82383,28.34358,0
83.82383,28.34391,0
83.82401,28.3441,0
83.82401,28.34438,0
83.82396,28.34466,0
83.82399,28.34477,0
83.82395,28.34487,0
83.82395,28.34503,0
83.82394,28.34509,0
83.82366,28.34544,0
83.82349,28.34586,0
83.82347,28.34593,0
83.8235,28.34619,0
83.82334,28.34646,0
83.82331,28.34661,0
83.82339,28.3469,0
83.82345,28.34697,0
83.82345,28.34713,0
83.82341,28.34725,0
83.82341,28.34744,0
83.82349,28.34757,0
83.82347,28.34777,0
83.823569,28.347946,0
83.82361,28.34802,0
83.82392,28.34834,0
83.82415,28.34877,0
83.82435,28.34937,0
83.82437,28.34975,0
83.82473,28.35029,0
83.82464,28.35104,0
83.82467,28.35118,0
83.82463,28.35136,0
83.82454,28.35145,0
83.82455,28.35178,0
83.82452,28.35194,0
83.82455,28.35203,0
83.82472,28.35205,0
83.82484,28.352,0
83.82502,28.35185,0
83.82516,28.3518,0
83.8254,28.35181,0
83.825396,28.35181,0
83.82545,28.35175,0
83.82557,28.3517,0
83.82568,28.35169,0
83.82593,28.3518,0
83.82635,28.35172,0
83.82642,28.35173,0
83.82649,28.35183,0
83.82656,28.35188,0
83.82665,28.35188,0
83.82684,28.35184,0
83.82704,28.35183,0
83.82727,28.35171,0
83.82756,28.35163,0
83.82771,28.35161,0
83.82843,28.35165,0
83.82859,28.3517,0
83.82877,28.35181,0
83.82926,28.35215,0
83.82951,28.35223,0
83.8296,28.35227,0
83.82962,28.35232,0
83.82961,28.35236,0
83.82942,28.35246,0
83.82942,28.35254,0
83.82984,28.35295,0
83.83,28.3531,0
83.82982,28.35325,0
83.82955,28.3534,0
83.82951,28.35347,0
83.82942,28.35351,0
83.8293,28.35363,0
83.82919,28.3538,0
83.82933,28.35418,0
83.82935,28.35435,0
83.82915,28.35474,0
83.82892,28.35505,0
83.82875,28.35524,0
83.82872,28.3554,0
83.82843,28.35576,0
83.82841,28.35583,0
83.82845,28.35664,0
83.82856,28.357,0
83.82855,28.35705,0
83.82844,28.35717,0
83.82848,28.3574,0
83.8284,28.35758,0
83.82836,28.35792,0
83.82825,28.35814,0
83.82798,28.35814,0
83.82772,28.35831,0
83.82754,28.35842,0
83.82754,28.35863,0
83.82749,28.35878,0
83.82745,28.35882,0
83.8272,28.3589,0
83.82712,28.35906,0
83.82698,28.35951,0
83.82676,28.35982,0
83.82645,28.3601,0
83.82635,28.36014,0
83.82633,28.3603,0
83.82623,28.36047,0
83.82597,28.3607,0
83.82568,28.36075,0
83.82543,28.36076,0
83.82534,28.36079,0
83.82531,28.36085,0
83.82535,28.36093,0
83.82545,28.361,0
83.82558,28.3612,0
83.8256,28.36137,0
83.82568,28.36168,0
83.82568,28.36194,0
83.82564,28.36211,0
83.82565,28.36227,0
83.82562,28.3624,0
83.82561,28.36252,0
83.82549,28.36265,0
83.82543,28.36279,0
83.82544,28.3629,0
83.82557,28.36311,0
83.82565,28.36353,0
83.8256,28.36393,0
83.82563,28.36433,0
83.82556,28.36448,0
83.82561,28.36469,0
83.8256,28.36485,0
83.8254,28.36505,0
83.82526,28.36513,0
83.82519,28.36529,0
83.82506,28.36549,0
83.82496,28.36579,0
83.82489,28.36644,0
83.82494,28.36671,0
83.82523,28.36688,0
83.82535,28.367,0
83.82547,28.36732,0
83.82568,28.36749,0
83.82605,28.36768,0
83.82623,28.36789,0
83.82618,28.36802,0
83.8262,28.36808,0
83.82615,28.36826,0
83.82601,28.36847,0
83.82598,28.36856,0
83.82584,28.36869,0
83.82576,28.36885,0
83.8259,28.36914,0
83.82613,28.36947,0
83.82611,28.36954,0
83.82601,28.36968,0
83.82601,28.36991,0
83.82594,28.37006,0
83.82592,28.37023,0
83.82589,28.3703,0
83.825871,28.370345,0
83.82581,28.37049,0
83.82581,28.37059,0
83.82568,28.37078,0
83.82554,28.37093,0
83.82551,28.37101,0
83.82554,28.37112,0
83.825534,28.37135,0
83.82553,28.37153,0
83.82562,28.37167,0
83.82543,28.37179,0
83.82543,28.37191,0
83.825399,28.371939,0
83.82529,28.37204,0
83.82534,28.37227,0
83.82534,28.37252,0
83.82528,28.37259,0
83.82528,28.37275,0
83.82521,28.37292,0
83.8254,28.37331,0
83.82542,28.37356,0
83.82532,28.37375,0
83.82514,28.37396,0
83.82479,28.37473,0
83.82533,28.37476,0
83.82535,28.37484,0
83.82532,28.37496,0
83.8254,28.37496,0
83.82553,28.37508,0
83.82568,28.37515,0
83.82577,28.37522,0
83.82589,28.37523,0
83.82607,28.37521,0
83.82618,28.37536,0
83.82604,28.37551,0
83.82601,28.37562,0
83.826,28.37575,0
83.82607,28.37591,0
83.82603,28.376,0
83.82604,28.37625,0
83.82601,28.37634,0
83.82605,28.37641,0
83.82602,28.3768,0
83.82607,28.37701,0
83.82621,28.37715,0
83.82621,28.37724,0
83.82614,28.37782,0
83.8262,28.37794,0
83.82618,28.37809,0
83.82604,28.3784,0
83.82602,28.37852,0
83.82615,28.37866,0
83.82603,28.37873,0
83.82594,28.37882,0
83.82596,28.37892,0
83.82606,28.37901,0
83.82611,28.37912,0
83.82612,28.37922,0
83.82606,28.37941,0
83.82618,28.37974,0
83.82621,28.37994,0
83.82607,28.38019,0
83.82602,28.38021,0
83.82577,28.38047,0
83.82573,28.38045,0
83.82574,28.38048,0
83.82568,28.38053,0
83.82565,28.38055,0
83.82557,28.3808,0
83.82539,28.38108,0
83.82533,28.38143,0
83.82536,28.38148,0
83.82563,28.38167,0
83.82567,28.38174,0
83.82568,28.38176,0
83.82568,28.38177,0
83.82564,28.3819,0
83.82562,28.38223,0
83.82567,28.38236,0
83.82568,28.38262,0
83.82562,28.38302,0
83.82564,28.38309,0
83.82562,28.38315,0
83.82563,28.38367,0
83.82548,28.38395,0
83.82545,28.3842,0
83.8255,28.38433,0
83.82543,28.38446,0
83.82543,28.38465,0
83.82555,28.3848,0
83.82568,28.3849,0
83.82573,28.38493,0
83.82571,28.38506,0
83.82568,28.38509,0
83.82552,28.38519,0
83.82533,28.38539,0
83.82529,28.38556,0
83.82542,28.38574,0
83.82549,28.386,0
83.82561,28.38614,0
83.82562,28.38627,0
83.82568,28.38631,0
83.82575,28.38634,0
83.82583,28.38646,0
83.82587,28.38662,0
83.82601,28.38678,0
83.82602,28.38687,0
83.82608,28.38689,0
83.82619,28.38683,0
83.82629,28.38682,0
83.82635,28.3869,0
83.82638,28.38715,0
83.82631,28.38725,0
83.82616,28.38729,0
83.82607,28.38739,0
83.82607,28.38754,0
83.82612,28.38766,0
83.82622,28.38774,0
83.8263,28.38777,0
83.82632,28.38786,0
83.82629,28.38798,0
83.82646,28.38813,0
83.82659,28.3885,0
83.82676,28.38874,0
83.82688,28.3888,0
83.82701,28.3888,0
83.82743,28.38907,0
83.82753,28.38919,0
83.82754,28.38927,0
83.8275,28.3894,0
83.82739,28.38954,0
83.82744,28.3896,0
83.82753,28.38963,0
83.82765,28.39006,0
83.82763,28.39061,0
83.82771,28.39098,0
83.82769,28.3911,0
83.82762,28.39123,0
83.82765,28.39129,0
83.82766,28.39157,0
83.82757,28.39168,0
83.82739,28.39181,0
83.82732,28.39191,0
83.82728,28.39201,0
83.82723,28.39238,0
83.82719,28.39246,0
83.8271,28.39278,0
83.82704,28.39274,0
83.82689,28.39297,0
83.82677,28.39323,0
83.82674,28.39348,0
83.82666,28.39361,0
83.82662,28.39375,0
83.82655,28.39384,0
83.82627,28.39421,0
83.82631,28.39435,0
83.82626,28.39441,0
83.82622,28.39471,0
83.82638,28.39496,0
83.82645,28.39521,0
83.82633,28.39532,0
83.82648,28.39549,0
83.82644,28.39559,0
83.82657,28.39575,0
83.82648,28.39588,0
83.8258,28.39615,0
83.82574,28.39648,0
83.82568,28.39658,0
83.82565,28.39665,0
83.825633,28.3969,0
83.82562,28.3971,0
83.82568,28.39722,0
83.82589,28.39768,0
83.82591,28.39812,0
83.82568,28.39843,0
83.82563,28.39848,0
83.82555,28.39855,0
83.82535,28.39866,0
83.82517,28.3988,0
83.82501,28.399,0
83.82489,28.39907,0
83.82487,28.39919,0
83.82476,28.39925,0
83.82449,28.39961,0
83.82448,28.39967,0
83.82441,28.39971,0
83.82443,28.39977,0
83.82428,28.39981,0
83.82433,28.39994,0
83.82456,28.40015,0
83.82456,28.40026,0
83.82447,28.4004,0
83.8243,28.40052,0
83.82407,28.40047,0
83.82395,28.40059,0
83.82367,28.40072,0
83.82344,28.40073,0
83.82345,28.40081,0
83.82333,28.40081,0
83.82327,28.40095,0
83.82309,28.40096,0
83.82292,28.40092,0
83.82285,28.40099,0
83.82282,28.40106,0
83.82271,28.40113,0
83.82268,28.40121,0
83.82251,28.40123,0
83.82272,28.40127,0
83.82324,28.40166,0
83.82366,28.4019,0
83.82403,28.40219,0
83.82436,28.40246,0
83.82451,28.40282,0
83.824,28.40347,0
83.82388,28.4042,0
83.82285,28.40531,0
83.82271,28.40565,0
83.82241,28.40585,0
83.82231,28.40595,0
83.82227,28.40608,0
83.82229,28.4062,0
83.82227,28.4063,0
83.82232,28.40644,0
83.82222,28.4066,0
83.822219,28.406601,0
83.82415,28.40746,0
83.82427,28.40753,0
83.82441,28.40757,0
83.82447,28.40756,0
83.82489,28.40733,0
83.82501,28.40735,0
83.82509,28.40743,0
83.82508,28.40758,0
83.82499,28.40752,0
83.82492,28.40752,0
83.82482,28.40757,0
83.82488,28.40768,0
83.82487,28.40777,0
83.82482,28.40788,0
83.82482,28.40808,0
83.82476,28.40808,0
83.82475,28.40799,0
83.82459,28.40798,0
83.82435,28.40817,0
83.82422,28.40833,0
83.8241,28.40889,0
83.82397,28.40905,0
83.82395,28.40917,0
83.82382,28.40929,0
83.82399,28.40931,0
83.82394,28.40944,0
83.823901,28.409496,0
83.82385,28.40957,0
83.82385,28.40965,0
83.82421,28.40995,0
83.82404,28.40996,0
83.82393,28.41001,0
83.82379,28.40999,0
83.82368,28.41004,0
83.8235,28.41004,0
83.82324,28.41021,0
83.82307,28.41025,0
83.82291,28.41034,0
83.82276,28.41054,0
83.8224,28.41086,0
83.82235,28.411,0
83.82233,28.41103,0
83.82222,28.41098,0
83.82226,28.41107,0
83.82206,28.411,0
83.8218,28.41101,0
83.82173,28.41106,0
83.82182,28.41109,0
83.8218,28.41116,0
83.822,28.41115,0
83.82205,28.41116,0
83.82207,28.41119,0
83.82202,28.41143,0
83.82189,28.41136,0
83.82188,28.41142,0
83.82179,28.41143,0
83.82176,28.41152,0
83.82151,28.41167,0
83.82143,28.41167,0
83.8214,28.41165,0
83.82131,28.41168,0
83.82126,28.41174,0
83.82115,28.41176,0
83.82113,28.41182,0
83.82097,28.41195,0
83.82093,28.41194,0
83.8209,28.41189,0
83.82083,28.41209,0
83.82071,28.41195,0
83.8207,28.41205,0
83.82065,28.41203,0
83.82062,28.41197,0
83.82047,28.41188,0
83.82041,28.41211,0
83.82033,28.41202,0
83.82031,28.41211,0
83.82026,28.41203,0
83.82021,28.41212,0
83.82017,28.412,0
83.8201,28.41213,0
83.81999,28.41201,0
83.81996,28.41193,0
83.81988,28.4119,0
83.81986,28.41192,0
83.81988,28.41199,0
83.81982,28.41196,0
83.81982,28.41203,0
83.81975,28.41203,0
83.81977,28.41223,0
83.81972,28.41223,0
83.81966,28.41219,0
83.81959,28.41219,0
83.81932,28.41223,0
83.81931,28.41235,0
83.81921,28.41266,0
83.81908,28.41262,0
83.81892,28.41266,0
83.81909,28.41274,0
83.81913,28.4128,0
83.81893,28.41282,0
83.81903,28.41292,0
83.81904,28.413,0
83.81877,28.41312,0
83.81879,28.4132,0
83.81868,28.41325,0
83.81876,28.41328,0
83.81841,28.41346,0
83.81827,28.41355,0
83.8184,28.41358,0
83.81837,28.41364,0
83.81846,28.41367,0
83.8184,28.41374,0
83.81855,28.41375,0
83.81874,28.4138,0
83.81894,28.4139,0
83.81876,28.414,0
83.81864,28.41413,0
83.81875,28.41421,0
83.81881,28.41435,0
83.81901,28.41465,0
83.819,28.4151,0
83.81913,28.41542,0
83.81925,28.4155,0
83.81911,28.41576,0
83.81878,28.41608,0
83.81868,28.41614,0
83.81854,28.41618,0
83.81841,28.41634,0
83.81832,28.41654,0
83.81827,28.41673,0
83.81832,28.41691,0
83.81864,28.41721,0
83.81866,28.41744,0
83.81875,28.41763,0
83.81863,28.4179,0
83.81843,28.41801,0
83.81832,28.41802,0
83.81827,28.41821,0
83.81836,28.4183,0
83.81818,28.41845,0
83.81809,28.4186,0
83.8181,28.41867,0
83.81792,28.41896,0
83.81795,28.419,0
83.81765,28.4195,0
83.81766,28.4196,0
83.81758,28.41982,0
83.81761,28.42004,0
83.81757,28.42039,0
83.81749,28.42079,0
83.81762,28.42089,0
83.81766,28.42099,0
83.81761,28.42099,0
83.81754,28.42095,0
83.81746,28.42096,0
83.81736,28.42113,0
83.81707,28.42181,0
83.81728,28.42219,0
83.81769,28.42279,0
83.81773,28.42322,0
83.81767,28.42338,0
83.81781,28.42358,0
83.81792,28.4236,0
83.81798,28.42389,0
83.81812,28.42407,0
83.818125,28.42416,0
83.81814,28.42442,0
83.81841,28.42464,0
83.81861,28.42472,0
83.81863,28.42479,0
83.81868,28.42483,0
83.81861,28.42496,0
83.81878,28.42508,0
83.81892,28.42544,0
83.81917,28.42573,0
83.81906,28.42589,0
83.81908,28.42595,0
83.8192,28.4261,0
83.81924,28.42631,0
83.81932,28.4265,0
83.81975,28.42681,0
83.81985,28.4268,0
83.81992,28.42685,0
83.8201,28.42701,0
83.82027,28.42728,0
83.82042,28.42737,0
83.82061,28.42744,0
83.8208,28.42741,0
83.82077,28.42758,0
83.82094,28.42761,0
83.82106,28.42752,0
83.82108,28.42754,0
83.82101,28.42772,0
83.82107,28.42772,0
83.82111,28.42768,0
83.82113,28.42772,0
83.82101,28.42782,0
83.8211,28.42786,0
83.82175,28.42823,0
83.82196,28.42817,0
83.82207,28.42819,0
83.82225,28.42812,0
83.8224,28.42828,0
83.82247,28.42831,0
83.82253,28.42828,0
83.82266,28.42838,0
83.82277,28.42841,0
83.82313,28.42817,0
83.82325,28.42816,0
83.82334,28.42818,0
83.82339,28.42815,0
83.82344,28.42818,0
83.82349,28.42815,0
83.82364,28.42826,0
83.82372,28.42819,0
83.82379,28.42828,0
83.82395,28.42832,0
83.82391,28.42836,0
83.82392,28.42842,0
83.8241,28.42842,0
83.82423,28.42846,0
83.82445,28.42827,0
83.82443,28.42818,0
83.82444,28.42808,0
83.82462,28.42808,0
83.82478,28.42816,0
83.8249,28.42808,0
83.82513,28.42813,0
83.8254,28.42813,0
83.82548,28.42816,0
83.82567,28.42818,0
83.82568,28.42816,0
83.82586,28.42818,0
83.82602,28.42826,0
83.82623,28.42823,0
83.82635,28.42826,0
83.8264,28.42832,0
83.8264,28.42846,0
83.82629,28.42865,0
83.82632,28.42877,0
83.8265,28.42891,0
83.82659,28.42888,0
83.82676,28.42896,0
83.82689,28.42909,0
83.82714,28.42917,0
83.82724,28.42917,0
83.82762,28.42908,0
83.82773,28.42904,0
83.82789,28.42885,0
83.82805,28.42872,0
83.82825,28.42861,0
83.82837,28.42856,0
83.82854,28.42845,0
83.82869,28.42842,0
83.82877,28.42843,0
83.82878,28.42848,0
83.82885,28.42846,0
83.82892,28.42841,0
83.829,28.42829,0
83.82909,28.42823,0
83.82922,28.42821,0
83.82947,28.42813,0
83.82949,28.42816,0
83.82972,28.42816,0
83.82981,28.42813,0
83.82983,28.42806,0
83.83011,28.42802,0
83.83017,28.42813,0
83.83029,28.42864,0
83.83038,28.4287,0
83.83042,28.42881,0
83.83048,28.42901,0
83.83046,28.42907,0
83.83052,28.42929,0
83.83072,28.42952,0
83.83076,28.42966,0
83.83086,28.4298,0
83.83087,28.42997,0
83.83162,28.43076,0
83.83174,28.43083,0
83.83187,28.43101,0
83.83209,28.43121,0
83.83216,28.43134,0
83.83228,28.43141,0
83.83239,28.43152,0
83.83253,28.43171,0
83.83259,28.43185,0
83.83286,28.43188,0
83.83296,28.43198,0
83.83312,28.432,0
83.8333,28.43209,0
83.83357,28.43219,0
83.83379,28.43222,0
83.83406,28.43237,0
83.83427,28.43255,0
83.83455,28.43256,0
83.83473,28.43265,0
83.83482,28.4327,0
83.83491,28.43284,0
83.83506,28.43286,0
83.83519,28.43302,0
83.83581,28.43345,0
83.83596,28.4336,0
83.83626,28.4338,0
83.83638,28.43391,0
83.83653,28.43397,0
83.83666,28.4341,0
83.83686,28.4341,0
83.83692,28.43415,0
83.83712,28.43422,0
83.83713,28.43429,0
83.8373,28.43435,0
83.83757,28.43449,0
83.83777,28.43452,0
83.83791,28.43457,0
83.83805,28.43453,0
83.83816,28.4346,0
83.83821,28.43459,0
83.8384,28.43467,0
83.83842,28.43476,0
83.83841,28.43517,0
83.83845,28.43606,0
83.83852,28.43648,0
83.83868,28.43663,0
83.83887,28.4367,0
83.83899,28.43684,0
83.83914,28.43724,0
83.83966,28.43765,0
83.83989,28.43776,0
83.84009,28.43798,0
83.84016,28.43815,0
83.84032,28.43821,0
83.84046,28.43838,0
83.84071,28.43877,0
83.84109,28.43906,0
83.84155,28.4395,0
83.84172,28.43971,0
83.84178,28.43979,0
83.8423,28.44024,0
83.84233,28.4405,0
83.8423,28.44064,0
83.84221,28.44071,0
83.84223,28.44082,0
83.84261,28.44096,0
83.8428,28.44109,0
83.84287,28.44122,0
83.84312,28.44147,0
83.84356,28.44178,0
83.84373,28.442,0
83.84393,28.4421,0
83.84404,28.44234,0
83.84412,28.44239,0
83.84416,28.44275,0
83.84411,28.44288,0
83.84409,28.44321,0
83.84424,28.44333,0
83.8443,28.4434,0
83.84422,28.4434,0
83.84479,28.44404,0
83.84502,28.44438,0
83.84523,28.44459,0
83.84544,28.44461,0
83.84557,28.44469,0
83.8456,28.44478,0
83.84558,28.44486,0
83.84541,28.44518,0
83.8454,28.44527,0
83.84543,28.44536,0
83.84547,28.44582,0
83.84557,28.44604,0
83.84577,28.44626,0
83.84564,28.4465,0
83.8457,28.44748,0
83.84559,28.44773,0
83.84556,28.44794,0
83.84558,28.44811,0
83.84586,28.44871,0
83.84583,28.44894,0
83.84599,28.44911,0
83.84613,28.44921,0
83.84635,28.44936,0
83.84673,28.44953,0
83.84695,28.44958,0
83.84716,28.44969,0
83.8475,28.44997,0
83.84766,28.45017,0
83.84772,28.45029,0
83.84774,28.45042,0
83.84781,28.45047,0
83.84803,28.45041,0
83.84866,28.45054,0
83.848969,28.450555,0
83.84897,28.45055,0
83.84896,28.45063,0
83.84935,28.45066,0
83.84972,28.45072,0
83.84997,28.45095,0
83.85012,28.45105,0
83.8498,28.45143,0
83.84974,28.45169,0
83.84991,28.452,0
83.84999,28.45203,0
83.85014,28.45209,0
83.85064,28.45243,0
83.85092,28.45278,0
83.85108,28.45286,0
83.85141,28.45308,0
83.85185,28.45344,0
83.85197,28.45343,0
83.85229,28.45354,0
83.85246,28.45352,0
83.85291,28.45373,0
83.85369,28.45399,0
83.85447,28.45432,0
83.85461,28.45452,0
83.85474,28.45455,0
83.85489,28.45455,0
83.8553,28.45478,0
83.85555,28.45517,0
83.85558,28.45532,0
83.85578,28.45571,0
83.85591,28.45577,0
83.85622,28.45583,0
83.85624,28.45597,0
83.85639,28.45632,0
83.85663,28.45652,0
83.85657,28.45657,0
83.85656,28.45662,0
83.85665,28.45669,0
83.85671,28.45666,0
83.85679,28.45676,0
83.85676,28.45689,0
83.85683,28.45691,0
83.85679,28.45718,0
83.85694,28.45732,0
83.85705,28.45758,0
83.85706,28.45788,0
83.85737,28.45811,0
83.8575,28.45826,0
83.85763,28.45842,0
83.85786,28.45881,0
83.85803,28.45885,0
83.85811,28.45892,0
83.85812,28.45903,0
83.85817,28.45923,0
83.85826,28.45934,0
83.85837,28.45958,0
83.85849,28.45951,0
83.85854,28.45952,0
83.85857,28.45968,0
83.85863,28.45967,0
83.8587,28.4596,0
83.85886,28.45971,0
83.85889,28.45983,0
83.85904,28.46,0
83.85917,28.46011,0
83.85942,28.46026,0
83.85961,28.46043,0
83.85973,28.46057,0
83.85994,28.46067,0
83.86004,28.4608,0
83.86011,28.46095,0
83.86032,28.46114,0
83.86064,28.46136,0
83.86083,28.46162,0
83.86092,28.46194,0
83.86101,28.46204,0
83.86099,28.46214,0
83.86106,28.4623,0
83.86104,28.46236,0
83.8611,28.46243,0
83.86109,28.4625,0
83.86112,28.46253,0
83.86106,28.46267,0
83.86113,28.4628,0
83.86104,28.463,0
83.86097,28.46303,0
83.86092,28.46314,0
83.86096,28.46322,0
83.86093,28.46333,0
83.86097,28.46336,0
83.86089,28.46358,0
83.86091,28.46366,0
83.86097,28.46366,0
83.86123,28.4636,0
83.86139,28.46366,0
83.86148,28.46386,0
83.86161,28.46392,0
83.86172,28.46392,0
83.86187,28.46385,0
83.86199,28.46386,0
83.86206,28.46394,0
83.86211,28.46406,0
83.86229,28.46418,0
83.86234,28.4643,0
83.86247,28.46444,0
83.86244,28.4646,0
83.86254,28.46491,0
83.86263,28.46506,0
83.86284,28.46534,0
83.86314,28.46554,0
83.86341,28.46568,0
83.86383,28.4656,0
83.86414,28.46569,0
83.86453,28.46597,0
83.8649,28.46607,0
83.8649,28.46621,0
83.86505,28.46627,0
83.86513,28.4664,0
83.8652,28.46643,0
83.86532,28.46657,0
83.86545,28.46672,0
83.86544,28.46684,0
83.86555,28.46695,0
83.86617,28.46741,0
83.86645,28.46771,0
83.86651,28.4679,0
83.86664,28.46806,0
83.86678,28.46815,0
83.8674,28.4683,0
83.86763,28.4685,0
83.86784,28.46882,0
83.86813,28.46897,0
83.86823,28.46907,0
83.86819,28.46932,0
83.86824,28.46942,0
83.86835,28.46953,0
83.86854,28.46952,0
83.86874,28.46946,0
83.8691,28.46954,0
83.86943,28.46971,0
83.86963,28.46976,0
83.87041,28.47006,0
83.87039,28.47012,0
83.87063,28.47031,0
83.8707,28.47046,0
83.87141,28.47088,0
83.87179,28.47107,0
83.87201,28.47132,0
83.87265,28.47221,0
83.87303,28.47259,0
83.87314,28.47265,0
83.87319,28.47249,0
83.87332,28.47286,0
83.87365,28.47316,0
83.87379,28.47325,0
83.87394,28.47334,0
83.87483,28.47339,0
83.87493,28.47344,0
83.87499,28.47352,0
83.87539,28.47359,0
83.87578,28.47378,0
83.87642,28.47415,0
83.87662,28.4742,0
83.8771,28.47468,0
83.8775,28.47505,0
83.87755,28.47519,0
83.87765,28.47519,0
83.8777,28.47517,0
83.87792,28.47525,0
83.8781,28.47525,0
83.87824,28.47529,0
83.87832,28.47539,0
83.87833,28.47548,0
83.87839,28.47559,0
83.87865,28.47573,0
83.87879,28.47591,0
83.87872,28.47606,0
83.87857,28.47614,0
83.8786,28.47617,0
83.87876,28.47618,0
83.87896,28.47638,0
83.87908,28.47638,0
83.87956,28.47658,0
83.88026,28.47705,0
83.88105,28.4773,0
83.88127,28.47747,0
83.88212,28.47763,0
83.8831,28.47794,0
83.88329,28.47803,0
83.88372,28.47835,0
83.88395,28.47856,0
83.88417,28.47871,0
83.88456,28.47917,0
83.88483,28.47944,0
83.88493,28.47961,0
83.88487,28.47986,0
83.88502,28.48012,0
83.88532,28.48015,0
83.88541,28.48012,0
83.88549,28.48016,0
83.88554,28.48044,0
83.88561,28.48055,0
83.88567,28.48077,0
83.88566,28.4809,0
83.88557,28.48095,0
83.88555,28.48105,0
83.88563,28.48127,0
83.88566,28.48131,0
83.88578,28.48135,0
83.88582,28.48139,0
83.88582,28.48147,0
83.88588,28.48151,0
83.88601,28.48155,0
83.88602,28.48172,0
83.886,28.48181,0
83.88596,28.48181,0
83.88591,28.48175,0
83.88587,28.48179,0
83.88586,28.48183,0
83.88569,28.48194,0
83.88571,28.48205,0
83.88604,28.48216,0
83.886,28.48229,0
83.88609,28.48238,0
83.88623,28.48245,0
83.88648,28.48245,0
83.88651,28.4825,0
83.88647,28.48257,0
83.88649,28.48281,0
83.88671,28.48324,0
83.88684,28.48337,0
83.88719,28.48355,0
83.88732,28.48367,0
83.88733,28.48375,0
83.8875,28.48382,0
83.88765,28.48404,0
83.88793,28.48404,0
83.88817,28.48422,0
83.88835,28.4844,0
83.88839,28.48448,0
83.8886,28.48463,0
83.88879,28.4847,0
83.88879,28.48512,0
83.8889,28.48537,0
83.88889,28.48555,0
83.88895,28.4856,0
83.88901,28.48574,0
83.88901,28.48583,0
83.88897,28.48592,0
83.88928,28.48623,0
83.88937,28.48644,0
83.889484,28.486518,0
83.889475,28.486512,0
83.88953,28.48655,0
83.88963,28.48685,0
83.88995,28.48715,0
83.89035,28.48739,0
83.89058,28.48768,0
83.89089,28.48784,0
83.89107,28.48799,0
83.89115,28.48812,0
83.8916,28.48841,0
83.89205,28.48866,0
83.89215,28.48876,0
83.8922,28.48896,0
83.89216,28.48915,0
83.8922,28.48925,0
83.8924,28.48955,0
83.89239,28.48972,0
83.89242,28.4898,0
83.89237,28.49006,0
83.89243,28.49006,0
83.89253,28.49011,0
83.89259,28.49021,0
83.89261,28.49036,0
83.89257,28.49063,0
83.89249,28.49068,0
83.89243,28.491,0
83.8924,28.49108,0
83.89256,28.49181,0
83.89251,28.49205,0
83.89268,28.49227,0
83.89272,28.4924,0
83.89272,28.4925,0
83.89267,28.49252,0
83.89259,28.49248,0
83.89254,28.49248,0
83.89252,28.49253,0
83.89256,28.4926,0
83.89259,28.49283,0
83.89274,28.49291,0
83.89278,28.49302,0
83.89282,28.49306,0
83.89278,28.4932,0
83.89283,28.49328,0
83.89288,28.49332,0
83.89309,28.49333,0
83.89328,28.49349,0
83.89338,28.49351,0
83.89351,28.49372,0
83.89351,28.49381,0
83.89355,28.49393,0
83.89363,28.49401,0
83.89363,28.49413,0
83.89369,28.49417,0
83.89382,28.49418,0
83.89391,28.49413,0
83.8941,28.49414,0
83.8942,28.49417,0
83.89439,28.49436,0
83.89434,28.49453,0
83.89465,28.49463,0
83.8948,28.49464,0
83.89492,28.49488,0
83.89515,28.495,0
83.89522,28.49513,0
83.89537,28.4953,0
83.89539,28.49541,0
83.89554,28.49547,0
83.89561,28.49555,0
83.89583,28.49568,0
83.89596,28.49569,0
83.89606,28.49576,0
83.89614,28.49577,0
83.89635,28.49591,0
83.89642,28.496,0
83.89648,28.49619,0
83.8966,28.49627,0
83.89661,28.49636,0
83.89678,28.4965,0
83.89695,28.4967,0
83.897,28.4968,0
83.89707,28.49681,0
83.89706,28.49701,0
83.8971,28.49711,0
83.89731,28.49716,0
83.89742,28.49713,0
83.89748,28.49708,0
83.89774,28.49715,0
83.89795,28.49714,0
83.89805,28.49718,0
83.89812,28.49729,0
83.89819,28.49732,0
83.89828,28.49733,0
83.89845,28.4973,0
83.89854,28.49739,0
83.89853,28.49748,0
83.8986,28.49757,0
83.89867,28.49757,0
83.89874,28.49766,0
83.89876,28.49774,0
83.89869,28.49777,0
83.89872,28.49788,0
83.89933,28.49822,0
83.89941,28.49835,0
83.89949,28.49875,0
83.89955,28.49883,0
83.89969,28.49886,0
83.89992,28.49898,0
83.90001,28.49917,0
83.90009,28.49925,0
83.900142,28.499349,0
83.90019,28.49944,0
83.90027,28.49963,0
83.90043,28.50026,0
83.90051,28.50048,0
83.90065,28.50071,0
83.90065,28.50087,0
83.90071,28.50104,0
83.90077,28.50112,0
83.90107,28.50177,0
83.90109,28.50187,0
83.90104,28.50202,0
83.90112,28.50213,0
83.90145,28.50234,0
83.90158,28.50256,0
83.90172,28.50271,0
83.90176,28.50281,0
83.9017,28.5033,0
83.90186,28.50372,0
83.9024,28.50419,0
83.90289,28.5045,0
83.90306,28.50465,0
83.90312,28.50479,0
83.90316,28.50508,0
83.90334,28.50524,0
83.9035,28.50544,0
83.90385,28.50575,0
83.90424,28.50604,0
83.90429,28.50635,0
83.90437,28.50652,0
83.9044,28.50667,0
83.90434,28.50684,0
83.90444,28.5071,0
83.90444,28.50733,0
83.9045,28.5076,0
83.90467,28.50821,0
83.90481,28.50855,0
83.90474,28.50869,0
83.90473,28.50896,0
83.90481,28.50912,0
83.90477,28.50923,0
83.90478,28.50935,0
83.90471,28.50947,0
83.90474,28.50971,0
83.90469,28.50981,0
83.90471,28.51033,0
83.90467,28.51049,0
83.90469,28.5106,0
83.90483,28.51078,0
83.90487,28.51095,0
83.90509,28.51119,0
83.90538,28.51143,0
83.90572,28.51179,0
83.90582,28.51194,0
83.90575,28.51211,0
83.90576,28.51223,0
83.9057,28.51258,0
83.90582,28.51282,0
83.90594,28.51291,0
83.90601,28.51302,0
83.90608,28.51308,0
83.90612,28.51333,0
83.90629,28.51343,0
83.90641,28.51355,0
83.90653,28.51383,0
83.90649,28.51399,0
83.90635,28.51411,0
83.90626,28.51436,0
83.90625,28.51451,0
83.90656,28.51483,0
83.90655,28.51498,0
83.90664,28.51534,0
83.90684,28.51556,0
83.90697,28.51559,0
83.90705,28.51573,0
83.90706,28.51588,0
83.90721,28.51598,0
83.90724,28.5162,0
83.90744,28.51667,0
83.90753,28.51697,0
83.9076,28.51722,0
83.90767,28.51781,0
83.90779,28.5182,0
83.90777,28.51836,0
83.90768,28.51846,0
83.90757,28.51852,0
83.90749,28.51866,0
83.90755,28.5188,0
83.90772,28.51904,0
83.90779,28.51926,0
83.90812,28.52122,0
83.90807,28.52172,0
83.90822,28.52218,0
83.90825,28.52252,0
83.90821,28.52285,0
83.90823,28.52306,0
83.90827,28.52313,0
83.90835,28.52319,0
83.90817,28.52337,0
83.90809,28.5234,0
83.90809,28.52347,0
83.90806,28.52351,0
83.9081,28.52356,0
83.90807,28.52364,0
83.90809,28.5237,0
83.90803,28.52399,0
83.90797,28.52411,0
83.907982,28.524219,0
83.90799,28.5243,0
83.90809,28.52456,0
83.90797,28.52477,0
83.90792,28.52482,0
83.90785,28.52484,0
83.90775,28.52483,0
83.90761,28.52505,0
83.90763,28.52515,0
83.90739,28.52545,0
83.90732,28.52562,0
83.90721,28.52571,0
83.90714,28.52581,0
83.9066,28.52637,0
83.9065,28.52645,0
83.90629,28.52655,0
83.90569,28.52692,0
83.90553,28.52699,0
83.90499,28.52715,0
83.90459,28.52733,0
83.90445,28.52733,0
83.90432,28.5273,0
83.90398,28.52732,0
83.90349,28.52742,0
83.90293,28.52747,0
83.90257,28.52743,0
83.90242,28.52738,0
83.90209,28.52733,0
83.90192,28.52737,0
83.90175,28.52752,0
83.90152,28.52758,0
83.90131,28.5276,0
83.90083,28.52775,0
83.90046,28.52783,0
83.90007,28.52785,0
83.90005,28.5279,0
83.89972,28.52801,0
83.89961,28.528,0
83.89892,28.52821,0
83.89857,28.52823,0
83.89839,28.5284,0
83.89809,28.5285,0
83.89787,28.52862,0
83.89774,28.52882,0
83.89757,28.52896,0
83.89653,28.52906,0
83.89642,28.52914,0
83.89622,28.52918,0
83.8954,28.52927,0
83.89518,28.52925,0
83.89435,28.52929,0
83.8933,28.52944,0
83.89302,28.52943,0
83.8928,28.52945,0
83.89238,28.52944,0
83.89193,28.52954,0
83.8916,28.52957,0
83.89124,28.5296,0
83.89051,28.52957,0
83.88993,28.52962,0
83.88952,28.52971,0
83.88932,28.5297,0
83.88878,28.52982,0
83.88811,28.53007,0
83.88761,28.53021,0
83.88692,28.53028,0
83.88665,28.53025,0
83.88637,28.5304,0
83.88587,28.53056,0
83.88561,28.53058,0
83.88544,28.53066,0
83.88509,28.53062,0
83.88466,28.53076,0
83.88422,28.53086,0
83.88356,28.53089,0
83.88272,28.531,0
83.88257,28.53098,0
83.88186,28.53104,0
83.88169,28.53101,0
83.8814,28.53102,0
83.88118,28.53101,0
83.88079,28.53093,0
83.88025,28.53089,0
83.87988,28.53079,0
83.87924,28.53079,0
83.87898,28.53071,0
83.87887,28.53071,0
83.87876,28.53066,0
83.87869,28.53056,0
83.87851,28.53049,0
83.87847,28.53054,0
83.87839,28.53053,0
83.87829,28.5306,0
83.8783,28.53063,0
83.878,28.53069,0
83.87782,28.53075,0
83.87773,28.530804,0
83.87762,28.53087,0
83.8775,28.53101,0
83.8773,28.53117,0
83.87721,28.53129,0
83.87695,28.53134,0
83.87682,28.53133,0
83.87657,28.53128,0
83.87637,28.5312,0
83.87604,28.53116,0
</coordinates>
</LineString>
</Placemark>
</Folder>
</Document>
</kml>
