<?xml version="1.0" encoding="UTF-8"?>
<kml xmlns="http://www.opengis.net/kml/2.2">
<Document>
<name>WNW_95.Mundum trail projection</name>
<description>Projection only</description>
<Style id="icon-1899-0288D1-nodesc-normal">
<IconStyle>
<color>ffd18802</color>
<scale>1</scale>
<Icon>
<href>https://www.gstatic.com/mapspro/images/stock/503-wht-blank_maps.png</href>
</Icon>
<hotSpot x="32" xunits="pixels" y="64" yunits="insetPixels"/>
</IconStyle>
<LabelStyle>
<scale>0</scale>
</LabelStyle>
<BalloonStyle>
<text><![CDATA[<h3>$[name]</h3>]]></text>
</BalloonStyle>
</Style>
<Style id="icon-1899-0288D1-nodesc-highlight">
<IconStyle>
<color>ffd18802</color>
<scale>1</scale>
<Icon>
<href>https://www.gstatic.com/mapspro/images/stock/503-wht-blank_maps.png</href>
</Icon>
<hotSpot x="32" xunits="pixels" y="64" yunits="insetPixels"/>
</IconStyle>
<LabelStyle>
<scale>1</scale>
</LabelStyle>
<BalloonStyle>
<text><![CDATA[<h3>$[name]</h3>]]></text>
</BalloonStyle>
</Style>
<StyleMap id="icon-1899-0288D1-nodesc">
<Pair>
<key>normal</key>
<styleUrl>#icon-1899-0288D1-nodesc-normal</styleUrl>
</Pair>
<Pair>
<key>highlight</key>
<styleUrl>#icon-1899-0288D1-nodesc-highlight</styleUrl>
</Pair>
</StyleMap>
<Style id="icon-1899-DB4436-nodesc-normal">
<IconStyle>
<color>ff3644db</color>
<scale>1</scale>
<Icon>
<href>https://www.gstatic.com/mapspro/images/stock/503-wht-blank_maps.png</href>
</Icon>
<hotSpot x="32" xunits="pixels" y="64" yunits="insetPixels"/>
</IconStyle>
<LabelStyle>
<scale>0</scale>
</LabelStyle>
<BalloonStyle>
<text><![CDATA[<h3>$[name]</h3>]]></text>
</BalloonStyle>
</Style>
<Style id="icon-1899-DB4436-nodesc-highlight">
<IconStyle>
<color>ff3644db</color>
<scale>1</scale>
<Icon>
<href>https://www.gstatic.com/mapspro/images/stock/503-wht-blank_maps.png</href>
</Icon>
<hotSpot x="32" xunits="pixels" y="64" yunits="insetPixels"/>
</IconStyle>
<LabelStyle>
<scale>1</scale>
</LabelStyle>
<BalloonStyle>
<text><![CDATA[<h3>$[name]</h3>]]></text>
</BalloonStyle>
</Style>
<StyleMap id="icon-1899-DB4436-nodesc">
<Pair>
<key>normal</key>
<styleUrl>#icon-1899-DB4436-nodesc-normal</styleUrl>
</Pair>
<Pair>
<key>highlight</key>
<styleUrl>#icon-1899-DB4436-nodesc-highlight</styleUrl>
</Pair>
</StyleMap>
<Style id="line-0000FF-2000-nodesc-normal">
<LineStyle>
<color>ffff0000</color>
<width>2</width>
</LineStyle>
<BalloonStyle>
<text><![CDATA[<h3>$[name]</h3>]]></text>
</BalloonStyle>
</Style>
<Style id="line-0000FF-2000-nodesc-highlight">
<LineStyle>
<color>ffff0000</color>
<width>3</width>
</LineStyle>
<BalloonStyle>
<text><![CDATA[<h3>$[name]</h3>]]></text>
</BalloonStyle>
</Style>
<StyleMap id="line-0000FF-2000-nodesc">
<Pair>
<key>normal</key>
<styleUrl>#line-0000FF-2000-nodesc-normal</styleUrl>
</Pair>
<Pair>
<key>highlight</key>
<styleUrl>#line-0000FF-2000-nodesc-highlight</styleUrl>
</Pair>
</StyleMap>
<Style id="line-0000FF-8000-nodesc-normal">
<LineStyle>
<color>ffff0000</color>
<width>8</width>
</LineStyle>
<BalloonStyle>
<text><![CDATA[<h3>$[name]</h3>]]></text>
</BalloonStyle>
</Style>
<Style id="line-0000FF-8000-nodesc-highlight">
<LineStyle>
<color>ffff0000</color>
<width>12</width>
</LineStyle>
<BalloonStyle>
<text><![CDATA[<h3>$[name]</h3>]]></text>
</BalloonStyle>
</Style>
<StyleMap id="line-0000FF-8000-nodesc">
<Pair>
<key>normal</key>
<styleUrl>#line-0000FF-8000-nodesc-normal</styleUrl>
</Pair>
<Pair>
<key>highlight</key>
<styleUrl>#line-0000FF-8000-nodesc-highlight</styleUrl>
</Pair>
</StyleMap>
<Style id="line-0097A7-2000-nodesc-normal">
<LineStyle>
<color>ffa79700</color>
<width>2</width>
</LineStyle>
<BalloonStyle>
<text><![CDATA[<h3>$[name]</h3>]]></text>
</BalloonStyle>
</Style>
<Style id="line-0097A7-2000-nodesc-highlight">
<LineStyle>
<color>ffa79700</color>
<width>3</width>
</LineStyle>
<BalloonStyle>
<text><![CDATA[<h3>$[name]</h3>]]></text>
</BalloonStyle>
</Style>
<StyleMap id="line-0097A7-2000-nodesc">
<Pair>
<key>normal</key>
<styleUrl>#line-0097A7-2000-nodesc-normal</styleUrl>
</Pair>
<Pair>
<key>highlight</key>
<styleUrl>#line-0097A7-2000-nodesc-highlight</styleUrl>
</Pair>
</StyleMap>
<Style id="line-F0F000-8000-nodesc-normal">
<LineStyle>
<color>ff00f0f0</color>
<width>8</width>
</LineStyle>
<BalloonStyle>
<text><![CDATA[<h3>$[name]</h3>]]></text>
</BalloonStyle>
</Style>
<Style id="line-F0F000-8000-nodesc-highlight">
<LineStyle>
<color>ff00f0f0</color>
<width>12</width>
</LineStyle>
<BalloonStyle>
<text><![CDATA[<h3>$[name]</h3>]]></text>
</BalloonStyle>
</Style>
<StyleMap id="line-F0F000-8000-nodesc">
<Pair>
<key>normal</key>
<styleUrl>#line-F0F000-8000-nodesc-normal</styleUrl>
</Pair>
<Pair>
<key>highlight</key>
<styleUrl>#line-F0F000-8000-nodesc-highlight</styleUrl>
</Pair>
</StyleMap>
<Style id="line-FF0000-2000-nodesc-normal">
<LineStyle>
<color>ff0000ff</color>
<width>2</width>
</LineStyle>
<BalloonStyle>
<text><![CDATA[<h3>$[name]</h3>]]></text>
</BalloonStyle>
</Style>
<Style id="line-FF0000-2000-nodesc-highlight">
<LineStyle>
<color>ff0000ff</color>
<width>3</width>
</LineStyle>
<BalloonStyle>
<text><![CDATA[<h3>$[name]</h3>]]></text>
</BalloonStyle>
</Style>
<StyleMap id="line-FF0000-2000-nodesc">
<Pair>
<key>normal</key>
<styleUrl>#line-FF0000-2000-nodesc-normal</styleUrl>
</Pair>
<Pair>
<key>highlight</key>
<styleUrl>#line-FF0000-2000-nodesc-highlight</styleUrl>
</Pair>
</StyleMap>
<Folder>
<name>Points</name>
<Placemark>
<name>km13</name>
<styleUrl>#icon-1899-DB4436-nodesc</styleUrl>
<Point>
<coordinates>
86.94279,27.265756,0
</coordinates>
</Point>
</Placemark>
<Placemark>
<name>km10</name>
<styleUrl>#icon-1899-DB4436-nodesc</styleUrl>
<Point>
<coordinates>
86.913829,27.266194,0
</coordinates>
</Point>
</Placemark>
<Placemark>
<name>km19</name>
<styleUrl>#icon-1899-DB4436-nodesc</styleUrl>
<Point>
<coordinates>
86.978527,27.303043,0
</coordinates>
</Point>
</Placemark>
<Placemark>
<name>km20</name>
<styleUrl>#icon-1899-DB4436-nodesc</styleUrl>
<Point>
<coordinates>
86.984425,27.300507,0
</coordinates>
</Point>
</Placemark>
<Placemark>
<name>km15</name>
<styleUrl>#icon-1899-DB4436-nodesc</styleUrl>
<Point>
<coordinates>
86.957448,27.276625,0
</coordinates>
</Point>
</Placemark>
<Placemark>
<name>km16</name>
<styleUrl>#icon-1899-DB4436-nodesc</styleUrl>
<Point>
<coordinates>
86.964279,27.282709,0
</coordinates>
</Point>
</Placemark>
<Placemark>
<name>km04</name>
<styleUrl>#icon-1899-DB4436-nodesc</styleUrl>
<Point>
<coordinates>
86.917747,27.229094,0
</coordinates>
</Point>
</Placemark>
<Placemark>
<name>km18</name>
<styleUrl>#icon-1899-DB4436-nodesc</styleUrl>
<Point>
<coordinates>
86.969773,27.29861,0
</coordinates>
</Point>
</Placemark>
<Placemark>
<name>km12</name>
<styleUrl>#icon-1899-DB4436-nodesc</styleUrl>
<Point>
<coordinates>
86.932952,27.267524,0
</coordinates>
</Point>
</Placemark>
<Placemark>
<name>km09</name>
<styleUrl>#icon-1899-DB4436-nodesc</styleUrl>
<Point>
<coordinates>
86.906145,27.260749,0
</coordinates>
</Point>
</Placemark>
<Placemark>
<name>km07</name>
<styleUrl>#icon-1899-DB4436-nodesc</styleUrl>
<Point>
<coordinates>
86.901139,27.24872,0
</coordinates>
</Point>
</Placemark>
<Placemark>
<name>km01</name>
<styleUrl>#icon-1899-DB4436-nodesc</styleUrl>
<Point>
<coordinates>
86.929422,27.207994,0
</coordinates>
</Point>
</Placemark>
<Placemark>
<name>km14</name>
<styleUrl>#icon-1899-DB4436-nodesc</styleUrl>
<Point>
<coordinates>
86.950309,27.270621,0
</coordinates>
</Point>
</Placemark>
<Placemark>
<name>km05</name>
<styleUrl>#icon-1899-DB4436-nodesc</styleUrl>
<Point>
<coordinates>
86.910955,27.234219,0
</coordinates>
</Point>
</Placemark>
<Placemark>
<name>km08</name>
<styleUrl>#icon-1899-DB4436-nodesc</styleUrl>
<Point>
<coordinates>
86.898618,27.255455,0
</coordinates>
</Point>
</Placemark>
<Placemark>
<name>km11</name>
<styleUrl>#icon-1899-DB4436-nodesc</styleUrl>
<Point>
<coordinates>
86.922976,27.268907,0
</coordinates>
</Point>
</Placemark>
<Placemark>
<name>km17</name>
<styleUrl>#icon-1899-DB4436-nodesc</styleUrl>
<Point>
<coordinates>
86.965464,27.291427,0
</coordinates>
</Point>
</Placemark>
<Placemark>
<name>km00</name>
<styleUrl>#icon-1899-DB4436-nodesc</styleUrl>
<Point>
<coordinates>
86.928533,27.199427,0
</coordinates>
</Point>
</Placemark>
<Placemark>
<name>km02</name>
<styleUrl>#icon-1899-DB4436-nodesc</styleUrl>
<Point>
<coordinates>
86.928333,27.21684,0
</coordinates>
</Point>
</Placemark>
<Placemark>
<name>km06</name>
<styleUrl>#icon-1899-DB4436-nodesc</styleUrl>
<Point>
<coordinates>
86.905692,27.241242,0
</coordinates>
</Point>
</Placemark>
<Placemark>
<name>km03</name>
<styleUrl>#icon-1899-DB4436-nodesc</styleUrl>
<Point>
<coordinates>
86.926301,27.225218,0
</coordinates>
</Point>
</Placemark>
<Placemark>
<name>24km</name>
<styleUrl>#icon-1899-DB4436-nodesc</styleUrl>
<Point>
<coordinates>
87.013178,27.31108,0
</coordinates>
</Point>
</Placemark>
</Folder>
<Folder>
<name>LineStrings</name>
<Placemark>
<name>Mundum trail tt gpx</name>
<styleUrl>#line-0000FF-8000-nodesc</styleUrl>
<LineString>
<tessellate>1</tessellate>
<coordinates>
86.928533,27.199427,0
86.928692,27.199588,0
86.928349,27.201191,0
86.930066,27.206802,0
86.928848,27.209056,0
86.928333,27.214094,0
86.928333,27.215849,0
86.928333,27.217261,0
86.927646,27.219169,0
86.92726,27.221688,0
86.927818,27.223062,0
86.926359,27.225199,0
86.925544,27.225466,0
86.924342,27.227031,0
86.922625,27.227565,0
86.921595,27.227794,0
86.920093,27.227794,0
86.919278,27.228252,0
86.918724,27.228684,0
86.917952,27.229027,0
86.917008,27.229333,0
86.915806,27.229104,0
86.914991,27.228989,0
86.914347,27.230058,0
86.913918,27.230859,0
86.913102,27.231355,0
86.912845,27.232004,0
86.911901,27.233072,0
86.911514,27.233683,0
86.910399,27.234751,0
86.90997,27.235705,0
86.909497,27.236239,0
86.909111,27.236697,0
86.908725,27.237498,0
86.908296,27.237956,0
86.907523,27.238147,0
86.906708,27.238376,0
86.906322,27.239025,0
86.906021,27.239979,0
86.905721,27.240704,0
86.905678,27.241505,0
86.905463,27.242726,0
86.905474,27.242878,0
86.905292,27.243203,0
86.905227,27.24347,0
86.905142,27.243794,0
86.905056,27.243966,0
86.904798,27.244195,0
86.904648,27.2445,0
86.904691,27.244634,0
86.904562,27.244777,0
86.904433,27.245034,0
86.904455,27.245349,0
86.904476,27.245492,0
86.90424,27.245692,0
86.903876,27.245874,0
86.903725,27.246074,0
86.903618,27.246246,0
86.903382,27.246541,0
86.90321,27.246799,0
86.903049,27.24699,0
86.902942,27.247085,0
86.902867,27.247218,0
86.902534,27.247495,0
86.90218,27.247686,0
86.90203,27.247829,0
86.901773,27.248144,0
86.901601,27.248363,0
86.901354,27.248554,0
86.901172,27.248678,0
86.900968,27.248935,0
86.900861,27.249164,0
86.900743,27.249307,0
86.900603,27.24967,0
86.900496,27.249794,0
86.899734,27.249842,0
86.899434,27.249803,0
86.89909,27.249803,0
86.898919,27.24986,0
86.898694,27.249994,0
86.898361,27.249975,0
86.898157,27.250204,0
86.898071,27.250433,0
86.897889,27.250833,0
86.89776,27.251253,0
86.897846,27.251902,0
86.898318,27.252512,0
86.898618,27.253313,0
86.898747,27.253847,0
86.898618,27.254649,0
86.898618,27.25564,0
86.899262,27.255908,0
86.899734,27.256594,0
86.900163,27.256938,0
86.900807,27.257281,0
86.901365,27.257472,0
86.902309,27.257739,0
86.903039,27.258044,0
86.904112,27.258731,0
86.904422,27.259048,0
86.904551,27.259249,0
86.904626,27.259525,0
86.904712,27.259821,0
86.905012,27.260021,0
86.905334,27.260202,0
86.905506,27.260222,0
86.905742,27.260374,0
86.905828,27.26045,0
86.906053,27.260546,0
86.906182,27.260832,0
86.906439,27.261089,0
86.906579,27.261309,0
86.906697,27.261566,0
86.906997,27.261805,0
86.907255,27.262043,0
86.907502,27.262196,0
86.907984,27.262272,0
86.908446,27.262377,0
86.908671,27.262444,0
86.908821,27.26252,0
86.909046,27.262577,0
86.912746,27.265756,0
86.916522,27.267282,0
86.919269,27.269113,0
86.924762,27.268808,0
86.930255,27.267892,0
86.934718,27.267282,0
86.940555,27.265756,0
86.945361,27.265756,0
86.947764,27.269113,0
86.952914,27.272165,0
86.956004,27.276132,0
86.960467,27.277658,0
86.963557,27.281319,0
86.965617,27.285286,0
86.965617,27.289252,0
86.965274,27.294134,0
86.967677,27.297795,0
86.97317,27.299931,0
86.982097,27.305117,0
86.984347,27.300434,0
86.985764,27.301768,0
86.986536,27.303256,0
86.98645,27.304972,0
86.985892,27.306535,0
86.98542,27.307603,0
86.985411,27.307608,0
86.986184,27.307489,0
86.987343,27.305506,0
86.989574,27.305658,0
86.992149,27.306345,0
86.994123,27.306878,0
86.996098,27.30726,0
86.998029,27.307336,0
87.000003,27.307489,0
87.00129,27.307984,0
87.002835,27.307946,0
87.004509,27.307984,0
87.005625,27.308518,0
87.008414,27.309357,0
87.00953,27.310272,0
87.010646,27.311454,0
87.012234,27.311874,0
87.012835,27.311836,0
</coordinates>
</LineString>
</Placemark>
</Folder>
<Folder>
<name>Points</name>
<Placemark>
<name>km00</name>
<styleUrl>#icon-1899-DB4436-nodesc</styleUrl>
<Point>
<coordinates>
86.912857,27.170995,0
</coordinates>
</Point>
</Placemark>
<Placemark>
<name>km01</name>
<styleUrl>#icon-1899-DB4436-nodesc</styleUrl>
<Point>
<coordinates>
86.904844,27.169784,0
</coordinates>
</Point>
</Placemark>
<Placemark>
<name>km02</name>
<styleUrl>#icon-1899-DB4436-nodesc</styleUrl>
<Point>
<coordinates>
86.910418,27.176823,0
</coordinates>
</Point>
</Placemark>
<Placemark>
<name>km03</name>
<styleUrl>#icon-1899-DB4436-nodesc</styleUrl>
<Point>
<coordinates>
86.915936,27.182429,0
</coordinates>
</Point>
</Placemark>
<Placemark>
<name>km04</name>
<styleUrl>#icon-1899-DB4436-nodesc</styleUrl>
<Point>
<coordinates>
86.920942,27.189754,0
</coordinates>
</Point>
</Placemark>
<Placemark>
<name>km05</name>
<styleUrl>#icon-1899-DB4436-nodesc</styleUrl>
<Point>
<coordinates>
86.925553,27.196665,0
</coordinates>
</Point>
</Placemark>
<Placemark>
<name>km06</name>
<styleUrl>#icon-1899-DB4436-nodesc</styleUrl>
<Point>
<coordinates>
86.929326,27.204383,0
</coordinates>
</Point>
</Placemark>
<Placemark>
<name>km07</name>
<styleUrl>#icon-1899-DB4436-nodesc</styleUrl>
<Point>
<coordinates>
86.928443,27.213015,0
</coordinates>
</Point>
</Placemark>
<Placemark>
<name>km08</name>
<styleUrl>#icon-1899-DB4436-nodesc</styleUrl>
<Point>
<coordinates>
86.927331,27.221864,0
</coordinates>
</Point>
</Placemark>
<Placemark>
<name>km09</name>
<styleUrl>#icon-1899-DB4436-nodesc</styleUrl>
<Point>
<coordinates>
86.921617,27.227789,0
</coordinates>
</Point>
</Placemark>
<Placemark>
<name>km10</name>
<styleUrl>#icon-1899-DB4436-nodesc</styleUrl>
<Point>
<coordinates>
86.913428,27.231157,0
</coordinates>
</Point>
</Placemark>
<Placemark>
<name>km11</name>
<styleUrl>#icon-1899-DB4436-nodesc</styleUrl>
<Point>
<coordinates>
86.907559,27.238138,0
</coordinates>
</Point>
</Placemark>
<Placemark>
<name>km12</name>
<styleUrl>#icon-1899-DB4436-nodesc</styleUrl>
<Point>
<coordinates>
86.903911,27.245856,0
</coordinates>
</Point>
</Placemark>
<Placemark>
<name>km13</name>
<styleUrl>#icon-1899-DB4436-nodesc</styleUrl>
<Point>
<coordinates>
86.897835,27.25182,0
</coordinates>
</Point>
</Placemark>
<Placemark>
<name>km14</name>
<styleUrl>#icon-1899-DB4436-nodesc</styleUrl>
<Point>
<coordinates>
86.903242,27.258174,0
</coordinates>
</Point>
</Placemark>
<Placemark>
<name>km15</name>
<styleUrl>#icon-1899-DB4436-nodesc</styleUrl>
<Point>
<coordinates>
86.910504,27.26383,0
</coordinates>
</Point>
</Placemark>
<Placemark>
<name>km16</name>
<styleUrl>#icon-1899-DB4436-nodesc</styleUrl>
<Point>
<coordinates>
86.918794,27.268797,0
</coordinates>
</Point>
</Placemark>
<Placemark>
<name>km17</name>
<styleUrl>#icon-1899-DB4436-nodesc</styleUrl>
<Point>
<coordinates>
86.928702,27.268151,0
</coordinates>
</Point>
</Placemark>
<Placemark>
<name>km18</name>
<styleUrl>#icon-1899-DB4436-nodesc</styleUrl>
<Point>
<coordinates>
86.938566,27.266276,0
</coordinates>
</Point>
</Placemark>
<Placemark>
<name>km20</name>
<styleUrl>#icon-1899-DB4436-nodesc</styleUrl>
<Point>
<coordinates>
86.954433,27.274114,0
</coordinates>
</Point>
</Placemark>
<Placemark>
<name>km21</name>
<styleUrl>#icon-1899-DB4436-nodesc</styleUrl>
<Point>
<coordinates>
86.962006,27.279481,0
</coordinates>
</Point>
</Placemark>
<Placemark>
<name>km19</name>
<styleUrl>#icon-1899-DB4436-nodesc</styleUrl>
<Point>
<coordinates>
86.947093,27.268176,0
</coordinates>
</Point>
</Placemark>
<Placemark>
<name>km22</name>
<styleUrl>#icon-1899-DB4436-nodesc</styleUrl>
<Point>
<coordinates>
86.965617,27.287602,0
</coordinates>
</Point>
</Placemark>
<Placemark>
<name>km23</name>
<styleUrl>#icon-1899-DB4436-nodesc</styleUrl>
<Point>
<coordinates>
86.966658,27.296243,0
</coordinates>
</Point>
</Placemark>
<Placemark>
<name>km24</name>
<styleUrl>#icon-1899-DB4436-nodesc</styleUrl>
<Point>
<coordinates>
86.974921,27.300948,0
</coordinates>
</Point>
</Placemark>
<Placemark>
<name>km25</name>
<styleUrl>#icon-1899-DB4436-nodesc</styleUrl>
<Point>
<coordinates>
86.9827,27.303862,0
</coordinates>
</Point>
</Placemark>
<Placemark>
<name>km26</name>
<styleUrl>#icon-1899-DB4436-nodesc</styleUrl>
<Point>
<coordinates>
86.986428,27.305033,0
</coordinates>
</Point>
</Placemark>
<Placemark>
<name>km28</name>
<styleUrl>#icon-1899-DB4436-nodesc</styleUrl>
<Point>
<coordinates>
86.970647,27.315209,0
</coordinates>
</Point>
</Placemark>
<Placemark>
<name>km27</name>
<styleUrl>#icon-1899-DB4436-nodesc</styleUrl>
<Point>
<coordinates>
86.9794,27.310847,0
</coordinates>
</Point>
</Placemark>
<Placemark>
<name>km29</name>
<styleUrl>#icon-1899-DB4436-nodesc</styleUrl>
<Point>
<coordinates>
86.96529,27.322564,0
</coordinates>
</Point>
</Placemark>
<Placemark>
<name>km30</name>
<styleUrl>#icon-1899-DB4436-nodesc</styleUrl>
<Point>
<coordinates>
86.957857,27.328615,0
</coordinates>
</Point>
</Placemark>
<Placemark>
<name>km31</name>
<styleUrl>#icon-1899-DB4436-nodesc</styleUrl>
<Point>
<coordinates>
86.951094,27.335293,0
</coordinates>
</Point>
</Placemark>
<Placemark>
<name>km32</name>
<styleUrl>#icon-1899-DB4436-nodesc</styleUrl>
<Point>
<coordinates>
86.949256,27.343332,0
</coordinates>
</Point>
</Placemark>
<Placemark>
<name>km34</name>
<styleUrl>#icon-1899-DB4436-nodesc</styleUrl>
<Point>
<coordinates>
86.93901,27.354145,0
</coordinates>
</Point>
</Placemark>
<Placemark>
<name>km33</name>
<styleUrl>#icon-1899-DB4436-nodesc</styleUrl>
<Point>
<coordinates>
86.947731,27.351374,0
</coordinates>
</Point>
</Placemark>
<Placemark>
<name>km35</name>
<styleUrl>#icon-1899-DB4436-nodesc</styleUrl>
<Point>
<coordinates>
86.930633,27.358166,0
</coordinates>
</Point>
</Placemark>
<Placemark>
<name>km36</name>
<styleUrl>#icon-1899-DB4436-nodesc</styleUrl>
<Point>
<coordinates>
86.926854,27.366426,0
</coordinates>
</Point>
</Placemark>
<Placemark>
<name>km37</name>
<styleUrl>#icon-1899-DB4436-nodesc</styleUrl>
<Point>
<coordinates>
86.922305,27.372781,0
</coordinates>
</Point>
</Placemark>
<Placemark>
<name>km38</name>
<styleUrl>#icon-1899-DB4436-nodesc</styleUrl>
<Point>
<coordinates>
86.928579,27.379699,0
</coordinates>
</Point>
</Placemark>
<Placemark>
<name>km39</name>
<styleUrl>#icon-1899-DB4436-nodesc</styleUrl>
<Point>
<coordinates>
86.930779,27.386414,0
</coordinates>
</Point>
</Placemark>
<Placemark>
<name>km40</name>
<styleUrl>#icon-1899-DB4436-nodesc</styleUrl>
<Point>
<coordinates>
86.922159,27.390587,0
</coordinates>
</Point>
</Placemark>
<Placemark>
<name>km41</name>
<styleUrl>#icon-1899-DB4436-nodesc</styleUrl>
<Point>
<coordinates>
86.917042,27.39823,0
</coordinates>
</Point>
</Placemark>
<Placemark>
<name>km42</name>
<styleUrl>#icon-1899-DB4436-nodesc</styleUrl>
<Point>
<coordinates>
86.914025,27.40679,0
</coordinates>
</Point>
</Placemark>
<Placemark>
<name>km43</name>
<styleUrl>#icon-1899-DB4436-nodesc</styleUrl>
<Point>
<coordinates>
86.91125,27.415426,0
</coordinates>
</Point>
</Placemark>
<Placemark>
<name>km44</name>
<styleUrl>#icon-1899-DB4436-nodesc</styleUrl>
<Point>
<coordinates>
86.90806,27.423937,0
</coordinates>
</Point>
</Placemark>
<Placemark>
<name>km45</name>
<styleUrl>#icon-1899-DB4436-nodesc</styleUrl>
<Point>
<coordinates>
86.906983,27.432755,0
</coordinates>
</Point>
</Placemark>
<Placemark>
<name>km46</name>
<styleUrl>#icon-1899-DB4436-nodesc</styleUrl>
<Point>
<coordinates>
86.913773,27.43884,0
</coordinates>
</Point>
</Placemark>
<Placemark>
<name>km47</name>
<styleUrl>#icon-1899-DB4436-nodesc</styleUrl>
<Point>
<coordinates>
86.923144,27.440654,0
</coordinates>
</Point>
</Placemark>
<Placemark>
<name>km48</name>
<styleUrl>#icon-1899-DB4436-nodesc</styleUrl>
<Point>
<coordinates>
86.931192,27.44503,0
</coordinates>
</Point>
</Placemark>
<Placemark>
<name>km49</name>
<styleUrl>#icon-1899-DB4436-nodesc</styleUrl>
<Point>
<coordinates>
86.938411,27.450574,0
</coordinates>
</Point>
</Placemark>
<Placemark>
<name>km50</name>
<styleUrl>#icon-1899-DB4436-nodesc</styleUrl>
<Point>
<coordinates>
86.941288,27.458742,0
</coordinates>
</Point>
</Placemark>
<Placemark>
<name>km51</name>
<styleUrl>#icon-1899-DB4436-nodesc</styleUrl>
<Point>
<coordinates>
86.941475,27.46056,0
</coordinates>
</Point>
</Placemark>
<Placemark>
<name>kmb00</name>
<styleUrl>#icon-1899-DB4436-nodesc</styleUrl>
<Point>
<coordinates>
86.9859,27.300949,0
</coordinates>
</Point>
</Placemark>
<Placemark>
<name>kmb01</name>
<styleUrl>#icon-1899-DB4436-nodesc</styleUrl>
<Point>
<coordinates>
86.992548,27.306622,0
</coordinates>
</Point>
</Placemark>
<Placemark>
<name>kmb02</name>
<styleUrl>#icon-1899-DB4436-nodesc</styleUrl>
<Point>
<coordinates>
87.002276,27.308975,0
</coordinates>
</Point>
</Placemark>
<Placemark>
<name>kmb03</name>
<styleUrl>#icon-1899-DB4436-nodesc</styleUrl>
<Point>
<coordinates>
87.011679,27.312016,0
</coordinates>
</Point>
</Placemark>
<Placemark>
<name>kmb04</name>
<styleUrl>#icon-1899-DB4436-nodesc</styleUrl>
<Point>
<coordinates>
87.01855,27.307849,0
</coordinates>
</Point>
</Placemark>
<Placemark>
<name>kmb05</name>
<styleUrl>#icon-1899-DB4436-nodesc</styleUrl>
<Point>
<coordinates>
87.025711,27.301575,0
</coordinates>
</Point>
</Placemark>
<Placemark>
<name>kmb06</name>
<styleUrl>#icon-1899-DB4436-nodesc</styleUrl>
<Point>
<coordinates>
87.029671,27.293777,0
</coordinates>
</Point>
</Placemark>
<Placemark>
<name>kmb07</name>
<styleUrl>#icon-1899-DB4436-nodesc</styleUrl>
<Point>
<coordinates>
87.034344,27.288596,0
</coordinates>
</Point>
</Placemark>
<Placemark>
<name>kmb08</name>
<styleUrl>#icon-1899-DB4436-nodesc</styleUrl>
<Point>
<coordinates>
87.044193,27.289119,0
</coordinates>
</Point>
</Placemark>
<Placemark>
<name>kmb09</name>
<styleUrl>#icon-1899-DB4436-nodesc</styleUrl>
<Point>
<coordinates>
87.049016,27.283802,0
</coordinates>
</Point>
</Placemark>
<Placemark>
<name>kmb10</name>
<styleUrl>#icon-1899-DB4436-nodesc</styleUrl>
<Point>
<coordinates>
87.046709,27.275219,0
</coordinates>
</Point>
</Placemark>
<Placemark>
<name>kmb11</name>
<styleUrl>#icon-1899-DB4436-nodesc</styleUrl>
<Point>
<coordinates>
87.041931,27.267645,0
</coordinates>
</Point>
</Placemark>
<Placemark>
<name>kmb12</name>
<styleUrl>#icon-1899-DB4436-nodesc</styleUrl>
<Point>
<coordinates>
87.036211,27.260555,0
</coordinates>
</Point>
</Placemark>
<Placemark>
<name>kmb13</name>
<styleUrl>#icon-1899-DB4436-nodesc</styleUrl>
<Point>
<coordinates>
87.036802,27.251707,0
</coordinates>
</Point>
</Placemark>
<Placemark>
<name>kmb14</name>
<styleUrl>#icon-1899-DB4436-nodesc</styleUrl>
<Point>
<coordinates>
87.040405,27.245334,0
</coordinates>
</Point>
</Placemark>
<Placemark>
<name>kmb15</name>
<styleUrl>#icon-1899-DB4436-nodesc</styleUrl>
<Point>
<coordinates>
87.049554,27.24219,0
</coordinates>
</Point>
</Placemark>
<Placemark>
<name>kmb16</name>
<styleUrl>#icon-1899-DB4436-nodesc</styleUrl>
<Point>
<coordinates>
87.056196,27.235829,0
</coordinates>
</Point>
</Placemark>
<Placemark>
<name>kmb18</name>
<styleUrl>#icon-1899-DB4436-nodesc</styleUrl>
<Point>
<coordinates>
87.05849,27.218978,0
</coordinates>
</Point>
</Placemark>
<Placemark>
<name>kmb17</name>
<styleUrl>#icon-1899-DB4436-nodesc</styleUrl>
<Point>
<coordinates>
87.059675,27.227668,0
</coordinates>
</Point>
</Placemark>
<Placemark>
<name>kmb19</name>
<styleUrl>#icon-1899-DB4436-nodesc</styleUrl>
<Point>
<coordinates>
87.056302,27.210317,0
</coordinates>
</Point>
</Placemark>
<Placemark>
<name>kmb20</name>
<styleUrl>#icon-1899-DB4436-nodesc</styleUrl>
<Point>
<coordinates>
87.05194,27.20268,0
</coordinates>
</Point>
</Placemark>
<Placemark>
<name>kmb21</name>
<styleUrl>#icon-1899-DB4436-nodesc</styleUrl>
<Point>
<coordinates>
87.044628,27.196496,0
</coordinates>
</Point>
</Placemark>
<Placemark>
<name>kmb22</name>
<styleUrl>#icon-1899-DB4436-nodesc</styleUrl>
<Point>
<coordinates>
87.045749,27.188389,0
</coordinates>
</Point>
</Placemark>
<Placemark>
<name>kmb23</name>
<styleUrl>#icon-1899-DB4436-nodesc</styleUrl>
<Point>
<coordinates>
87.046128,27.182614,0
</coordinates>
</Point>
</Placemark>
</Folder>
<Folder>
<name>LineStrings</name>
<Placemark>
<name>Line 1</name>
<styleUrl>#line-F0F000-8000-nodesc</styleUrl>
<LineString>
<tessellate>1</tessellate>
<coordinates>
86.9859,27.300949,0
86.98766,27.304953,0
86.991007,27.306364,0
86.996715,27.307318,0
87.001779,27.308881,0
87.007058,27.309872,0
87.010448,27.311588,0
87.014396,27.312961,0
87.017701,27.30972,0
87.018774,27.307356,0
87.02637,27.301026,0
87.027393,27.30004,0
87.028595,27.298324,0
87.02838,27.296302,0
87.029196,27.295044,0
87.030097,27.292641,0
87.030612,27.288217,0
87.035118,27.288675,0
87.040869,27.289857,0
87.049452,27.28795,0
87.048422,27.278148,0
87.048209,27.277726,0
87.047136,27.275819,0
87.044775,27.272501,0
87.04396,27.269182,0
87.040184,27.266321,0
87.036622,27.262506,0
87.035763,27.258424,0
87.036922,27.252091,0
87.035592,27.247818,0
87.04572,27.242591,0
87.048638,27.242629,0
87.053015,27.240531,0
87.056019,27.236066,0
87.059152,27.231869,0
87.059495,27.229885,0
87.060096,27.222482,0
87.056728,27.215135,0
87.055998,27.206891,0
87.050848,27.201548,0
87.043939,27.195936,0
87.043639,27.194104,0
87.043811,27.193226,0
87.044884,27.190898,0
87.045956,27.189867,0
87.045613,27.187424,0
87.046643,27.186813,0
87.046128,27.182614,0
</coordinates>
</LineString>
</Placemark>
<Placemark>
<name/>
<styleUrl>#line-0097A7-2000-nodesc</styleUrl>
<LineString>
<tessellate>1</tessellate>
<coordinates>
86.924622,27.440791,0
86.924621,27.440785,0
86.92467,27.44078,0
86.92478,27.44087,0
86.925,27.44095,0
86.92523,27.44087,0
86.92547,27.44083,0
86.92575,27.4409,0
86.92642,27.44092,0
86.92678,27.44104,0
86.9272,27.44107,0
86.92755,27.44104,0
86.9277,27.44106,0
86.92789,27.44111,0
86.92793,27.44109,0
86.92838,27.44119,0
86.92895,27.44138,0
86.92943,27.44148,0
86.92953,27.44157,0
86.9297,27.44158,0
86.92983,27.44164,0
86.92999,27.44162,0
86.93038,27.44174,0
86.93044,27.44181,0
86.93059,27.44189,0
86.93066,27.44199,0
86.93106,27.44215,0
86.93114,27.44223,0
86.93118,27.44248,0
86.931167,27.442548,0
86.93118,27.442555,0
86.93118,27.442568,0
86.931161,27.442582,0
86.931158,27.442599,0
86.93118,27.442615,0
86.93118,27.44263,0
86.931162,27.442624,0
86.93115,27.44264,0
86.93124,27.44284,0
86.9314,27.44305,0
86.93153,27.44317,0
86.93192,27.44345,0
86.93211,27.44353,0
86.932347,27.443772,0
86.932346,27.443772,0
86.93252,27.44395,0
86.93252,27.444,0
86.93266,27.44417,0
86.93275,27.44421,0
86.93295,27.44438,0
86.93301,27.44462,0
86.93305,27.44467,0
86.93311,27.44483,0
86.93324,27.44499,0
86.93336,27.44532,0
86.93338,27.44549,0
86.93361,27.4458,0
86.93408,27.44621,0
86.93433,27.44634,0
86.9345,27.44658,0
86.93476,27.44664,0
86.935,27.4466,0
86.93509,27.44661,0
86.93508,27.4467,0
86.93544,27.44705,0
86.93562,27.44726,0
86.93575,27.44734,0
86.93593,27.44749,0
86.93627,27.44762,0
86.93663,27.44798,0
86.93677,27.44827,0
86.93678,27.44843,0
86.93702,27.44887,0
86.93724,27.44905,0
86.9373,27.44918,0
86.93747,27.44933,0
86.93773,27.44939,0
86.9379,27.44955,0
86.93797,27.4496,0
86.93812,27.44979,0
86.93832,27.45021,0
86.93847,27.45041,0
86.93846,27.45051,0
86.93853,27.45061,0
86.9385,27.45064,0
86.93853,27.45066,0
86.93852,27.45075,0
86.93854,27.45081,0
86.9385,27.45086,0
86.93856,27.45086,0
86.93861,27.45091,0
86.93856,27.45101,0
86.93863,27.45112,0
86.93872,27.45119,0
86.93876,27.45128,0
86.93874,27.45132,0
86.93868,27.45131,0
86.93868,27.45139,0
86.93875,27.45147,0
86.93878,27.45162,0
86.93874,27.45165,0
86.93874,27.4517,0
86.93877,27.45173,0
86.9387,27.45176,0
86.93885,27.45184,0
86.93882,27.45211,0
86.93876,27.45214,0
86.9388,27.45216,0
86.93881,27.45226,0
86.93876,27.45233,0
86.93876,27.45239,0
86.93881,27.45247,0
86.93878,27.4525,0
86.93879,27.45255,0
86.93875,27.45259,0
86.93876,27.45262,0
86.93882,27.45266,0
86.9388,27.45271,0
86.93882,27.45275,0
86.93873,27.45283,0
86.93875,27.45287,0
86.93871,27.4529,0
86.93873,27.45294,0
86.93902,27.45306,0
86.9391,27.45305,0
86.93924,27.4531,0
86.93939,27.4532,0
86.93933,27.45321,0
86.93944,27.45328,0
86.9395,27.45327,0
86.93959,27.45317,0
86.93979,27.45318,0
86.93981,27.45321,0
86.939805,27.453224,0
86.939806,27.453223,0
86.93975,27.45339,0
86.93977,27.45343,0
86.93972,27.45352,0
86.93973,27.4536,0
86.93968,27.45366,0
86.93969,27.4537,0
86.93965,27.45372,0
86.93965,27.45381,0
86.93957,27.45387,0
86.93965,27.45407,0
86.93966,27.45415,0
86.93963,27.45418,0
86.93968,27.45421,0
86.93967,27.45428,0
86.93963,27.45431,0
86.93957,27.45431,0
86.93971,27.45468,0
86.93966,27.45476,0
86.93961,27.45478,0
86.93951,27.45474,0
86.93945,27.45476,0
86.93948,27.45485,0
86.93941,27.45499,0
86.93944,27.45498,0
86.93959,27.45517,0
86.93958,27.4552,0
86.93954,27.4552,0
86.9395,27.45524,0
86.93954,27.45534,0
86.93953,27.45538,0
86.93938,27.45539,0
86.93936,27.45529,0
86.93929,27.45526,0
86.93926,27.45534,0
86.93921,27.45537,0
86.93919,27.4555,0
86.93914,27.4555,0
86.93913,27.45559,0
86.93904,27.4556,0
86.939,27.45556,0
86.93893,27.45567,0
86.93895,27.45571,0
86.93903,27.45571,0
86.93907,27.45577,0
86.93932,27.45593,0
86.93937,27.45593,0
86.93938,27.456,0
86.93941,27.45601,0
86.93952,27.45607,0
86.93957,27.45623,0
86.93958,27.45645,0
86.9396,27.45651,0
86.93969,27.45655,0
86.9397,27.45687,0
86.93977,27.45697,0
86.93985,27.45699,0
86.93981,27.45702,0
86.93983,27.45702,0
86.93982,27.45716,0
86.93985,27.45724,0
86.93982,27.45722,0
86.93977,27.45724,0
86.93981,27.45734,0
86.93985,27.45737,0
86.93988,27.45735,0
86.93991,27.45746,0
86.93988,27.45752,0
86.93988,27.45766,0
86.93977,27.45777,0
86.93981,27.45783,0
86.93979,27.45789,0
86.93983,27.45794,0
86.93977,27.45808,0
86.93978,27.45825,0
86.93992,27.45838,0
86.93996,27.45836,0
86.94006,27.45842,0
86.94012,27.45854,0
86.94038,27.4588,0
86.9403,27.45883,0
86.94028,27.45891,0
86.94038,27.45893,0
86.94044,27.459,0
86.94055,27.45908,0
86.94065,27.45939,0
86.940405,27.459782,0
86.940415,27.459786,0
86.940406,27.459781,0
86.940405,27.459782,0
</coordinates>
</LineString>
</Placemark>
<Placemark>
<name>Mundum trail tt gpx</name>
<styleUrl>#line-FF0000-2000-nodesc</styleUrl>
<LineString>
<tessellate>1</tessellate>
<coordinates>
86.912857,27.170995,0
86.912428,27.16943,0
86.911526,27.168819,0
86.910797,27.169124,0
86.909638,27.169468,0
86.904789,27.169544,0
86.905132,27.171033,0
86.907149,27.17214,0
86.909123,27.174508,0
86.909853,27.176378,0
86.912084,27.178134,0
86.91187,27.18031,0
86.914273,27.180196,0
86.916633,27.183365,0
86.919036,27.184853,0
86.919637,27.186495,0
86.920882,27.188633,0
86.920968,27.190236,0
86.920968,27.192106,0
86.921182,27.193671,0
86.922513,27.193939,0
86.927705,27.198596,0
86.928692,27.199588,0
86.928349,27.201191,0
86.930066,27.206802,0
86.928848,27.209056,0
86.928333,27.214094,0
86.928333,27.215849,0
86.928333,27.217261,0
86.927646,27.219169,0
86.92726,27.221688,0
86.927818,27.223062,0
86.926359,27.225199,0
86.925544,27.225466,0
86.924342,27.227031,0
86.922625,27.227565,0
86.921595,27.227794,0
86.920093,27.227794,0
86.919278,27.228252,0
86.918724,27.228684,0
86.917952,27.229027,0
86.917008,27.229333,0
86.915806,27.229104,0
86.914991,27.228989,0
86.914347,27.230058,0
86.913918,27.230859,0
86.913102,27.231355,0
86.912845,27.232004,0
86.911901,27.233072,0
86.911514,27.233683,0
86.910399,27.234751,0
86.90997,27.235705,0
86.909497,27.236239,0
86.909111,27.236697,0
86.908725,27.237498,0
86.908296,27.237956,0
86.907523,27.238147,0
86.906708,27.238376,0
86.906322,27.239025,0
86.906021,27.239979,0
86.905721,27.240704,0
86.905678,27.241505,0
86.905463,27.242726,0
86.905474,27.242878,0
86.905292,27.243203,0
86.905227,27.24347,0
86.905142,27.243794,0
86.905056,27.243966,0
86.904798,27.244195,0
86.904648,27.2445,0
86.904691,27.244634,0
86.904562,27.244777,0
86.904433,27.245034,0
86.904455,27.245349,0
86.904476,27.245492,0
86.90424,27.245692,0
86.903876,27.245874,0
86.903725,27.246074,0
86.903618,27.246246,0
86.903382,27.246541,0
86.90321,27.246799,0
86.903049,27.24699,0
86.902942,27.247085,0
86.902867,27.247218,0
86.902534,27.247495,0
86.90218,27.247686,0
86.90203,27.247829,0
86.901773,27.248144,0
86.901601,27.248363,0
86.901354,27.248554,0
86.901172,27.248678,0
86.900968,27.248935,0
86.900861,27.249164,0
86.900743,27.249307,0
86.900603,27.24967,0
86.900496,27.249794,0
86.899734,27.249842,0
86.899434,27.249803,0
86.89909,27.249803,0
86.898919,27.24986,0
86.898694,27.249994,0
86.898361,27.249975,0
86.898157,27.250204,0
86.898071,27.250433,0
86.897889,27.250833,0
86.89776,27.251253,0
86.897846,27.251902,0
86.898318,27.252512,0
86.898618,27.253313,0
86.898747,27.253847,0
86.898618,27.254649,0
86.898618,27.25564,0
86.899262,27.255908,0
86.899734,27.256594,0
86.900163,27.256938,0
86.900807,27.257281,0
86.901365,27.257472,0
86.902309,27.257739,0
86.903039,27.258044,0
86.904112,27.258731,0
86.904422,27.259048,0
86.904551,27.259249,0
86.904626,27.259525,0
86.904712,27.259821,0
86.905012,27.260021,0
86.905334,27.260202,0
86.905506,27.260222,0
86.905742,27.260374,0
86.905828,27.26045,0
86.906053,27.260546,0
86.906182,27.260832,0
86.906439,27.261089,0
86.906579,27.261309,0
86.906697,27.261566,0
86.906997,27.261805,0
86.907255,27.262043,0
86.907502,27.262196,0
86.907984,27.262272,0
86.908446,27.262377,0
86.908671,27.262444,0
86.908821,27.26252,0
86.909046,27.262577,0
86.912746,27.265756,0
86.916522,27.267282,0
86.919269,27.269113,0
86.924762,27.268808,0
86.930255,27.267892,0
86.934718,27.267282,0
86.940555,27.265756,0
86.945361,27.265756,0
86.947764,27.269113,0
86.952914,27.272165,0
86.956004,27.276132,0
86.960467,27.277658,0
86.963557,27.281319,0
86.965617,27.285286,0
86.965617,27.289252,0
86.965274,27.294134,0
86.967677,27.297795,0
86.97317,27.299931,0
86.982097,27.305117,0
86.984347,27.300434,0
86.985764,27.301768,0
86.986536,27.303256,0
86.98645,27.304972,0
86.985892,27.306535,0
86.98542,27.307603,0
86.979768,27.310711,0
86.975648,27.312236,0
86.971184,27.314676,0
86.967751,27.318075,0
86.966378,27.321736,0
86.963975,27.323566,0
86.960885,27.325701,0
86.956765,27.329666,0
86.953332,27.333021,0
86.948525,27.337901,0
86.948525,27.34095,0
86.950585,27.34766,0
86.948525,27.350404,0
86.945779,27.353758,0
86.939256,27.354063,0
86.931016,27.356808,0
86.929642,27.361686,0
86.927239,27.365955,0
86.924493,27.369309,0
86.921059,27.371748,0
86.926209,27.376016,0
86.928956,27.380285,0
86.932046,27.382419,0
86.932046,27.386077,0
86.925179,27.387906,0
86.921403,27.391259,0
86.918313,27.395222,0
86.915223,27.402537,0
86.91385,27.407414,0
86.91179,27.41351,0
86.910416,27.418386,0
86.9087,27.422348,0
86.906983,27.426614,0
86.906983,27.429966,0
86.906983,27.433318,0
86.907881,27.433869,0
86.908868,27.435736,0
86.909984,27.436574,0
86.913589,27.438554,0
86.914276,27.439621,0
86.916078,27.44004,0
86.91728,27.44023,0
86.918181,27.44004,0
86.919469,27.44004,0
86.920713,27.440116,0
86.921915,27.440573,0
86.922644,27.440725,0
86.923975,27.440535,0
86.924962,27.440801,0
86.926979,27.441601,0
86.927622,27.44202,0
86.928438,27.442515,0
86.928867,27.443696,0
86.929425,27.444343,0
86.930283,27.444762,0
86.931184,27.445029,0
86.931614,27.445105,0
86.932729,27.445372,0
86.933159,27.445638,0
86.933502,27.446133,0
86.933674,27.446476,0
86.934146,27.446705,0
86.935133,27.447276,0
86.937021,27.44838,0
86.937793,27.448914,0
86.938308,27.450056,0
86.938566,27.451351,0
86.938652,27.451884,0
86.938866,27.45276,0
86.939081,27.453293,0
86.939682,27.45356,0
86.93981,27.45394,0
86.939853,27.454702,0
86.939853,27.455197,0
86.940197,27.455921,0
86.940411,27.45653,0
86.940723,27.456989,0
86.940885,27.457266,0
86.940906,27.45758,0
86.941239,27.45779,0
86.941261,27.458151,0
86.941389,27.458342,0
86.941271,27.458808,0
86.941057,27.459027,0
86.941046,27.459227,0
86.94111,27.459532,0
86.941068,27.459913,0
86.941068,27.460046,0
86.941443,27.460227,0
86.941475,27.460408,0
86.941475,27.46056,0
</coordinates>
</LineString>
</Placemark>
<Placemark>
<name/>
<styleUrl>#line-FF0000-2000-nodesc</styleUrl>
<LineString>
<tessellate>1</tessellate>
<coordinates>
86.926339,27.385353,0
86.926322,27.385356,0
86.92636,27.38551,0
86.9263,27.38577,0
86.92623,27.38587,0
86.92599,27.38593,0
86.92568,27.38612,0
86.92541,27.38621,0
86.92485,27.38623,0
86.92424,27.38615,0
86.92417,27.38625,0
86.92407,27.38684,0
86.92409,27.3875,0
86.92392,27.38763,0
86.92383,27.38766,0
86.92356,27.38774,0
86.92321,27.38775,0
86.92282,27.38771,0
86.9227,27.38777,0
86.92253,27.38812,0
86.92247,27.38845,0
86.92235,27.38875,0
86.92234,27.38894,0
86.9225,27.389157,0
86.9225,27.389156,0
86.92254,27.38921,0
86.92222,27.38951,0
86.92208,27.38974,0
86.92206,27.38982,0
86.92208,27.38989,0
86.92229,27.39,0
86.92233,27.39006,0
86.92214,27.39027,0
86.922117,27.390341,0
86.92196,27.39082,0
86.9218,27.39108,0
86.92158,27.39128,0
86.92144,27.39152,0
86.9212,27.3917,0
86.9209,27.39205,0
86.92072,27.39236,0
86.92058,27.39245,0
86.92045,27.39262,0
86.92034,27.39268,0
86.92025,27.39285,0
86.91998,27.39306,0
86.9193,27.39344,0
86.91914,27.39381,0
86.91903,27.39395,0
86.91904,27.39418,0
86.91896,27.3943,0
86.91893,27.39445,0
86.9188,27.39466,0
86.91856,27.39524,0
86.91854,27.39535,0
86.91844,27.39552,0
86.91845,27.39568,0
86.91838,27.39578,0
86.91835,27.39598,0
86.91839,27.39622,0
86.91832,27.39652,0
86.91829,27.39659,0
86.91813,27.3967,0
86.91806,27.39701,0
86.91787,27.39752,0
86.91786,27.39769,0
86.91793,27.39778,0
86.91799,27.39804,0
86.91798,27.39814,0
86.91801,27.39825,0
86.91798,27.39833,0
86.91776,27.39852,0
86.91769,27.39862,0
86.91763,27.39862,0
86.91756,27.39873,0
86.91757,27.39881,0
86.91755,27.39885,0
86.91751,27.39888,0
86.91737,27.39915,0
86.9173,27.39923,0
86.91711,27.39931,0
86.91682,27.39933,0
86.91675,27.39938,0
86.91657,27.39943,0
86.91643,27.3995,0
86.91633,27.39968,0
86.91627,27.40048,0
86.9161,27.40087,0
86.91591,27.40098,0
86.91533,27.40154,0
86.91487,27.4018,0
86.91424,27.40238,0
86.91378,27.40266,0
86.91313,27.40277,0
86.91247,27.40296,0
86.91224,27.40307,0
86.91201,27.40329,0
86.91185,27.40363,0
86.91159,27.40399,0
86.91162,27.40462,0
86.91169,27.40483,0
86.91199,27.405,0
86.91277,27.40522,0
86.91297,27.40536,0
86.91308,27.40548,0
86.91317,27.40569,0
86.91344,27.40602,0
86.91366,27.40659,0
86.913762,27.406675,0
86.913743,27.40669,0
</coordinates>
</LineString>
</Placemark>
<Placemark>
<name/>
<styleUrl>#line-FF0000-2000-nodesc</styleUrl>
<LineString>
<tessellate>1</tessellate>
<coordinates>
86.953998,27.332752,0
86.95401,27.33274,0
86.95394,27.33284,0
86.95372,27.33299,0
86.95347,27.33298,0
86.95339,27.33302,0
86.95309,27.33301,0
86.95296,27.33315,0
86.95288,27.33315,0
86.9528,27.33325,0
86.95275,27.33319,0
86.95266,27.33327,0
86.95256,27.33325,0
86.95249,27.33329,0
86.9524,27.33324,0
86.95232,27.33324,0
86.95233,27.3333,0
86.95214,27.33331,0
86.95214,27.33337,0
86.95203,27.33336,0
86.95195,27.33344,0
86.95183,27.33348,0
86.95158,27.33348,0
86.9515,27.33352,0
86.95148,27.33368,0
86.95125,27.33385,0
86.95112,27.33391,0
86.95094,27.33393,0
86.9506,27.33409,0
86.95052,27.33441,0
86.95026,27.33457,0
86.95023,27.33474,0
86.95016,27.33492,0
86.94993,27.33529,0
86.9497,27.33548,0
86.94944,27.33561,0
86.9491,27.33607,0
86.94878,27.3363,0
86.94859,27.33633,0
86.94831,27.33633,0
86.94813,27.33637,0
86.94746,27.33672,0
86.94732,27.33683,0
86.947318,27.336835,0
86.94749,27.3369,0
86.94795,27.33696,0
86.94815,27.33709,0
86.94835,27.33731,0
86.94848,27.33767,0
86.94851,27.33792,0
86.94862,27.33804,0
86.94862,27.33811,0
86.94913,27.33869,0
86.94921,27.33884,0
86.9493,27.33892,0
86.94943,27.33895,0
86.9495,27.33894,0
86.94961,27.33886,0
86.9497,27.33882,0
86.95011,27.33898,0
86.95023,27.33906,0
86.95045,27.33929,0
86.95051,27.33939,0
86.95052,27.33956,0
86.95047,27.33987,0
86.95058,27.34003,0
86.95061,27.34024,0
86.9507,27.34052,0
86.95099,27.34118,0
86.95104,27.34149,0
86.95105,27.34183,0
86.95113,27.34197,0
86.9514,27.34212,0
86.951405,27.342152,0
86.951405,27.342151,0
86.95143,27.34232,0
86.95121,27.34292,0
86.95127,27.34295,0
86.95133,27.34305,0
86.95133,27.34325,0
86.95108,27.34348,0
86.95101,27.34359,0
86.95099,27.34364,0
86.95102,27.3437,0
86.95098,27.34377,0
86.95098,27.34384,0
86.95077,27.34404,0
86.95064,27.34413,0
86.95044,27.34415,0
86.95032,27.34421,0
86.95029,27.34426,0
86.95029,27.34431,0
86.95039,27.34436,0
86.95047,27.34444,0
86.95053,27.34455,0
86.95053,27.34469,0
86.9505,27.34481,0
86.95013,27.34542,0
86.95015,27.34568,0
86.94993,27.34626,0
86.94958,27.34664,0
86.94905,27.34676,0
86.94898,27.34689,0
86.94897,27.34705,0
86.94912,27.34735,0
86.94911,27.34748,0
86.94906,27.34766,0
86.94907,27.34777,0
86.94891,27.34801,0
86.94886,27.34814,0
86.94884,27.34842,0
86.94879,27.34847,0
86.94868,27.34851,0
86.94847,27.34864,0
86.94845,27.34875,0
86.94836,27.3489,0
86.94826,27.34914,0
86.94815,27.34921,0
86.94781,27.34956,0
86.94758,27.34962,0
86.94751,27.34974,0
86.94749,27.35017,0
86.94746,27.35033,0
86.94737,27.35047,0
86.94725,27.35051,0
86.94721,27.35049,0
86.94718,27.35053,0
86.9471,27.3507,0
86.94708,27.35093,0
86.94694,27.35117,0
86.94677,27.35122,0
86.94658,27.35172,0
86.94626,27.35204,0
86.94622,27.35212,0
86.94604,27.35217,0
86.94591,27.35214,0
86.9458,27.35215,0
86.94567,27.35216,0
86.94558,27.35225,0
86.94536,27.35248,0
86.94491,27.35248,0
86.94447,27.35265,0
86.94422,27.35302,0
86.94365,27.35306,0
86.9431,27.35366,0
86.9421,27.354,0
86.94167,27.35366,0
86.94078,27.35388,0
86.94047,27.35414,0
86.93979,27.35369,0
86.93916,27.3538,0
86.9383,27.3532,0
86.93717,27.35367,0
86.9365,27.35359,0
86.93603,27.35389,0
86.93535,27.35378,0
86.93483,27.35397,0
86.93406,27.35373,0
86.93374,27.35449,0
86.93364,27.35521,0
86.93199,27.35682,0
86.9319,27.35761,0
86.93106,27.35894,0
86.9308,27.36122,0
86.93021,27.36208,0
86.930122,27.36266,0
86.930115,27.362656,0
86.930123,27.362657,0
86.930122,27.36266,0
</coordinates>
</LineString>
</Placemark>
<Placemark>
<name/>
<styleUrl>#line-FF0000-2000-nodesc</styleUrl>
<LineString>
<tessellate>1</tessellate>
<coordinates>
86.928484,27.199597,0
86.928469,27.199604,0
86.92915,27.20091,0
86.92857,27.20112,0
86.9291,27.20283,0
86.93016,27.20488,0
86.93042,27.20636,0
86.92924,27.20782,0
86.92861,27.21158,0
86.92849,27.21556,0
86.92848,27.21568,0
86.92777,27.21635,0
86.92771,27.21984,0
86.92883,27.22171,0
86.92816,27.2223,0
86.92822,27.22329,0
86.92606,27.22466,0
86.92438,27.2273,0
86.92383,27.22739,0
86.92076,27.22789,0
86.91764,27.22909,0
86.91472,27.23053,0
86.91423,27.23121,0
86.91252,27.23195,0
86.91273,27.23251,0
86.91052,27.23509,0
86.90823,27.23788,0
86.90688,27.23815,0
86.90542,27.24184,0
86.90552,27.24302,0
86.90481,27.24407,0
86.90454,27.24697,0
86.90516,27.25141,0
86.90539,27.25463,0
86.90544,27.25532,0
86.90511,27.25635,0
86.90732,27.25857,0
86.90694,27.25984,0
86.90687,27.26047,0
86.90831,27.26198,0
86.90973,27.26291,0
86.910174,27.264665,0
86.910173,27.264663,0
86.91018,27.26469,0
86.912,27.26608,0
86.91501,27.26713,0
86.91741,27.26824,0
86.91928,27.26801,0
86.92318,27.26848,0
86.92383,27.2685,0
86.92508,27.26854,0
86.92642,27.26822,0
86.92842,27.26862,0
86.93016,27.26818,0
86.93119,27.26824,0
86.93226,27.26732,0
86.9341,27.26761,0
86.9352,27.26726,0
86.93631,27.26667,0
86.93653,27.26608,0
86.939,27.26595,0
86.94061,27.26557,0
86.94275,27.26539,0
86.9455,27.26633,0
86.9458,27.26632,0
86.94709,27.26627,0
86.94788,27.26631,0
86.9482,27.26745,0
86.94966,27.26879,0
86.95045,27.26984,0
86.95084,27.27199,0
86.95356,27.27416,0
86.95395,27.27447,0
86.95701,27.27567,0
86.95889,27.27657,0
86.95887,27.27747,0
86.96301,27.28077,0
86.96494,27.28376,0
86.967,27.28578,0
86.96777,27.28698,0
86.96908,27.28899,0
86.96987,27.29078,0
86.97025,27.29369,0
86.97041,27.29497,0
86.97168,27.29745,0
86.97324,27.2998,0
86.97644,27.30182,0
86.9776,27.30203,0
86.97811,27.30394,0
86.9812,27.30422,0
86.98389,27.30466,0
86.986059,27.304803,0
86.986058,27.304803,0
86.98646,27.30483,0
86.98856,27.3055,0
86.98975,27.30669,0
86.990048,27.306995,0
86.990046,27.306993,0
86.990048,27.306995,0
</coordinates>
</LineString>
</Placemark>
<Placemark>
<name>Point 7</name>
<styleUrl>#icon-1899-0288D1-nodesc</styleUrl>
<Point>
<coordinates>
86.9355512,27.2671404,0
</coordinates>
</Point>
</Placemark>
</Folder>
<Folder>
<name>LineStrings</name>
<Placemark>
<name>maiyungtokulungpongkho</name>
<styleUrl>#line-0000FF-2000-nodesc</styleUrl>
<LineString>
<tessellate>1</tessellate>
<coordinates>
86.979994,27.299505,0
86.979693,27.301526,0
86.979747,27.30268,0
86.980391,27.303929,0
86.98245,27.30554,0
86.985422,27.307713,0
86.984618,27.309363,0
86.983577,27.309973,0
86.982976,27.311145,0
86.982461,27.311727,0
86.977987,27.313338,0
86.976925,27.313786,0
86.975906,27.313729,0
86.974082,27.314186,0
86.973878,27.314691,0
86.972204,27.315054,0
86.969318,27.316846,0
86.968589,27.31778,0
86.968181,27.318552,0
86.967376,27.318952,0
86.966572,27.320439,0
86.966389,27.321164,0
86.966379,27.321984,0
86.964791,27.322479,0
86.964179,27.323156,0
86.963278,27.323814,0
86.96316,27.32429,0
86.962849,27.32451,0
86.962634,27.324824,0
86.962495,27.325015,0
86.962066,27.325377,0
86.961551,27.325625,0
86.9611,27.325634,0
86.960564,27.325815,0
86.960006,27.326063,0
86.959383,27.326959,0
86.958869,27.327245,0
86.958622,27.327674,0
86.958257,27.328017,0
86.958117,27.328284,0
86.957881,27.328894,0
86.957731,27.329008,0
86.957613,27.329333,0
86.957324,27.329533,0
86.957002,27.329876,0
86.95683,27.330152,0
86.956669,27.330495,0
86.956379,27.330676,0
86.956218,27.330915,0
86.955671,27.331496,0
86.954631,27.332135,0
86.95433,27.332554,0
86.954062,27.332735,0
86.954036,27.332714,0
86.95401,27.33274,0
86.95394,27.33284,0
86.95372,27.33299,0
86.95347,27.33298,0
86.95339,27.33302,0
86.95309,27.33301,0
86.95296,27.33315,0
86.95288,27.33315,0
86.9528,27.33325,0
86.95275,27.33319,0
86.95266,27.33327,0
86.95256,27.33325,0
86.95249,27.33329,0
86.9524,27.33324,0
86.95232,27.33324,0
86.95233,27.3333,0
86.95214,27.33331,0
86.95214,27.33337,0
86.95203,27.33336,0
86.95195,27.33344,0
86.95183,27.33348,0
86.95158,27.33348,0
86.9515,27.33352,0
86.95148,27.33368,0
86.95125,27.33385,0
86.95112,27.33391,0
86.95094,27.33393,0
86.9506,27.33409,0
86.95052,27.33441,0
86.95026,27.33457,0
86.95023,27.33474,0
86.95016,27.33492,0
86.94993,27.33529,0
86.9497,27.33548,0
86.94944,27.33561,0
86.9491,27.33607,0
86.94878,27.3363,0
86.94859,27.33633,0
86.94831,27.33633,0
86.94813,27.33637,0
86.94746,27.33672,0
86.94732,27.33683,0
86.947318,27.336835,0
86.94749,27.3369,0
86.94795,27.33696,0
86.94815,27.33709,0
86.94835,27.33731,0
86.94848,27.33767,0
86.94851,27.33792,0
86.94862,27.33804,0
86.94862,27.33811,0
86.94913,27.33869,0
86.94921,27.33884,0
86.9493,27.33892,0
86.94943,27.33895,0
86.9495,27.33894,0
86.94961,27.33886,0
86.9497,27.33882,0
86.95011,27.33898,0
86.95023,27.33906,0
86.95045,27.33929,0
86.95051,27.33939,0
86.95052,27.33956,0
86.95047,27.33987,0
86.95058,27.34003,0
86.95061,27.34024,0
86.9507,27.34052,0
86.95099,27.34118,0
86.95104,27.34149,0
86.95105,27.34183,0
86.95113,27.34197,0
86.9514,27.34212,0
86.95143,27.34232,0
86.95121,27.34292,0
86.95127,27.34295,0
86.95133,27.34305,0
86.95133,27.34325,0
86.95108,27.34348,0
86.95101,27.34359,0
86.95099,27.34364,0
86.95102,27.3437,0
86.95098,27.34377,0
86.95098,27.34384,0
86.95077,27.34404,0
86.95064,27.34413,0
86.95044,27.34415,0
86.95032,27.34421,0
86.95029,27.34426,0
86.95029,27.34431,0
86.95039,27.34436,0
86.95047,27.34444,0
86.95053,27.34455,0
86.95053,27.34469,0
86.9505,27.34481,0
86.95013,27.34542,0
86.95015,27.34568,0
86.94993,27.34626,0
86.94958,27.34664,0
86.94905,27.34676,0
86.94898,27.34689,0
86.94897,27.34705,0
86.94912,27.34735,0
86.94911,27.34748,0
86.94906,27.34766,0
86.94907,27.34777,0
86.94891,27.34801,0
86.94886,27.34814,0
86.94884,27.34842,0
86.94879,27.34847,0
86.94868,27.34851,0
86.94847,27.34864,0
86.94845,27.34875,0
86.94836,27.3489,0
86.94826,27.34914,0
86.94815,27.34921,0
86.94781,27.34956,0
86.94758,27.34962,0
86.94751,27.34974,0
86.94749,27.35017,0
86.94746,27.35033,0
86.94737,27.35047,0
86.94725,27.35051,0
86.94721,27.35049,0
86.94718,27.35053,0
86.9471,27.3507,0
86.94708,27.35093,0
86.94694,27.35117,0
86.94677,27.35122,0
86.94658,27.35172,0
86.94626,27.35204,0
86.94622,27.35212,0
86.94604,27.35217,0
86.94591,27.35214,0
86.9458,27.35215,0
86.94567,27.35216,0
86.94558,27.35225,0
86.94536,27.35248,0
86.94491,27.35248,0
86.94447,27.35265,0
86.94422,27.35302,0
86.94365,27.35306,0
86.9431,27.35366,0
86.9421,27.354,0
86.94167,27.35366,0
86.94078,27.35388,0
86.94047,27.35414,0
86.93979,27.35369,0
86.93916,27.3538,0
86.9383,27.3532,0
86.93717,27.35367,0
86.9365,27.35359,0
86.93603,27.35389,0
86.93535,27.35378,0
86.93483,27.35397,0
86.93406,27.35373,0
86.93374,27.35449,0
86.93364,27.35521,0
86.93199,27.35682,0
86.9319,27.35761,0
86.93106,27.35894,0
86.9308,27.36122,0
86.93021,27.36208,0
86.93012,27.362672,0
86.929547,27.36384,0
86.928313,27.36464,0
86.927599,27.365479,0
86.927299,27.366055,0
86.926709,27.366203,0
86.92658,27.366351,0
86.926306,27.366684,0
86.92614,27.367056,0
86.925861,27.367461,0
86.925738,27.367675,0
86.925738,27.367913,0
86.925319,27.368437,0
86.925362,27.36879,0
86.925218,27.369276,0
86.925218,27.369781,0
86.925153,27.370205,0
86.925153,27.371072,0
86.925507,27.371291,0
86.925577,27.371582,0
86.92592,27.372134,0
86.926221,27.372477,0
86.926296,27.37312,0
86.926306,27.373344,0
86.926537,27.373535,0
86.926655,27.374283,0
86.926864,27.374726,0
86.926832,27.375131,0
86.92687,27.375559,0
86.92724,27.375983,0
86.927235,27.37636,0
86.927031,27.37686,0
86.927041,27.377265,0
86.927658,27.377727,0
86.927894,27.378155,0
86.928468,27.378436,0
86.92893,27.378646,0
86.927809,27.379882,0
86.927924,27.380073,0
86.927851,27.380482,0
86.927404,27.380913,0
86.926974,27.381476,0
86.926803,27.381616,0
86.926843,27.381909,0
86.926757,27.382145,0
86.926618,27.382342,0
86.926626,27.382407,0
86.926669,27.382543,0
86.926462,27.382602,0
86.926331,27.382805,0
86.926379,27.383183,0
86.926253,27.383393,0
86.92595,27.384014,0
86.925816,27.384129,0
86.92558,27.384219,0
86.925692,27.384441,0
86.925781,27.384643,0
86.92592,27.384746,0
86.926038,27.384767,0
86.926154,27.384934,0
86.9261,27.385053,0
86.92625,27.385241,0
86.926395,27.385277,0
86.926395,27.385482,0
86.926328,27.385358,0
86.926355,27.385501,0
86.926344,27.385648,0
86.926329,27.385645,0
86.9263,27.38577,0
86.92626,27.385827,0
86.92623,27.38587,0
86.926126,27.385896,0
86.926072,27.38591,0
86.92599,27.38593,0
86.925934,27.385964,0
86.925689,27.386114,0
86.92568,27.38612,0
86.925508,27.386177,0
86.92541,27.38621,0
86.925213,27.386217,0
86.924847,27.386191,0
86.924853,27.386225,0
86.924247,27.386148,0
86.924161,27.386291,0
86.92415,27.386591,0
86.924048,27.38683,0
86.92408,27.38752,0
86.923812,27.387639,0
86.923367,27.387777,0
86.923366,27.387746,0
86.92321,27.38775,0
86.92282,27.38771,0
86.922801,27.387719,0
86.92282,27.387801,0
86.92282,27.38803,0
86.922793,27.388244,0
86.922653,27.388339,0
86.922498,27.388635,0
86.922348,27.38894,0
86.922567,27.389216,0
86.922192,27.389573,0
86.922184,27.389569,0
86.92208,27.38974,0
86.92206,27.38982,0
86.922067,27.389846,0
86.92208,27.38989,0
86.92229,27.39,0
86.922326,27.390053,0
86.92233,27.39006,0
86.92214,27.39027,0
86.922089,27.390425,0
86.92196,27.39082,0
86.9218,27.39108,0
86.92158,27.39128,0
86.92144,27.39152,0
86.9212,27.3917,0
86.9209,27.39205,0
86.92072,27.39236,0
86.92058,27.39245,0
86.92045,27.39262,0
86.92034,27.39268,0
86.92025,27.39285,0
86.91998,27.39306,0
86.9193,27.39344,0
86.91914,27.39381,0
86.91903,27.39395,0
86.91904,27.39418,0
86.91896,27.3943,0
86.91893,27.39445,0
86.9188,27.39466,0
86.91856,27.39524,0
86.91854,27.39535,0
86.91844,27.39552,0
86.91845,27.39568,0
86.91838,27.39578,0
86.91835,27.39598,0
86.91839,27.39622,0
86.91832,27.39652,0
86.91829,27.39659,0
86.91813,27.3967,0
86.91806,27.39701,0
86.91787,27.39752,0
86.91786,27.39769,0
86.91793,27.39778,0
86.91799,27.39804,0
86.91798,27.39814,0
86.91801,27.39825,0
86.91798,27.39833,0
86.91776,27.39852,0
86.91769,27.39862,0
86.91763,27.39862,0
86.91756,27.39873,0
86.91757,27.39881,0
86.91755,27.39885,0
86.91751,27.39888,0
86.91737,27.39915,0
86.9173,27.39923,0
86.91711,27.39931,0
86.91682,27.39933,0
86.91675,27.39938,0
86.91657,27.39943,0
86.91643,27.3995,0
86.91633,27.39968,0
86.91627,27.40048,0
86.9161,27.40087,0
86.91591,27.40098,0
86.91533,27.40154,0
86.91487,27.4018,0
86.91424,27.40238,0
86.91378,27.40266,0
86.91313,27.40277,0
86.91247,27.40296,0
86.91224,27.40307,0
86.91201,27.40329,0
86.91185,27.40363,0
86.91159,27.40399,0
86.91162,27.40462,0
86.91169,27.40483,0
86.91199,27.405,0
86.91277,27.40522,0
86.91297,27.40536,0
86.91308,27.40548,0
86.91317,27.40569,0
86.91344,27.40602,0
86.91366,27.40659,0
86.913755,27.40667,0
86.913008,27.40545,0
86.912954,27.405931,0
86.912775,27.406131,0
86.912708,27.406362,0
86.912694,27.406543,0
86.912641,27.406735,0
86.912638,27.406924,0
86.912364,27.407657,0
86.912067,27.407907,0
86.911643,27.408295,0
86.911495,27.408519,0
86.911318,27.408902,0
86.911184,27.409517,0
86.911077,27.409805,0
86.910884,27.410138,0
86.910795,27.410381,0
86.910712,27.411093,0
86.910439,27.411593,0
86.910361,27.411624,0
86.910307,27.411931,0
86.910141,27.412236,0
86.909883,27.412636,0
86.90984,27.412724,0
86.91119,27.412367,0
86.909645,27.413452,0
86.908937,27.415214,0
86.909269,27.416253,0
86.908818,27.417843,0
86.908625,27.418157,0
86.908786,27.4191,0
86.908776,27.4199,0
86.908314,27.420576,0
86.908379,27.421167,0
86.908271,27.421852,0
86.907982,27.42211,0
86.907917,27.422919,0
86.907552,27.423557,0
86.907649,27.4241,0
86.907563,27.424386,0
86.907413,27.425086,0
86.907402,27.426004,0
86.907483,27.426476,0
86.907338,27.426928,0
86.907617,27.427838,0
86.908266,27.429628,0
86.908749,27.430328,0
86.908797,27.430575,0
86.909081,27.430956,0
86.910385,27.431461,0
86.910492,27.431851,0
86.910685,27.432313,0
86.911291,27.432566,0
86.911715,27.432704,0
86.912257,27.432747,0
86.912925,27.432663,0
86.913255,27.432785,0
86.91363,27.432887,0
86.914191,27.433192,0
86.914499,27.433389,0
86.914929,27.433813,0
86.9155,27.434201,0
86.915717,27.434475,0
86.916801,27.435003,0
86.917155,27.435651,0
86.917927,27.43607,0
86.919805,27.437279,0
86.92032,27.437965,0
86.92062,27.437093,0
86.92098,27.437246,0
86.921425,27.437565,0
86.921811,27.437765,0
86.922181,27.437869,0
86.922621,27.438069,0
86.923007,27.438384,0
86.923576,27.43871,0
86.923619,27.438981,0
86.923608,27.439186,0
86.923681,27.43936,0
86.923799,27.439548,0
86.924469,27.439919,0
86.924692,27.439967,0
86.92463,27.440788,0
</coordinates>
</LineString>
</Placemark>
</Folder>
</Document>
</kml>
