<?xml version="1.0" encoding="UTF-8"?>
<kml xmlns="http://www.opengis.net/kml/2.2">
<Document>
<name>WNW_121. Danger section Mardi Trek</name>
<description/>
<Style id="icon-1899-0288D1-normal">
<IconStyle>
<color>ffd18802</color>
<scale>1</scale>
<Icon>
<href>https://www.gstatic.com/mapspro/images/stock/503-wht-blank_maps.png</href>
</Icon>
<hotSpot x="32" xunits="pixels" y="64" yunits="insetPixels"/>
</IconStyle>
<LabelStyle>
<scale>0</scale>
</LabelStyle>
</Style>
<Style id="icon-1899-0288D1-highlight">
<IconStyle>
<color>ffd18802</color>
<scale>1</scale>
<Icon>
<href>https://www.gstatic.com/mapspro/images/stock/503-wht-blank_maps.png</href>
</Icon>
<hotSpot x="32" xunits="pixels" y="64" yunits="insetPixels"/>
</IconStyle>
<LabelStyle>
<scale>1</scale>
</LabelStyle>
</Style>
<StyleMap id="icon-1899-0288D1">
<Pair>
<key>normal</key>
<styleUrl>#icon-1899-0288D1-normal</styleUrl>
</Pair>
<Pair>
<key>highlight</key>
<styleUrl>#icon-1899-0288D1-highlight</styleUrl>
</Pair>
</StyleMap>
<Style id="icon-1899-0288D1-nodesc-normal">
<IconStyle>
<color>ffd18802</color>
<scale>1</scale>
<Icon>
<href>https://www.gstatic.com/mapspro/images/stock/503-wht-blank_maps.png</href>
</Icon>
<hotSpot x="32" xunits="pixels" y="64" yunits="insetPixels"/>
</IconStyle>
<LabelStyle>
<scale>0</scale>
</LabelStyle>
<BalloonStyle>
<text><![CDATA[<h3>$[name]</h3>]]></text>
</BalloonStyle>
</Style>
<Style id="icon-1899-0288D1-nodesc-highlight">
<IconStyle>
<color>ffd18802</color>
<scale>1</scale>
<Icon>
<href>https://www.gstatic.com/mapspro/images/stock/503-wht-blank_maps.png</href>
</Icon>
<hotSpot x="32" xunits="pixels" y="64" yunits="insetPixels"/>
</IconStyle>
<LabelStyle>
<scale>1</scale>
</LabelStyle>
<BalloonStyle>
<text><![CDATA[<h3>$[name]</h3>]]></text>
</BalloonStyle>
</Style>
<StyleMap id="icon-1899-0288D1-nodesc">
<Pair>
<key>normal</key>
<styleUrl>#icon-1899-0288D1-nodesc-normal</styleUrl>
</Pair>
<Pair>
<key>highlight</key>
<styleUrl>#icon-1899-0288D1-nodesc-highlight</styleUrl>
</Pair>
</StyleMap>
<Style id="line-00CD00-8000-normal">
<LineStyle>
<color>ff00cd00</color>
<width>8</width>
</LineStyle>
</Style>
<Style id="line-00CD00-8000-highlight">
<LineStyle>
<color>ff00cd00</color>
<width>12</width>
</LineStyle>
</Style>
<StyleMap id="line-00CD00-8000">
<Pair>
<key>normal</key>
<styleUrl>#line-00CD00-8000-normal</styleUrl>
</Pair>
<Pair>
<key>highlight</key>
<styleUrl>#line-00CD00-8000-highlight</styleUrl>
</Pair>
</StyleMap>
<Style id="line-FF0000-8000-nodesc-normal">
<LineStyle>
<color>ff0000ff</color>
<width>8</width>
</LineStyle>
<BalloonStyle>
<text><![CDATA[<h3>$[name]</h3>]]></text>
</BalloonStyle>
</Style>
<Style id="line-FF0000-8000-nodesc-highlight">
<LineStyle>
<color>ff0000ff</color>
<width>12</width>
</LineStyle>
<BalloonStyle>
<text><![CDATA[<h3>$[name]</h3>]]></text>
</BalloonStyle>
</Style>
<StyleMap id="line-FF0000-8000-nodesc">
<Pair>
<key>normal</key>
<styleUrl>#line-FF0000-8000-nodesc-normal</styleUrl>
</Pair>
<Pair>
<key>highlight</key>
<styleUrl>#line-FF0000-8000-nodesc-highlight</styleUrl>
</Pair>
</StyleMap>
<Folder>
<name>LineStrings</name>
<Placemark>
<name>SAFER</name>
<description>This is newly constructed trail. It is much safer and better trail. It is longer but advised to use only this trail at the moment.</description>
<styleUrl>#line-00CD00-8000</styleUrl>
<LineString>
<tessellate>1</tessellate>
<coordinates>
83.86875,28.433863,3530
83.868754,28.433862,3530
83.868763,28.433861,3530
83.868773,28.43386,3530
83.868787,28.433856,3530
83.868802,28.433852,3530
83.868816,28.433847,3530
83.86883,28.433842,3530
83.868843,28.433839,3530
83.868857,28.433837,3530
83.86887,28.433837,3530
83.868883,28.433838,3530
83.868894,28.43384,3530
83.868906,28.433842,3530
83.868918,28.433843,3530
83.868931,28.433844,3530
83.868944,28.433845,3530
83.868958,28.433845,3530
83.868971,28.433845,3530
83.868983,28.433845,3530
83.868994,28.433849,3530
83.869005,28.433851,3530
83.869018,28.433853,3530
83.86903,28.433855,3530
83.869046,28.433863,3530
83.86906,28.433872,3530
83.869073,28.43388,3530
83.869085,28.433889,3530
83.869097,28.433897,3530
83.869108,28.433903,3529
83.869118,28.43391,3529
83.869129,28.433916,3529
83.869138,28.43392,3529
83.869149,28.433925,3529
83.869159,28.433929,3529
83.869169,28.433932,3529
83.86918,28.433936,3529
83.86919,28.433939,3529
83.8692,28.433941,3529
83.86921,28.433944,3530
83.86922,28.433948,3530
83.86923,28.433953,3530
83.86924,28.433957,3530
83.86925,28.433961,3530
83.869259,28.433965,3530
83.869269,28.433969,3529
83.869279,28.433973,3529
83.869288,28.433977,3529
83.869295,28.433979,3529
83.869302,28.433979,3529
83.869309,28.433979,3529
83.869316,28.433978,3530
83.869322,28.433979,3530
83.869329,28.43398,3530
83.869337,28.433981,3530
83.869346,28.433982,3530
83.869355,28.433984,3530
83.869364,28.433986,3530
83.869372,28.433987,3530
83.86938,28.43399,3530
83.869386,28.433993,3530
83.869391,28.433995,3530
83.869397,28.433999,3530
83.869402,28.434001,3530
83.869406,28.434003,3530
83.869411,28.434006,3530
83.869417,28.434008,3530
83.869423,28.434012,3530
83.869428,28.434015,3530
83.869433,28.434017,3531
83.869438,28.434021,3531
83.869446,28.434024,3531
83.869452,28.434028,3531
83.869459,28.434031,3531
83.869465,28.434036,3531
83.86947,28.434042,3531
83.869475,28.434047,3531
83.869481,28.43405,3531
83.869487,28.434053,3531
83.869493,28.434057,3531
83.869497,28.434061,3531
83.869502,28.434064,3531
83.869506,28.434068,3531
83.869511,28.434071,3531
83.869517,28.434074,3531
83.869523,28.434078,3531
83.869528,28.434082,3531
83.869533,28.434084,3532
83.869538,28.434087,3532
83.869545,28.434093,3532
83.869551,28.434099,3532
83.869558,28.434105,3532
83.869566,28.434113,3532
83.869573,28.434121,3532
83.869581,28.434129,3532
83.869589,28.434136,3532
83.869597,28.434144,3532
83.869605,28.434151,3532
83.869612,28.434158,3533
83.869619,28.434166,3533
83.869626,28.434173,3533
83.869634,28.43418,3533
83.869641,28.434186,3533
83.86965,28.434193,3533
83.869657,28.434199,3533
83.869663,28.434206,3533
83.869669,28.434213,3533
83.869674,28.434219,3533
83.869678,28.434224,3533
83.869683,28.434228,3534
83.86969,28.434233,3534
83.869696,28.434239,3534
83.869702,28.434245,3534
83.869708,28.43425,3534
83.869714,28.434255,3534
83.869719,28.434258,3534
83.869724,28.434261,3534
83.86973,28.434265,3535
83.869736,28.434269,3535
83.869742,28.434272,3535
83.86975,28.434277,3535
83.869759,28.434282,3535
83.869768,28.434286,3535
83.869778,28.43429,3535
83.869788,28.434293,3535
83.869797,28.434296,3535
83.869807,28.434298,3535
83.869815,28.434299,3535
83.869823,28.434301,3535
83.869832,28.434303,3535
83.86984,28.434303,3536
83.869849,28.434303,3536
83.869858,28.434304,3536
83.869867,28.434303,3536
83.869877,28.434304,3536
83.869887,28.434306,3536
83.869897,28.434308,3536
83.869905,28.434308,3536
83.869913,28.43431,3536
83.869919,28.434314,3536
83.869925,28.43432,3536
83.869931,28.434327,3535
83.869937,28.434335,3535
83.869943,28.434342,3535
83.869949,28.434352,3535
83.869954,28.434361,3535
83.86996,28.43437,3535
83.869965,28.434379,3535
83.86997,28.434388,3535
83.869974,28.434397,3535
83.869979,28.434406,3535
83.869984,28.434414,3535
83.869988,28.434423,3535
83.869992,28.434432,3535
83.869994,28.434441,3535
83.869997,28.434449,3535
83.869999,28.434458,3535
83.87,28.434467,3535
83.870002,28.434475,3535
83.870003,28.434485,3535
83.870004,28.434494,3535
83.870004,28.434503,3535
83.870006,28.434512,3535
83.870007,28.434522,3535
83.870008,28.434532,3535
83.870011,28.434542,3535
83.870012,28.434552,3535
83.870015,28.434562,3535
83.870016,28.434571,3535
83.870019,28.43458,3535
83.870022,28.43459,3535
83.870026,28.434599,3535
83.87003,28.434608,3535
83.870033,28.434617,3535
83.870037,28.434626,3535
83.870042,28.434634,3535
83.870047,28.434645,3535
83.870051,28.434656,3535
83.870054,28.434667,3535
83.870055,28.434678,3535
83.870055,28.434688,3535
83.870055,28.434697,3535
83.870055,28.434704,3535
83.870055,28.434712,3535
83.870054,28.43472,3535
83.870054,28.434729,3535
83.870055,28.434737,3535
83.870056,28.434745,3535
83.870059,28.434753,3535
83.870061,28.434758,3535
83.870065,28.434765,3535
83.870068,28.43477,3535
83.870071,28.434774,3535
83.870073,28.434778,3535
83.870076,28.434781,3536
83.870079,28.434783,3536
83.870083,28.434785,3536
83.870087,28.434786,3536
83.870092,28.434787,3536
83.870096,28.434789,3536
83.870101,28.434791,3537
83.870106,28.434793,3537
83.870109,28.434795,3537
83.870114,28.434796,3537
83.87012,28.434796,3537
83.870127,28.434794,3537
83.870135,28.434794,3538
83.870144,28.434793,3538
83.870153,28.434794,3538
83.870163,28.434795,3538
83.870174,28.434796,3538
83.870185,28.434798,3538
83.870195,28.4348,3538
83.870206,28.434802,3538
83.870216,28.434804,3538
83.870227,28.434807,3538
83.870238,28.43481,3538
83.870249,28.434814,3538
83.87026,28.434819,3538
83.870271,28.434823,3538
83.870281,28.434827,3538
83.87029,28.434831,3538
83.870298,28.434835,3538
83.870305,28.434839,3538
83.870312,28.434842,3538
83.870318,28.434848,3538
83.870324,28.434853,3538
83.870329,28.434857,3539
83.870333,28.434862,3539
83.870337,28.434865,3539
83.87034,28.434868,3539
83.870342,28.434872,3539
83.870344,28.434876,3539
83.870347,28.434879,3539
83.87035,28.434882,3539
83.870355,28.434883,3539
83.87036,28.434884,3540
83.870364,28.434886,3540
83.870367,28.434887,3540
83.87037,28.434888,3540
83.870373,28.43489,3540
83.870377,28.434892,3540
83.87038,28.434894,3540
83.870382,28.434896,3541
83.870386,28.434898,3541
83.870389,28.4349,3541
83.870392,28.434902,3541
83.870395,28.434903,3541
83.870398,28.434904,3541
83.870401,28.434904,3541
83.870403,28.434903,3541
83.870404,28.434901,3542
83.870404,28.4349,3542
83.870404,28.434898,3542
83.870403,28.434897,3542
83.870403,28.434896,3542
83.870402,28.434896,3542
83.870403,28.434896,3542
83.870405,28.434898,3542
83.870408,28.434899,3542
83.870413,28.434901,3543
83.870418,28.434901,3543
83.870424,28.434901,3543
83.870428,28.434901,3543
83.870433,28.434902,3543
83.870438,28.434902,3543
83.870442,28.434902,3543
83.870447,28.434901,3543
83.870454,28.4349,3543
83.870464,28.434899,3543
83.870475,28.434898,3543
83.870486,28.434896,3543
83.870496,28.434896,3544
83.870506,28.434896,3544
83.870516,28.434896,3544
83.870526,28.434897,3544
83.870537,28.434897,3544
83.870546,28.434897,3544
83.870556,28.434898,3544
83.870566,28.434899,3544
83.870575,28.434901,3544
83.870585,28.434903,3544
83.870595,28.434906,3544
83.870604,28.434909,3544
83.870612,28.434911,3544
83.870621,28.434914,3544
83.870631,28.434919,3545
83.87064,28.434923,3545
83.870647,28.434927,3545
83.870654,28.434931,3545
83.870661,28.434934,3545
83.870668,28.434937,3545
83.870675,28.434941,3545
83.870682,28.434944,3545
83.870689,28.434948,3545
83.870696,28.434952,3545
83.870704,28.434958,3545
83.870712,28.434963,3545
83.870719,28.434968,3545
83.870726,28.434974,3545
83.870734,28.43498,3545
83.870742,28.434985,3545
83.870749,28.434991,3545
83.870757,28.434998,3545
83.870763,28.435004,3545
83.87077,28.435011,3545
83.870776,28.435018,3545
83.870782,28.435025,3545
83.870789,28.435032,3545
83.870796,28.435039,3545
83.870803,28.435047,3545
83.870809,28.435054,3545
83.870815,28.43506,3545
83.870821,28.435065,3545
83.870827,28.435071,3545
83.870833,28.435077,3545
83.870838,28.435082,3545
83.870842,28.435088,3545
83.870847,28.435092,3545
83.870851,28.435096,3545
83.870855,28.435101,3545
83.87086,28.435106,3546
83.870865,28.435112,3546
83.870869,28.435117,3546
83.870873,28.435123,3546
83.870878,28.435129,3546
83.870883,28.435135,3546
83.870887,28.435141,3546
83.870889,28.435147,3546
83.870892,28.435153,3547
83.870895,28.435159,3547
83.870898,28.435166,3547
83.8709,28.435171,3547
83.870902,28.435178,3547
83.870903,28.435183,3547
83.870905,28.435188,3547
83.870908,28.435193,3548
83.87091,28.4352,3548
83.870913,28.435206,3548
83.870917,28.435212,3548
83.87092,28.435217,3548
83.870924,28.435222,3548
83.870928,28.435229,3548
83.870933,28.435234,3549
83.870937,28.435239,3549
83.870944,28.435244,3549
83.87095,28.435249,3549
83.870956,28.435252,3549
83.870963,28.435254,3549
83.870969,28.435256,3549
83.870974,28.435257,3549
83.870977,28.435257,3549
83.87098,28.435258,3549
83.870982,28.435259,3549
83.870985,28.435262,3550
83.870989,28.435265,3550
83.870993,28.435266,3550
83.870997,28.435264,3550
83.871002,28.435262,3550
83.871006,28.43526,3550
83.871009,28.435258,3550
83.871013,28.435255,3550
83.871015,28.435253,3550
83.871019,28.43525,3550
83.87102,28.435251,3551
83.87102,28.435252,3551
83.87102,28.435255,3551
83.871021,28.435255,3551
83.871021,28.435256,3551
83.871021,28.435257,3551
83.871021,28.435258,3551
83.871022,28.435259,3551
83.871023,28.43526,3551
83.871023,28.435261,3551
83.871023,28.435262,3551
83.871023,28.435263,3551
83.871024,28.435264,3551
83.871027,28.435265,3551
83.871029,28.435265,3551
83.871032,28.435266,3551
83.871034,28.435266,3551
83.871035,28.435267,3551
83.871038,28.435269,3551
83.871041,28.435271,3551
83.871042,28.435272,3551
83.871044,28.435273,3551
83.871045,28.435274,3551
83.871045,28.435275,3551
83.871045,28.435276,3551
83.871047,28.435277,3551
83.871052,28.435278,3551
83.871058,28.435282,3551
83.871066,28.435286,3551
83.871073,28.435291,3551
83.871082,28.435295,3551
83.87109,28.435298,3551
83.871099,28.435301,3551
83.871106,28.435304,3551
83.871114,28.435307,3551
83.871121,28.43531,3551
83.871127,28.435313,3551
83.871133,28.435317,3551
83.87114,28.435321,3551
83.871145,28.435327,3551
83.871152,28.435331,3551
83.871159,28.435335,3551
83.871164,28.435336,3551
83.87117,28.435338,3551
83.871175,28.435341,3551
83.871181,28.435344,3552
83.871186,28.435346,3552
83.871193,28.43535,3552
83.871201,28.435354,3552
83.871209,28.435359,3552
83.871217,28.435365,3552
83.871224,28.435369,3552
83.871231,28.435372,3552
83.871238,28.435376,3553
83.871246,28.43538,3553
83.871254,28.435385,3553
83.871261,28.43539,3553
83.871269,28.435393,3553
83.871275,28.435396,3553
83.87128,28.435399,3553
83.871285,28.435401,3553
83.871291,28.435403,3554
83.871296,28.435405,3554
83.8713,28.43541,3554
83.871305,28.435412,3554
83.87131,28.435413,3554
83.871314,28.435415,3554
83.871318,28.435417,3555
83.871322,28.435419,3555
83.871326,28.435422,3555
83.871332,28.435425,3555
83.871338,28.435428,3555
83.871345,28.435432,3555
83.871352,28.435436,3555
83.871357,28.435439,3556
83.871362,28.435443,3556
83.871367,28.435445,3556
83.871371,28.435446,3556
83.871375,28.435448,3556
83.87138,28.43545,3556
83.871384,28.435452,3556
83.871387,28.435454,3557
83.871392,28.435455,3557
83.871395,28.435455,3557
83.8714,28.435456,3557
83.871403,28.435459,3557
83.871407,28.435463,3557
83.871412,28.435463,3557
83.871417,28.435463,3558
83.87142,28.435463,3558
83.871422,28.435464,3558
83.871423,28.435465,3558
83.871423,28.435467,3558
83.871423,28.435468,3558
83.871423,28.435469,3558
83.871423,28.43547,3558
83.871424,28.435471,3558
83.871426,28.435472,3558
83.871429,28.435474,3558
83.871431,28.435476,3558
83.871434,28.43548,3558
83.871438,28.435483,3558
83.871441,28.435484,3559
83.871444,28.435485,3559
83.871448,28.435486,3559
83.871451,28.435486,3559
83.871454,28.435488,3559
83.871457,28.435489,3559
83.871461,28.435491,3559
83.871465,28.435492,3560
83.871467,28.435494,3560
83.871467,28.435496,3560
83.871467,28.435497,3560
83.871468,28.435499,3560
83.871468,28.4355,3560
83.871468,28.435501,3561
83.871468,28.4355,3561
83.87147,28.4355,3561
83.871473,28.435501,3561
83.871477,28.435502,3561
83.871481,28.435505,3561
83.871486,28.435507,3561
83.871491,28.435508,3561
83.871496,28.435511,3561
83.871501,28.435513,3561
83.871506,28.435515,3562
83.871511,28.435517,3562
83.871517,28.435519,3562
83.871522,28.43552,3562
83.871526,28.435522,3562
83.871531,28.435526,3562
83.871535,28.435529,3562
83.87154,28.435533,3563
83.871544,28.435537,3563
83.871547,28.435542,3563
83.871551,28.435547,3563
83.871555,28.435551,3563
83.871558,28.435554,3563
83.87156,28.435558,3563
83.871561,28.435564,3563
83.871561,28.43557,3563
83.871559,28.435577,3564
83.871556,28.435582,3564
83.871553,28.435587,3564
83.871549,28.435592,3564
83.871546,28.435596,3564
83.871541,28.4356,3564
83.871536,28.435602,3564
83.871531,28.435604,3564
83.871527,28.435606,3565
83.871523,28.435606,3565
83.871517,28.435608,3565
83.871511,28.435609,3565
83.871506,28.435611,3565
83.8715,28.435612,3565
83.871494,28.435614,3566
83.871488,28.435615,3566
83.871483,28.435616,3566
83.87148,28.435617,3566
83.871475,28.435618,3566
83.871471,28.435619,3566
83.871467,28.43562,3567
83.871463,28.43562,3567
83.87146,28.43562,3567
83.871456,28.43562,3567
83.871452,28.43562,3567
83.871447,28.435619,3567
83.871443,28.435619,3567
83.871438,28.43562,3567
83.871433,28.435621,3568
83.871429,28.435622,3568
83.871425,28.435623,3568
83.87142,28.435622,3568
83.871415,28.43562,3568
83.87141,28.435619,3568
83.871405,28.435618,3568
83.871399,28.435618,3568
83.871395,28.435618,3569
83.87139,28.435617,3569
83.871384,28.435617,3569
83.871377,28.435617,3569
83.871368,28.435618,3569
83.87136,28.435619,3569
83.871352,28.435619,3569
83.871344,28.435619,3570
83.871337,28.435619,3570
83.87133,28.435618,3570
83.871322,28.435618,3570
83.871315,28.435618,3570
83.871307,28.435618,3570
83.8713,28.435618,3570
83.871292,28.435618,3570
83.871285,28.435617,3570
83.871278,28.435615,3571
83.871271,28.435613,3571
83.871264,28.435611,3571
83.871256,28.435608,3571
83.871249,28.435606,3571
83.87124,28.435604,3571
83.871233,28.435603,3571
83.871225,28.435602,3571
83.871219,28.4356,3571
83.871212,28.435599,3571
83.871206,28.435599,3571
83.8712,28.435599,3571
83.871196,28.435599,3571
83.871192,28.435597,3571
83.871188,28.435595,3571
83.87118,28.435594,3572
83.871173,28.435592,3572
83.871165,28.43559,3572
83.871158,28.435589,3572
83.871152,28.435588,3572
83.871146,28.435588,3572
83.871142,28.43559,3573
83.871137,28.435592,3573
83.871135,28.435596,3573
83.871134,28.4356,3573
83.871133,28.435604,3573
83.871135,28.435608,3573
83.871137,28.435612,3573
83.87114,28.435615,3574
83.871142,28.435618,3574
83.871145,28.43562,3574
83.871149,28.43562,3574
83.871151,28.43562,3574
83.871154,28.435619,3575
83.871155,28.435618,3575
83.871156,28.435617,3575
83.871158,28.435617,3575
83.871159,28.435616,3575
83.87116,28.435616,3575
83.871161,28.435616,3575
83.871162,28.435616,3575
83.871162,28.435617,3575
83.871162,28.435618,3575
83.871161,28.435618,3576
83.87116,28.435618,3576
83.871159,28.43562,3576
83.871157,28.435622,3576
83.871156,28.435624,3576
83.871155,28.435625,3576
83.871155,28.435626,3576
83.871154,28.435626,3576
83.871153,28.435625,3577
83.87115,28.435625,3577
83.871147,28.435626,3577
83.871143,28.435627,3577
83.871139,28.435628,3577
83.871134,28.435629,3577
83.87113,28.435632,3577
83.871126,28.435634,3577
83.871121,28.435636,3577
83.871117,28.435638,3577
83.871113,28.43564,3577
83.871109,28.435642,3577
83.871106,28.435646,3577
83.871103,28.435648,3578
83.8711,28.435651,3578
83.871097,28.435654,3578
83.871094,28.435658,3578
83.871092,28.435661,3578
83.871089,28.435665,3579
83.871087,28.435669,3579
83.871087,28.435674,3579
83.871089,28.435679,3579
83.87109,28.435685,3579
83.871091,28.435689,3579
83.871091,28.435693,3580
83.871092,28.435697,3580
83.871095,28.4357,3580
83.871097,28.435703,3580
83.871099,28.435705,3580
83.871101,28.435707,3580
83.871103,28.43571,3581
83.871105,28.435712,3581
83.871107,28.435712,3581
83.871108,28.435712,3581
83.871109,28.435713,3581
83.871115,28.435714,3581
83.871121,28.435713,3581
83.871127,28.435714,3581
83.871133,28.435716,3581
83.871138,28.435718,3581
83.871143,28.43572,3581
83.871148,28.435722,3581
83.871154,28.435726,3581
83.871159,28.43573,3582
83.871163,28.435734,3582
83.871166,28.43574,3582
83.871169,28.435745,3582
83.871172,28.435749,3582
83.871177,28.435754,3582
83.871179,28.43576,3582
83.871183,28.435764,3582
83.871187,28.435767,3582
83.87119,28.435769,3582
83.871192,28.435769,3582
83.871192,28.435768,3583
83.871193,28.435768,3583
83.871194,28.435768,3583
83.871194,28.435767,3583
83.871194,28.435766,3583
83.871195,28.435766,3583
83.871195,28.435765,3583
83.871196,28.435765,3583
83.871196,28.435766,3583
83.871197,28.435766,3583
83.871198,28.435766,3583
83.871199,28.435766,3583
83.871199,28.435767,3583
83.871198,28.435767,3583
83.871199,28.435769,3583
83.8712,28.435771,3583
83.871202,28.435774,3583
83.871206,28.435778,3583
83.87121,28.435781,3583
83.871213,28.435784,3583
83.871216,28.435788,3583
83.87122,28.435791,3583
83.871225,28.435794,3583
83.87123,28.435797,3583
83.871234,28.4358,3583
83.871238,28.435803,3583
83.871243,28.435805,3583
83.871248,28.435808,3583
83.871254,28.43581,3583
83.871258,28.435814,3583
83.871264,28.435817,3583
83.871269,28.43582,3583
83.871274,28.435823,3583
83.871281,28.435827,3583
83.871287,28.43583,3584
83.871293,28.435832,3584
83.871297,28.435834,3584
83.871299,28.435836,3584
83.871299,28.435837,3584
83.871299,28.435839,3584
83.871299,28.43584,3584
83.871301,28.435841,3584
83.871305,28.435843,3584
83.871312,28.435845,3584
83.871319,28.435848,3584
83.871326,28.43585,3584
83.871332,28.435851,3584
83.871337,28.435853,3584
83.871343,28.435855,3584
83.871349,28.435856,3584
83.871355,28.435857,3584
83.871361,28.435859,3584
83.871368,28.435862,3584
83.871377,28.435866,3585
83.871385,28.43587,3585
83.871394,28.435876,3585
83.871403,28.435882,3585
83.871411,28.435888,3585
83.87142,28.435894,3585
83.871429,28.435899,3585
83.871438,28.435903,3585
83.871446,28.435908,3585
83.871455,28.435913,3585
83.871465,28.435918,3585
83.871475,28.435923,3585
83.871484,28.435928,3585
83.871493,28.435934,3585
83.871502,28.435939,3585
83.871511,28.435945,3585
83.87152,28.435951,3585
83.871529,28.435956,3585
83.871537,28.435961,3585
83.871544,28.435964,3585
83.871552,28.435966,3585
83.871559,28.435968,3586
83.871567,28.43597,3586
83.871575,28.435972,3586
83.871583,28.435975,3586
83.871589,28.435978,3586
83.871596,28.435981,3586
83.871602,28.435985,3586
83.871608,28.435988,3586
83.871615,28.435993,3586
83.871622,28.435996,3586
83.871629,28.436001,3587
83.871637,28.436005,3587
83.871645,28.43601,3587
83.871653,28.436015,3587
83.871661,28.43602,3587
83.871668,28.436025,3587
83.871674,28.436029,3587
83.871678,28.436033,3587
83.871682,28.436036,3587
83.871686,28.436041,3587
83.871689,28.436045,3587
83.871692,28.436047,3587
83.871694,28.436048,3587
83.871696,28.436051,3587
83.871698,28.436056,3587
83.871701,28.436061,3587
83.871703,28.436066,3587
83.871707,28.436072,3587
83.87171,28.436078,3587
83.871713,28.436084,3586
83.871715,28.436091,3586
83.871718,28.436099,3586
83.87172,28.436107,3586
83.871722,28.436116,3586
83.871725,28.436125,3586
83.871726,28.436134,3586
83.871728,28.436142,3585
83.87173,28.43615,3585
83.871732,28.436158,3585
83.871735,28.436167,3585
83.871739,28.436175,3585
83.871741,28.436184,3584
83.871743,28.436193,3584
83.871744,28.436202,3584
83.871744,28.436211,3584
83.871746,28.436218,3584
83.87175,28.436226,3584
83.871755,28.436232,3584
83.87176,28.436237,3584
83.871766,28.436242,3584
83.87177,28.436248,3584
83.871774,28.436254,3583
83.871779,28.436258,3583
83.871781,28.436262,3583
83.871781,28.436267,3583
83.871779,28.436271,3583
83.871777,28.436276,3583
83.871774,28.436281,3583
83.871772,28.436284,3583
83.87177,28.436287,3583
83.871769,28.43629,3583
83.871769,28.436294,3583
83.871769,28.436297,3583
83.871769,28.436302,3583
83.871768,28.436307,3583
83.871768,28.436314,3582
83.871769,28.436322,3582
83.871771,28.43633,3582
83.871773,28.436338,3582
83.871776,28.436347,3582
83.871779,28.436354,3582
83.871781,28.436363,3582
83.871781,28.43637,3582
83.871782,28.436378,3582
83.871782,28.436385,3581
83.871781,28.436392,3581
83.87178,28.436399,3581
83.871779,28.436407,3581
83.871777,28.436415,3581
83.871774,28.436423,3581
83.871771,28.436431,3581
83.871769,28.436436,3582
83.871768,28.436443,3582
83.871767,28.436448,3582
83.871766,28.436454,3582
83.871764,28.436458,3582
83.87176,28.436462,3582
83.871755,28.436467,3582
83.871751,28.436472,3582
83.871748,28.436477,3582
83.871745,28.436483,3582
83.871742,28.436488,3582
83.871741,28.436492,3582
83.871741,28.436496,3582
83.871742,28.436498,3582
83.871742,28.4365,3583
83.871741,28.436502,3583
83.871741,28.436503,3583
83.87174,28.436503,3583
83.87174,28.436504,3583
83.871739,28.436504,3583
83.871736,28.436505,3583
83.871733,28.436508,3583
83.871729,28.436511,3583
83.871726,28.436515,3583
83.871724,28.43652,3583
83.871723,28.436526,3583
83.871721,28.436532,3583
83.87172,28.436539,3583
83.871718,28.436545,3584
83.871717,28.436551,3584
83.871716,28.436557,3584
83.871717,28.436563,3584
83.871717,28.436569,3584
83.871717,28.436575,3584
83.871717,28.436582,3584
83.871717,28.436588,3584
83.871718,28.436594,3584
83.871718,28.436598,3585
83.871718,28.436603,3585
83.871719,28.436608,3585
83.871723,28.436615,3585
83.871726,28.436624,3585
83.871728,28.436632,3585
83.871728,28.43664,3586
83.871729,28.436649,3586
83.87173,28.436657,3586
83.871732,28.436666,3586
83.871734,28.436675,3586
83.871734,28.436685,3586
83.871733,28.436695,3586
83.871733,28.436706,3586
83.871734,28.436717,3586
83.871736,28.436727,3586
83.87174,28.436737,3586
83.871743,28.436745,3586
83.871747,28.436754,3586
83.871751,28.436763,3586
83.871755,28.436771,3586
83.87176,28.436778,3586
83.871766,28.436783,3586
83.871772,28.436789,3586
83.871778,28.436795,3586
83.871784,28.436802,3586
83.871791,28.436809,3586
83.871797,28.436816,3586
83.871805,28.436823,3585
83.871812,28.43683,3585
83.871821,28.436836,3585
83.87183,28.436841,3585
83.871839,28.436847,3585
83.871849,28.436851,3585
83.871858,28.436856,3585
83.871868,28.436861,3585
83.871879,28.436866,3585
83.871889,28.43687,3585
83.871899,28.436875,3585
83.871909,28.436879,3585
83.871919,28.436882,3585
83.871929,28.436885,3585
83.87194,28.436887,3585
83.871949,28.436888,3585
83.871958,28.43689,3585
83.871967,28.436893,3585
83.871975,28.436897,3585
83.871983,28.436901,3585
83.871991,28.436905,3585
83.871998,28.436911,3585
83.872004,28.436916,3585
83.87201,28.436922,3585
83.872016,28.436927,3585
83.872022,28.436931,3585
83.872028,28.436935,3585
83.872034,28.43694,3585
83.87204,28.436944,3585
83.872045,28.436949,3585
83.872051,28.436952,3585
83.872057,28.436955,3585
83.872063,28.436958,3585
83.872069,28.436961,3585
83.872074,28.436965,3585
83.872079,28.436968,3585
83.872086,28.436972,3585
83.872092,28.436976,3585
83.8721,28.436979,3584
83.872106,28.436983,3584
83.872114,28.436988,3584
83.872121,28.436992,3584
83.872128,28.436996,3584
83.872135,28.436999,3584
83.872142,28.437003,3584
83.872147,28.437005,3584
83.872153,28.437007,3584
83.872158,28.437007,3584
83.872163,28.437007,3584
83.872169,28.437009,3584
83.872175,28.43701,3584
83.872181,28.437012,3584
83.872189,28.437015,3584
83.872197,28.437018,3584
83.872205,28.437022,3584
83.872213,28.437026,3584
83.872221,28.437031,3584
83.872229,28.437035,3584
83.872235,28.437039,3584
83.872242,28.437044,3584
83.872248,28.43705,3584
83.872256,28.437056,3584
83.872263,28.437061,3584
83.872271,28.437067,3584
83.872279,28.437071,3584
83.872288,28.437075,3584
83.872295,28.437078,3584
83.872303,28.437081,3583
83.872311,28.437082,3583
83.872319,28.437084,3583
83.872326,28.437086,3583
83.872333,28.437088,3583
83.872341,28.437091,3583
83.872349,28.437093,3583
83.872357,28.437096,3583
83.872364,28.437099,3583
83.872372,28.437102,3583
83.872379,28.437106,3583
83.872386,28.43711,3583
83.872393,28.437115,3583
83.872399,28.437121,3583
83.872406,28.437127,3583
83.872412,28.437133,3583
83.872417,28.43714,3583
83.872422,28.437147,3583
83.872426,28.437155,3583
83.872429,28.437162,3583
83.872434,28.437171,3583
83.872437,28.43718,3583
83.872442,28.437187,3583
83.872447,28.437195,3583
83.872451,28.437202,3583
83.872454,28.437209,3583
83.872456,28.437217,3583
83.872459,28.437222,3583
83.872462,28.437228,3583
83.872466,28.437235,3583
83.87247,28.437241,3583
83.872475,28.437248,3583
83.87248,28.437253,3583
83.872487,28.43726,3583
83.872493,28.437267,3583
83.872499,28.437273,3583
83.872504,28.43728,3583
83.872509,28.437286,3583
83.872515,28.437291,3583
83.872522,28.437296,3583
83.872528,28.437299,3583
83.872536,28.437302,3583
83.872543,28.437306,3583
83.872551,28.437309,3583
83.87256,28.437312,3583
83.872568,28.437315,3583
83.872576,28.437317,3583
83.872582,28.437319,3583
83.872588,28.43732,3583
83.872593,28.437321,3583
83.872597,28.437323,3583
83.872602,28.437325,3583
83.872607,28.437326,3583
83.872612,28.437329,3583
83.872619,28.437331,3583
83.872625,28.437333,3583
83.872631,28.437336,3583
83.872636,28.437338,3583
83.872642,28.43734,3583
83.872649,28.437342,3583
83.872655,28.437345,3583
83.872662,28.437347,3583
83.872669,28.43735,3583
83.872677,28.437353,3583
83.872684,28.437355,3583
83.872693,28.437358,3583
83.872701,28.437361,3583
83.87271,28.437364,3583
83.872719,28.437367,3583
83.872727,28.437369,3583
83.872737,28.437371,3583
83.872747,28.437372,3582
83.872758,28.437374,3582
83.87277,28.437376,3582
83.87278,28.437377,3582
83.87279,28.437379,3582
83.872799,28.437379,3582
83.872807,28.43738,3582
83.872816,28.43738,3582
83.872823,28.437381,3582
83.872831,28.437381,3582
83.872838,28.437381,3583
83.872845,28.437383,3583
83.872852,28.437384,3583
83.872857,28.437386,3583
83.872863,28.437387,3583
83.872866,28.437389,3583
83.87287,28.437391,3583
83.872873,28.437393,3583
83.872877,28.437398,3583
83.87288,28.437401,3583
83.872883,28.437406,3583
83.872887,28.43741,3583
83.872889,28.437413,3583
83.87289,28.437414,3583
83.87289,28.437416,3583
83.872892,28.437416,3583
83.872892,28.437417,3583
83.872894,28.43742,3583
83.872896,28.437423,3583
83.872899,28.437428,3583
83.872902,28.437433,3583
83.872904,28.437437,3584
83.872905,28.437441,3584
83.872905,28.437447,3584
83.872906,28.43745,3584
83.872907,28.437454,3584
83.872908,28.437458,3584
83.872908,28.43746,3584
83.872907,28.437462,3584
83.872907,28.437464,3584
83.872907,28.437465,3584
83.872906,28.437466,3584
83.872906,28.437467,3585
83.872906,28.437468,3585
83.872905,28.437468,3585
83.872905,28.437469,3585
83.872906,28.437469,3585
83.872907,28.437471,3585
83.872908,28.437472,3585
83.872909,28.437474,3585
83.872911,28.437477,3585
83.872912,28.437479,3585
83.872913,28.437483,3585
83.872914,28.437488,3585
83.872914,28.437493,3585
83.872916,28.437498,3586
83.872919,28.437502,3586
83.872921,28.437506,3586
83.872923,28.437511,3586
83.872925,28.437514,3586
83.872926,28.437518,3586
83.872927,28.437522,3587
83.872929,28.437527,3587
83.87293,28.437531,3587
83.872931,28.437535,3587
83.872932,28.437539,3587
83.872933,28.437543,3587
83.872933,28.437547,3588
83.872935,28.437552,3588
83.872938,28.437556,3588
83.87294,28.43756,3588
83.872942,28.437564,3588
83.872944,28.437568,3588
83.872944,28.437572,3588
83.872944,28.437577,3589
83.872945,28.437581,3589
83.872947,28.437585,3589
83.872949,28.437589,3589
83.872952,28.437592,3589
83.872955,28.437595,3589
83.872958,28.437597,3590
83.872961,28.4376,3590
83.872965,28.437604,3590
83.872969,28.437606,3590
83.872973,28.437609,3590
83.872977,28.437612,3590
83.872981,28.437615,3590
83.872984,28.437619,3590
83.872988,28.437623,3590
83.872992,28.437626,3591
83.872994,28.43763,3591
83.872997,28.437633,3591
83.872998,28.437638,3591
83.872999,28.43764,3591
83.873001,28.437641,3591
83.873003,28.43764,3591
83.873004,28.437639,3591
83.873006,28.437638,3591
83.873006,28.437637,3591
83.873006,28.437638,3591
83.873005,28.437638,3591
83.873006,28.437638,3591
83.873008,28.437638,3591
83.87301,28.437639,3591
83.873013,28.43764,3591
83.873016,28.437641,3591
83.87302,28.437642,3592
83.873023,28.437642,3592
83.873026,28.437642,3592
83.87303,28.437642,3592
83.873034,28.437642,3592
83.873037,28.437641,3592
83.87304,28.437641,3592
83.873043,28.437641,3592
83.873046,28.43764,3592
83.873048,28.437638,3592
83.87305,28.437636,3592
83.873051,28.437635,3592
83.873053,28.437634,3593
83.873055,28.437635,3593
83.873058,28.437635,3593
83.873061,28.437635,3593
83.873065,28.437635,3593
83.873069,28.437635,3593
83.873074,28.437635,3593
83.873079,28.437636,3593
83.873085,28.437637,3593
83.873091,28.437638,3594
83.873097,28.437638,3594
83.873105,28.437637,3594
83.873115,28.437637,3594
83.873123,28.437637,3594
83.873131,28.437636,3594
83.87314,28.437636,3594
83.873148,28.437635,3594
83.873157,28.437634,3595
83.873166,28.437632,3595
83.873174,28.437631,3595
83.873181,28.437629,3595
83.873189,28.437629,3595
83.873196,28.437627,3595
83.873202,28.437627,3595
83.873206,28.437627,3595
83.873208,28.437626,3595
83.873209,28.437626,3595
83.873211,28.437626,3595
83.873213,28.437625,3595
83.873214,28.437625,3595
83.873215,28.437625,3595
83.873216,28.437626,3595
83.873218,28.437626,3595
83.873221,28.437627,3596
83.873223,28.437628,3596
83.873225,28.437629,3596
83.873226,28.437629,3596
83.873228,28.43763,3596
83.87323,28.437632,3596
83.873231,28.437632,3596
83.873232,28.437632,3596
83.873232,28.437633,3596
83.873232,28.437632,3596
83.873232,28.437631,3596
83.873231,28.437631,3596
83.873231,28.43763,3596
83.873231,28.437629,3596
83.873234,28.437628,3596
83.873238,28.437628,3596
83.873241,28.437627,3596
83.873243,28.437626,3596
83.873245,28.437624,3596
83.873247,28.437623,3596
83.873248,28.437621,3596
83.873248,28.43762,3596
83.873249,28.43762,3596
83.873249,28.437619,3596
83.873249,28.437618,3596
83.873249,28.437617,3596
83.873249,28.437616,3596
83.87325,28.437616,3596
83.873252,28.437616,3596
83.873255,28.437616,3596
83.873258,28.437616,3596
83.87326,28.437615,3596
83.873262,28.437615,3596
83.873264,28.437615,3596
83.873266,28.437616,3596
83.873268,28.437616,3596
83.873269,28.437617,3596
83.87327,28.437617,3596
83.87327,28.437616,3596
83.873271,28.437616,3596
83.873271,28.437617,3596
83.873271,28.437618,3596
83.873273,28.437618,3596
83.873276,28.437619,3596
83.873278,28.437619,3596
83.873281,28.437618,3596
83.873282,28.437619,3596
83.873283,28.43762,3596
83.873283,28.437622,3596
83.873283,28.437623,3596
83.873283,28.437624,3596
83.873282,28.437624,3596
83.873281,28.437625,3596
83.87328,28.437625,3596
83.873278,28.437624,3596
83.873278,28.437623,3596
83.873279,28.437623,3596
83.873281,28.437622,3596
83.873282,28.437622,3596
83.873283,28.437622,3596
83.873284,28.437623,3596
83.873285,28.437624,3596
83.873286,28.437625,3596
83.873287,28.437627,3596
83.873289,28.437628,3596
83.87329,28.437629,3596
83.873291,28.43763,3596
83.873293,28.437631,3596
83.873294,28.437631,3596
83.873294,28.437632,3596
83.873295,28.437632,3596
83.873294,28.437632,3596
83.873295,28.437634,3596
83.873297,28.437637,3596
83.8733,28.43764,3596
83.873303,28.437643,3596
83.873306,28.437647,3596
83.873309,28.437653,3596
83.873311,28.437658,3596
83.873312,28.437663,3596
83.873314,28.437667,3595
83.873317,28.437672,3595
83.873319,28.437676,3595
83.873322,28.437681,3595
83.873325,28.437686,3595
83.873328,28.437692,3595
83.873332,28.437697,3595
83.873337,28.437702,3595
83.87334,28.437708,3595
83.873343,28.437714,3594
83.873346,28.43772,3594
83.87335,28.437725,3594
83.873353,28.437729,3594
83.873356,28.437732,3594
83.873358,28.437736,3594
83.873362,28.437742,3594
83.873366,28.437748,3594
83.87337,28.437756,3594
83.873374,28.437763,3594
83.873378,28.437771,3594
83.873382,28.437778,3594
83.873388,28.437785,3594
83.873393,28.437792,3594
83.873399,28.437798,3593
83.873406,28.437805,3593
83.873412,28.437812,3593
83.873418,28.437818,3593
83.873425,28.437823,3593
83.873433,28.437827,3593
83.873441,28.437831,3593
83.873447,28.437836,3593
83.873453,28.437842,3593
83.873458,28.437849,3592
83.873462,28.437856,3592
83.873465,28.437864,3592
83.873468,28.437873,3592
83.87347,28.437882,3592
83.87347,28.437891,3592
83.873471,28.437901,3592
83.873473,28.43791,3592
83.873475,28.43792,3592
83.873477,28.43793,3592
83.873479,28.437939,3592
83.873482,28.437948,3592
83.873485,28.437957,3592
83.873487,28.437965,3592
83.873492,28.437972,3592
83.873496,28.437979,3592
83.873501,28.437985,3592
83.873507,28.437991,3592
83.873513,28.437996,3593
83.873521,28.438,3593
83.873529,28.438004,3593
83.873538,28.438008,3593
83.873546,28.438011,3593
83.873554,28.438014,3593
83.87356,28.438016,3593
83.873568,28.438017,3593
83.873575,28.438018,3593
83.873582,28.438019,3593
83.87359,28.43802,3593
83.873599,28.438021,3593
83.87361,28.438019,3593
83.87362,28.438016,3593
83.87363,28.438012,3593
83.873641,28.438007,3593
83.87365,28.438002,3593
83.873659,28.437996,3593
83.873668,28.43799,3593
83.873676,28.437985,3593
83.873684,28.43798,3593
83.873692,28.437974,3593
83.873701,28.43797,3593
83.873709,28.437967,3593
83.873717,28.437964,3593
83.873723,28.43796,3593
83.873728,28.437955,3593
83.873734,28.43795,3593
83.873739,28.437942,3593
83.873746,28.437933,3593
83.873754,28.437927,3593
83.873762,28.437922,3593
83.873771,28.437918,3593
83.873779,28.437915,3593
83.873787,28.437912,3593
83.873793,28.43791,3593
83.873799,28.437909,3593
83.873806,28.437907,3593
83.873813,28.437904,3593
83.87382,28.437901,3593
83.873827,28.437899,3593
83.873835,28.437896,3593
83.873842,28.437894,3593
83.873848,28.437892,3593
83.873856,28.43789,3593
83.873862,28.43789,3593
83.873868,28.437889,3592
83.873873,28.43789,3592
83.873877,28.437892,3592
83.873881,28.437895,3592
83.873885,28.437899,3592
83.873889,28.437903,3592
83.873894,28.437907,3591
83.8739,28.437912,3591
83.873906,28.437916,3591
83.873912,28.437921,3591
83.873918,28.437926,3591
83.873923,28.437932,3590
83.873927,28.43794,3590
83.873931,28.437947,3590
83.873934,28.437955,3590
83.873938,28.437964,3590
83.873941,28.437972,3590
83.873943,28.43798,3590
83.873946,28.437988,3589
83.873949,28.437995,3589
83.873953,28.438003,3589
83.873958,28.43801,3589
83.873963,28.438018,3589
83.873968,28.438026,3589
83.873974,28.438032,3589
83.87398,28.438039,3589
83.873986,28.438044,3589
83.873991,28.438051,3589
83.873997,28.438057,3589
83.874002,28.438064,3589
83.874008,28.43807,3589
83.874013,28.438078,3589
83.874019,28.438086,3588
83.874025,28.438093,3588
83.874031,28.438101,3588
83.874037,28.43811,3588
83.874042,28.438118,3588
83.874048,28.438126,3588
83.874055,28.438134,3588
83.874062,28.438141,3588
83.874069,28.438148,3588
83.874075,28.438155,3588
83.874083,28.438161,3587
83.874092,28.438166,3587
83.8741,28.438169,3587
83.87411,28.438172,3587
83.87412,28.438175,3587
83.874131,28.438177,3587
83.874141,28.43818,3587
83.874152,28.438183,3587
83.874162,28.438186,3587
83.874173,28.438189,3587
83.874183,28.438192,3587
83.874192,28.438195,3587
83.874202,28.438198,3587
83.874212,28.438202,3587
83.874222,28.438206,3587
83.874231,28.438209,3587
83.874242,28.438213,3587
83.874253,28.438216,3587
83.874263,28.438218,3587
83.874275,28.438219,3587
83.874287,28.438221,3587
83.874299,28.438222,3587
83.874311,28.438222,3587
83.874323,28.438222,3587
83.874333,28.438221,3587
83.874344,28.43822,3587
83.874354,28.438219,3587
83.874365,28.438218,3587
83.874376,28.438217,3587
83.874385,28.438217,3587
83.874394,28.438217,3588
83.874403,28.438216,3588
83.87441,28.438216,3588
83.874417,28.438215,3588
83.874425,28.438217,3588
83.874433,28.438218,3588
83.874441,28.438219,3588
83.874449,28.43822,3588
83.874457,28.438224,3588
83.874466,28.438225,3588
83.874473,28.438227,3588
83.87448,28.43823,3588
83.874485,28.438232,3588
83.87449,28.438234,3588
83.874495,28.438236,3588
83.8745,28.438238,3589
83.874504,28.43824,3589
83.874507,28.438243,3589
83.874509,28.438245,3589
83.874511,28.438247,3589
83.874514,28.438248,3589
83.874517,28.438249,3589
83.874518,28.43825,3590
83.874521,28.438251,3590
83.874525,28.43825,3590
83.874529,28.438251,3590
83.874535,28.438253,3590
83.87454,28.438255,3590
83.874545,28.438256,3590
83.874549,28.438256,3590
83.874552,28.438255,3591
83.874555,28.438254,3591
83.874557,28.438254,3591
83.874561,28.438253,3591
83.874565,28.438251,3591
83.874569,28.438249,3591
83.874572,28.438247,3591
83.874573,28.438246,3591
83.874574,28.438244,3591
83.874575,28.438243,3591
83.874575,28.438242,3592
83.874574,28.438241,3592
83.874573,28.43824,3592
83.874572,28.43824,3593
83.874574,28.43824,3593
83.874576,28.43824,3593
83.87458,28.438241,3593
83.874584,28.438241,3593
83.874589,28.438242,3593
83.874595,28.438243,3593
83.874602,28.438245,3593
83.874609,28.438246,3593
83.874615,28.438246,3593
83.874621,28.438244,3593
83.874626,28.438243,3593
83.874631,28.438243,3593
83.874634,28.438241,3593
83.874638,28.438241,3593
83.874642,28.43824,3593
83.874646,28.43824,3593
83.87465,28.438238,3593
83.874653,28.438237,3593
83.874656,28.438236,3594
83.87466,28.438235,3594
83.874664,28.438235,3594
83.874667,28.438234,3594
83.87467,28.438233,3594
83.874673,28.438232,3594
83.874676,28.438231,3594
83.87468,28.438231,3594
83.874683,28.43823,3595
83.874687,28.438228,3595
83.87469,28.438226,3595
83.874693,28.438224,3595
83.874697,28.438223,3595
83.874701,28.438222,3595
83.874704,28.43822,3595
83.874706,28.438219,3596
83.874709,28.438218,3596
83.874712,28.438217,3596
83.874716,28.438216,3596
83.874719,28.438216,3596
83.874722,28.438215,3596
83.874723,28.438215,3596
83.874724,28.438215,3596
83.874725,28.438215,3596
83.874724,28.438215,3596
83.874725,28.438215,3596
83.874724,28.438215,3597
83.874725,28.438218,3597
83.874725,28.438222,3597
83.874727,28.438226,3597
83.874728,28.438229,3597
83.87473,28.438232,3597
83.87473,28.438236,3597
83.874729,28.43824,3597
83.874728,28.438244,3597
83.874727,28.438249,3597
83.874727,28.438252,3597
83.874726,28.438257,3597
83.874727,28.438261,3598
83.874729,28.438265,3598
83.87473,28.438268,3598
83.874729,28.438272,3598
83.874727,28.438274,3598
83.874724,28.438277,3598
83.874726,28.438281,3599
83.874727,28.438284,3599
83.874729,28.438288,3599
83.87473,28.438291,3599
83.874729,28.438295,3599
83.874728,28.438298,3599
83.874726,28.438301,3599
83.874724,28.438304,3600
83.874721,28.438307,3600
83.874719,28.438309,3600
83.874718,28.438312,3600
83.874716,28.438314,3600
83.874714,28.438316,3600
83.874714,28.438319,3600
83.874713,28.438323,3601
83.874712,28.438326,3601
83.874712,28.438327,3601
83.874711,28.438328,3601
83.874711,28.438329,3601
83.874711,28.438328,3601
83.87471,28.438328,3601
83.874712,28.43833,3601
83.874714,28.438331,3601
83.874716,28.438333,3601
83.874719,28.438335,3601
83.874722,28.438336,3601
83.874725,28.438337,3601
83.874728,28.438338,3601
83.874732,28.438337,3602
83.874736,28.438337,3602
83.874738,28.438337,3602
83.874741,28.438337,3602
83.874744,28.438337,3602
83.874747,28.438337,3602
83.874749,28.438337,3602
83.874753,28.438338,3602
83.874758,28.43834,3602
83.874761,28.43834,3603
83.874766,28.438339,3603
83.87477,28.438339,3603
83.874774,28.438338,3603
83.874776,28.438337,3603
83.874779,28.438335,3603
83.874783,28.438334,3604
83.874785,28.438333,3604
83.874788,28.438334,3604
83.87479,28.438333,3604
83.874793,28.438334,3604
83.874794,28.438334,3604
83.874796,28.438335,3605
83.874797,28.438333,3605
83.874798,28.438333,3605
83.8748,28.438331,3605
83.874804,28.438331,3605
83.874809,28.43833,3606
83.874814,28.43833,3606
83.874821,28.438331,3606
83.874827,28.438333,3606
83.874832,28.438335,3606
83.874838,28.438338,3606
83.874844,28.43834,3606
83.874848,28.438343,3606
83.874853,28.438347,3606
83.874858,28.438352,3607
83.874863,28.438355,3607
83.874867,28.438359,3607
83.87487,28.438366,3607
83.874872,28.438369,3607
83.874875,28.438371,3607
83.874876,28.438373,3607
83.874877,28.438374,3607
83.874877,28.438375,3607
83.874877,28.438376,3608
83.874878,28.438376,3608
83.874878,28.438377,3608
83.874879,28.438378,3608
83.874879,28.438379,3607
83.874878,28.438378,3607
83.874878,28.438379,3607
83.874877,28.438379,3607
83.874876,28.438379,3607
83.874875,28.438379,3607
83.874874,28.438379,3607
83.874873,28.438379,3607
83.874872,28.438379,3607
83.874871,28.438379,3607
83.87487,28.438379,3607
83.874869,28.438379,3607
83.874869,28.438378,3607
83.874868,28.438378,3607
83.874867,28.438378,3607
83.874866,28.438378,3607
83.874866,28.438376,3607
83.874864,28.438376,3607
83.874863,28.438375,3607
83.874864,28.438375,3607
83.874865,28.438374,3607
83.874868,28.438374,3607
83.87487,28.438374,3607
83.874871,28.438374,3607
83.874872,28.438374,3607
83.874873,28.438373,3607
83.874873,28.438374,3607
83.874874,28.438374,3607
83.874875,28.438373,3607
83.874875,28.438374,3607
83.874876,28.438374,3607
83.874877,28.438374,3607
83.874877,28.438375,3607
83.874877,28.438374,3607
83.874878,28.438373,3607
83.874879,28.438373,3607
83.874877,28.438374,3607
83.874874,28.438375,3607
83.874869,28.438376,3607
83.874863,28.438377,3607
83.874857,28.438381,3608
83.874852,28.438385,3608
83.874847,28.438389,3608
83.874841,28.438392,3608
83.874836,28.438396,3608
83.874834,28.438402,3608
83.874834,28.438407,3608
83.874834,28.438412,3608
83.874835,28.438416,3608
83.874836,28.438421,3608
83.874837,28.438425,3608
83.87484,28.438429,3608
83.874843,28.438432,3608
83.874847,28.438436,3609
83.87485,28.438439,3609
83.874854,28.438441,3609
83.874856,28.438443,3609
83.874857,28.438446,3609
83.874855,28.438448,3609
83.874853,28.43845,3609
83.874851,28.438452,3609
83.874847,28.438454,3610
83.874845,28.438455,3610
83.874842,28.438458,3610
83.874839,28.43846,3610
83.874837,28.438462,3610
83.874833,28.438464,3610
83.874829,28.438466,3610
83.874827,28.438469,3611
83.874825,28.438471,3611
83.874823,28.438473,3611
83.874821,28.438475,3611
83.874821,28.438477,3611
83.874821,28.438478,3612
83.874821,28.438479,3612
83.874821,28.43848,3612
83.874821,28.438481,3612
83.87482,28.438482,3612
83.874819,28.438485,3612
83.874818,28.438489,3612
83.874819,28.438492,3612
83.87482,28.438493,3612
83.874822,28.438494,3612
83.874824,28.438495,3613
83.874825,28.438496,3613
83.874828,28.438497,3613
83.874831,28.438497,3613
83.874835,28.438497,3613
83.874839,28.438497,3613
83.874841,28.438497,3613
83.874844,28.438498,3613
83.874847,28.438499,3613
83.87485,28.438501,3614
83.874851,28.438502,3614
83.874854,28.438503,3614
83.874857,28.438505,3614
83.874859,28.438505,3614
83.87486,28.438506,3615
83.874862,28.438507,3615
83.874863,28.438508,3615
83.874864,28.438509,3615
83.874864,28.43851,3615
83.874863,28.438509,3616
83.874863,28.438508,3616
83.874862,28.438508,3616
83.874861,28.438508,3616
83.874862,28.438508,3616
83.874865,28.438509,3616
83.874867,28.438509,3616
83.87487,28.43851,3616
83.874874,28.438512,3616
83.87488,28.438514,3616
83.874885,28.438517,3616
83.87489,28.438521,3616
83.874895,28.438524,3616
83.8749,28.438526,3616
83.874904,28.43853,3616
83.874908,28.438532,3616
83.87491,28.438536,3616
83.874911,28.438542,3616
83.874912,28.438547,3617
83.874914,28.438552,3617
83.874916,28.438556,3617
83.874919,28.43856,3617
83.874921,28.438565,3617
83.874923,28.438571,3617
83.874924,28.438578,3617
83.874926,28.438585,3618
83.874928,28.438592,3618
83.874929,28.438599,3618
83.87493,28.438605,3618
83.874931,28.438611,3618
83.874934,28.438616,3618
83.874936,28.438621,3619
83.874939,28.438625,3619
83.874941,28.438629,3619
83.874941,28.438634,3619
83.874942,28.438639,3619
83.874943,28.438643,3619
83.874946,28.438646,3619
83.874949,28.438649,3620
83.874951,28.438651,3620
83.874954,28.438653,3620
83.874957,28.438655,3620
83.874959,28.438658,3620
83.874962,28.438661,3621
83.874965,28.438662,3621
83.874966,28.438663,3621
83.874969,28.438663,3621
83.874971,28.438663,3621
83.874972,28.438663,3621
83.874973,28.438663,3622
83.874973,28.438662,3622
83.874973,28.438661,3622
83.874973,28.43866,3622
83.874973,28.438659,3622
83.874973,28.43866,3622
83.874973,28.438659,3622
83.874973,28.43866,3622
83.874973,28.438663,3622
83.874975,28.438668,3622
83.874978,28.438673,3622
83.874981,28.438677,3622
83.874983,28.438683,3622
83.874985,28.438688,3622
83.874988,28.438693,3622
83.87499,28.438698,3622
83.874992,28.438703,3622
83.874994,28.438707,3622
83.874994,28.43871,3623
83.874994,28.438714,3623
83.874992,28.438718,3623
83.87499,28.438722,3623
83.874988,28.438725,3623
83.874986,28.438729,3623
83.874982,28.438734,3623
83.874975,28.438738,3623
83.874969,28.438741,3623
83.874962,28.438743,3624
83.874955,28.438744,3624
83.87495,28.438746,3624
83.874946,28.438748,3624
83.874942,28.43875,3624
83.874938,28.438752,3624
83.874934,28.438753,3624
83.874929,28.438754,3624
83.874924,28.438756,3625
83.874918,28.438757,3625
83.874914,28.438759,3625
83.87491,28.438761,3625
83.874906,28.438764,3625
83.874902,28.438766,3625
83.874897,28.438768,3625
83.874891,28.43877,3626
83.874885,28.438773,3626
83.87488,28.438778,3626
83.874877,28.438782,3626
83.874874,28.438786,3626
83.874871,28.43879,3626
83.874867,28.438792,3626
83.874861,28.438794,3627
83.874855,28.438795,3627
83.874847,28.438794,3627
83.87484,28.438793,3627
83.874834,28.438794,3627
83.874828,28.438794,3627
83.874822,28.438795,3627
83.874817,28.438796,3627
83.874812,28.438798,3628
83.874808,28.4388,3628
83.874803,28.438802,3628
83.874799,28.438804,3628
83.874794,28.438806,3628
83.87479,28.438808,3628
83.874783,28.438809,3628
83.874777,28.438811,3628
83.87477,28.438813,3628
83.874763,28.438815,3628
83.874756,28.438816,3629
83.874748,28.438818,3629
83.874739,28.43882,3629
83.874731,28.438821,3629
83.874723,28.438823,3629
83.874715,28.438824,3629
83.874707,28.438825,3629
83.874697,28.438824,3629
83.874688,28.438824,3629
83.874678,28.438824,3629
83.874669,28.438824,3629
83.87466,28.438825,3629
83.87465,28.438825,3629
83.87464,28.438825,3629
83.874631,28.438825,3629
83.874622,28.438826,3629
83.874613,28.438826,3629
83.874603,28.438826,3629
83.874594,28.438826,3629
83.874585,28.438826,3629
83.874576,28.438827,3629
83.874567,28.438827,3629
83.874559,28.438828,3629
83.874551,28.438828,3629
83.874544,28.438828,3629
83.874536,28.438828,3629
83.874531,28.438827,3629
83.874528,28.438827,3629
83.874527,28.438827,3629
83.874526,28.438827,3629
83.874527,28.438826,3629
83.874526,28.438826,3629
83.874524,28.438826,3629
83.874519,28.438827,3629
83.874512,28.438829,3629
83.874505,28.438831,3629
83.874498,28.438832,3629
83.874491,28.438834,3629
83.874483,28.438836,3629
83.874475,28.438838,3629
83.874468,28.438841,3629
83.874462,28.438845,3629
83.874456,28.438848,3629
83.874451,28.438852,3629
83.874448,28.438854,3629
83.874447,28.438855,3630
83.874446,28.438857,3630
83.874445,28.438857,3630
83.874444,28.438858,3630
83.874443,28.438859,3630
83.874444,28.438859,3630
83.874443,28.438859,3630
83.874442,28.438859,3630
83.87444,28.43886,3630
83.874436,28.438862,3630
83.874431,28.438864,3630
83.874426,28.438868,3630
83.874422,28.438872,3630
83.874418,28.438876,3630
83.874415,28.438881,3630
83.874411,28.438887,3630
83.874407,28.438892,3630
83.874403,28.438898,3630
83.874398,28.438903,3630
83.874394,28.438909,3630
83.87439,28.438913,3630
83.874385,28.438917,3630
83.874379,28.438918,3630
83.874373,28.438919,3630
83.874368,28.43892,3630
83.874362,28.438921,3630
83.874356,28.438921,3630
83.874351,28.438923,3631
83.874347,28.438925,3631
83.874344,28.438926,3631
83.874341,28.438929,3631
83.874339,28.438931,3631
83.874334,28.438931,3631
83.874331,28.438933,3631
83.874327,28.438935,3631
83.874325,28.438939,3631
83.874324,28.438943,3631
83.874324,28.438949,3631
83.874325,28.438953,3631
83.874326,28.438955,3631
83.874322,28.438961,3631
83.874319,28.438965,3631
83.874316,28.438968,3632
83.874314,28.438969,3632
83.87431,28.438969,3632
83.874308,28.438969,3632
83.874306,28.43897,3632
83.874304,28.43897,3632
83.874301,28.438969,3632
83.874299,28.438967,3632
83.874296,28.438965,3632
83.874294,28.438965,3633
83.874293,28.438963,3633
83.874293,28.438962,3633
83.874291,28.438962,3633
83.874286,28.438963,3633
83.874281,28.438963,3633
83.874275,28.438965,3633
83.874269,28.438965,3633
83.874262,28.438964,3633
83.874256,28.438963,3633
83.874248,28.438961,3633
83.874241,28.438958,3633
83.874234,28.438955,3633
83.874226,28.438952,3633
83.87422,28.438949,3634
83.874214,28.438944,3634
83.874208,28.438939,3634
83.874203,28.438936,3634
83.874199,28.438934,3634
83.874194,28.438931,3634
83.87419,28.438928,3634
83.874184,28.438924,3634
83.874178,28.438922,3634
83.874172,28.43892,3634
83.874165,28.438918,3634
83.874158,28.438917,3634
83.874151,28.438915,3634
83.874144,28.438914,3635
83.874138,28.438913,3635
83.874133,28.438913,3635
83.874128,28.438914,3635
83.874124,28.438914,3635
83.874119,28.438914,3635
83.874116,28.438913,3635
83.874112,28.438913,3635
83.874108,28.438914,3635
83.874105,28.438912,3635
83.874101,28.438912,3635
83.874097,28.438912,3636
83.874093,28.438911,3636
83.874089,28.438911,3636
83.874086,28.438911,3636
83.874082,28.43891,3636
83.874078,28.43891,3636
83.874074,28.43891,3636
83.874069,28.438909,3637
83.874064,28.438907,3637
83.874059,28.438905,3637
83.874054,28.438903,3637
83.87405,28.438901,3637
83.874045,28.4389,3637
83.87404,28.438897,3637
83.874034,28.438895,3637
83.874029,28.438893,3638
83.874024,28.43889,3638
83.87402,28.438889,3638
83.874016,28.438888,3638
83.874014,28.438888,3638
83.874012,28.438888,3638
83.87401,28.438888,3638
83.87401,28.438889,3638
83.874009,28.438889,3638
83.87401,28.438888,3638
83.874009,28.438889,3638
83.874007,28.43889,3638
83.874005,28.438893,3639
83.874005,28.438896,3639
83.874004,28.438899,3639
83.874003,28.438902,3639
83.874001,28.438905,3639
83.873999,28.438909,3639
83.873996,28.438913,3639
83.873994,28.438917,3639
83.873991,28.438922,3639
83.873989,28.438926,3639
83.873986,28.43893,3639
83.873983,28.438933,3639
83.873979,28.438935,3639
83.873973,28.438936,3639
83.873967,28.438936,3639
83.873962,28.438936,3639
83.873956,28.438935,3640
83.87395,28.438935,3640
83.873945,28.438935,3640
83.873941,28.438935,3640
83.873938,28.438935,3640
83.873935,28.438935,3640
83.873931,28.438935,3640
83.873926,28.438934,3640
83.873922,28.438934,3640
83.873921,28.438937,3640
83.873919,28.438939,3640
83.873917,28.438941,3641
83.873916,28.438942,3641
83.873913,28.438944,3641
83.873909,28.438945,3641
83.873904,28.438946,3641
83.873898,28.438947,3641
83.873892,28.438946,3641
83.873886,28.438946,3641
83.873879,28.438945,3642
83.873872,28.438944,3642
83.873865,28.438942,3642
83.873859,28.438942,3642
83.873852,28.438941,3642
83.873846,28.438942,3642
83.873839,28.438943,3642
83.873833,28.438943,3642
83.873827,28.438944,3642
83.87382,28.438945,3642
83.873814,28.438946,3642
83.873808,28.438947,3642
83.873803,28.438946,3643
83.873797,28.438945,3643
83.87379,28.438945,3643
83.873783,28.438944,3643
83.873777,28.438945,3643
83.873771,28.438944,3643
83.873765,28.438943,3643
83.87376,28.438943,3643
83.873755,28.438942,3643
83.87375,28.438942,3643
83.873744,28.438942,3643
83.873738,28.43894,3643
83.873733,28.43894,3643
83.873728,28.438939,3644
83.873724,28.438937,3644
83.873719,28.438937,3644
83.873715,28.438936,3644
83.873711,28.438934,3644
83.873708,28.43893,3644
83.873705,28.438927,3644
83.8737,28.438924,3644
83.873697,28.43892,3644
83.873693,28.438917,3644
83.873691,28.438914,3644
83.873688,28.438912,3645
83.873685,28.438911,3645
83.873683,28.43891,3645
83.873682,28.43891,3645
83.873681,28.438909,3645
83.873681,28.438908,3645
83.873682,28.438907,3645
83.873683,28.438906,3645
83.873683,28.438905,3645
83.873684,28.438905,3645
83.873682,28.438906,3645
83.873679,28.438908,3645
83.873676,28.438911,3645
83.873673,28.438913,3645
83.873669,28.438914,3645
83.873665,28.438915,3645
83.87366,28.438915,3645
83.873656,28.438916,3645
83.873651,28.438918,3645
83.873646,28.43892,3646
83.873643,28.438922,3646
83.873639,28.438924,3646
83.873635,28.438926,3646
83.873632,28.438927,3646
83.873629,28.438928,3646
83.873626,28.438927,3646
83.873621,28.438926,3646
83.873616,28.438925,3646
83.873611,28.438925,3646
83.873606,28.438924,3647
83.873601,28.438925,3647
83.873597,28.438925,3647
83.873593,28.438925,3647
83.873588,28.438925,3647
83.873584,28.438923,3647
83.873578,28.438921,3647
83.873573,28.438919,3647
83.873569,28.438917,3647
83.873565,28.438914,3647
83.87356,28.43891,3647
83.873555,28.438907,3648
83.873551,28.438904,3648
83.873546,28.4389,3648
83.873542,28.438897,3648
83.873537,28.438894,3648
83.873532,28.438891,3648
83.873527,28.43889,3648
83.873522,28.438888,3649
83.873518,28.438887,3649
83.873512,28.438886,3649
83.873506,28.438887,3649
83.8735,28.438888,3649
83.873495,28.438888,3649
83.87349,28.438888,3649
83.873485,28.438889,3650
83.873479,28.438889,3650
83.873473,28.438889,3650
83.873468,28.438888,3650
83.873463,28.438887,3650
83.873459,28.438884,3650
83.873455,28.438882,3650
83.873452,28.438878,3650
83.87345,28.438873,3650
83.873451,28.438867,3651
83.873451,28.438863,3651
83.87345,28.438858,3651
83.873448,28.438854,3651
83.873446,28.43885,3651
83.873444,28.438845,3651
83.873443,28.438841,3651
83.873442,28.438838,3651
83.87344,28.438835,3651
83.873439,28.438832,3651
83.873437,28.43883,3652
83.873436,28.438828,3652
83.873436,28.438827,3652
83.873436,28.438826,3652
83.873435,28.438825,3652
83.873434,28.438824,3652
83.873434,28.438825,3652
83.873435,28.438825,3652
83.873435,28.438826,3652
83.873434,28.438826,3652
83.873435,28.438826,3652
83.873435,28.438827,3652
83.873433,28.438827,3652
83.873431,28.438828,3652
83.873428,28.43883,3652
83.873425,28.438833,3652
83.873422,28.438836,3652
83.873419,28.43884,3652
83.873418,28.438845,3652
83.873417,28.43885,3652
83.873416,28.438856,3652
83.873415,28.438862,3652
83.873415,28.438867,3652
83.873414,28.438873,3652
83.873414,28.438878,3653
83.873413,28.438884,3653
83.873412,28.438889,3653
83.87341,28.438894,3653
83.873409,28.4389,3653
83.873407,28.438905,3653
83.873405,28.43891,3653
83.873402,28.438914,3653
83.873398,28.438917,3653
83.873394,28.438918,3653
83.873388,28.438919,3654
83.873383,28.438918,3654
83.873378,28.438916,3654
83.873374,28.438913,3654
83.87337,28.438911,3654
83.873366,28.438908,3654
83.873362,28.438904,3654
83.873361,28.438899,3654
83.87336,28.438895,3654
83.873358,28.438891,3655
83.873354,28.438888,3655
83.87335,28.438886,3655
83.873346,28.438883,3655
83.873343,28.43888,3655
83.873341,28.438877,3655
83.873339,28.438875,3655
83.873337,28.438873,3655
83.873335,28.438871,3655
83.873335,28.43887,3656
83.873335,28.438868,3656
83.873334,28.438868,3656
83.873331,28.438867,3656
83.873328,28.438866,3656
83.873325,28.438866,3656
83.873322,28.438867,3656
83.87332,28.438868,3656
83.873318,28.43887,3656
83.873315,28.438872,3656
83.873311,28.438875,3656
83.873308,28.438877,3656
83.873304,28.438878,3656
83.8733,28.438879,3657
83.873296,28.43888,3657
83.873292,28.438879,3657
83.873288,28.438878,3657
83.873283,28.438875,3657
83.87328,28.438873,3657
83.873277,28.43887,3657
83.873273,28.438867,3657
83.873269,28.438865,3657
83.873264,28.438864,3658
83.87326,28.438864,3658
83.873256,28.438863,3658
83.873252,28.438863,3658
83.873248,28.438864,3658
83.873243,28.438865,3658
83.873239,28.438865,3658
83.873236,28.438867,3658
83.873233,28.438867,3658
83.873229,28.438867,3659
83.873227,28.438865,3659
83.873224,28.438863,3659
83.873221,28.438861,3659
83.873218,28.438859,3659
83.873216,28.438857,3659
83.873215,28.438854,3659
83.873213,28.438851,3659
83.873211,28.438848,3660
83.87321,28.438846,3660
83.873209,28.438842,3660
83.873208,28.43884,3660
83.873206,28.438837,3660
83.873204,28.438835,3660
83.873202,28.438833,3661
83.873199,28.438831,3661
83.873197,28.43883,3661
83.873195,28.438828,3661
83.873193,28.438827,3661
83.873192,28.438824,3661
83.873192,28.43882,3661
83.873191,28.438817,3661
83.87319,28.438814,3662
83.873189,28.438811,3662
83.873189,28.438808,3662
83.873187,28.438805,3662
83.873185,28.438803,3662
83.873184,28.438801,3662
83.87318,28.4388,3662
83.873176,28.438799,3663
83.873172,28.438798,3663
83.873168,28.438796,3663
83.873166,28.438794,3663
83.873162,28.438791,3663
83.873159,28.438789,3663
83.873156,28.438785,3664
83.873153,28.438782,3664
83.873149,28.43878,3664
83.873144,28.438777,3664
83.87314,28.438774,3664
83.873135,28.438771,3664
83.87313,28.438768,3664
83.873125,28.438765,3664
83.873121,28.438762,3665
83.873116,28.438759,3665
83.87311,28.438756,3665
83.873104,28.438753,3665
83.873097,28.438749,3665
83.873092,28.438745,3665
83.873086,28.438741,3665
83.873082,28.438736,3665
83.873079,28.438731,3665
83.873077,28.438726,3665
83.873076,28.438722,3665
83.873075,28.438719,3666
83.873074,28.438717,3666
83.873073,28.438715,3666
83.873073,28.438714,3666
83.873073,28.438713,3666
83.873073,28.438712,3666
83.873074,28.438713,3666
83.873075,28.438713,3666
83.873076,28.438713,3666
83.873075,28.438713,3666
83.873074,28.438713,3666
83.873073,28.438713,3666
83.873073,28.438714,3666
83.873073,28.438715,3666
83.873074,28.438715,3666
83.873074,28.438716,3666
83.873075,28.438716,3666
83.873076,28.438716,3666
83.873077,28.438716,3666
83.873078,28.438716,3666
83.873079,28.438716,3666
83.873078,28.438716,3666
83.873079,28.438716,3666
83.873078,28.438716,3666
83.873078,28.438715,3666
83.873078,28.438716,3666
83.873079,28.438716,3666
83.873079,28.438715,3666
83.873078,28.438715,3666
83.873078,28.438714,3666
83.873077,28.438715,3666
83.873076,28.438715,3666
83.873076,28.438716,3666
83.873076,28.438715,3666
83.873075,28.438715,3666
83.873075,28.438714,3666
83.873074,28.438714,3666
83.873073,28.438714,3666
83.873073,28.438713,3666
83.873073,28.438712,3666
83.873073,28.438711,3666
83.873074,28.438711,3666
83.873074,28.43871,3666
83.873074,28.438709,3666
83.873074,28.438708,3666
83.873073,28.438708,3666
83.873073,28.438707,3666
83.873073,28.438706,3666
83.87307,28.438706,3666
83.873065,28.438706,3666
83.873059,28.438706,3666
83.873052,28.438706,3666
83.873045,28.438706,3666
83.873037,28.438706,3666
83.873028,28.438707,3666
83.873019,28.438708,3666
83.873012,28.438709,3666
83.873004,28.438711,3666
83.872996,28.438712,3666
83.872988,28.438712,3665
83.87298,28.438713,3665
83.872972,28.438714,3665
83.872966,28.438714,3665
83.872959,28.438714,3665
83.872952,28.438712,3665
83.872945,28.43871,3665
83.872937,28.438707,3665
83.87293,28.438705,3665
83.872923,28.438704,3665
83.872916,28.438703,3665
83.872909,28.438703,3665
83.872903,28.438702,3665
83.872897,28.4387,3665
83.87289,28.438698,3665
83.872882,28.438696,3665
83.872874,28.438695,3666
83.872865,28.438695,3666
83.872858,28.438694,3666
83.87285,28.438692,3666
83.872842,28.43869,3666
83.872835,28.438687,3666
83.872828,28.438684,3666
83.872822,28.438681,3666
83.872816,28.438679,3666
83.872812,28.438677,3666
83.872807,28.438675,3666
83.872802,28.438673,3666
83.872795,28.43867,3666
83.872789,28.438667,3666
83.872783,28.438665,3666
83.872777,28.438664,3666
83.872771,28.438662,3666
83.872764,28.438661,3666
83.872757,28.438661,3666
83.87275,28.438661,3666
83.872743,28.438662,3667
83.872738,28.438664,3667
83.872732,28.438667,3667
83.872725,28.43867,3667
83.872719,28.438672,3667
83.872713,28.438675,3667
83.872707,28.438679,3667
83.872702,28.438684,3667
83.872698,28.438689,3667
83.872696,28.438694,3667
83.872694,28.438699,3667
83.872694,28.438704,3667
83.872694,28.438708,3667
83.872696,28.438713,3667
83.872699,28.438717,3668
83.872701,28.438722,3668
83.872703,28.438725,3668
83.872705,28.438731,3668
83.872705,28.438736,3668
83.872704,28.438741,3668
83.872703,28.438745,3668
83.872701,28.43875,3668
83.8727,28.438754,3668
83.872698,28.438756,3669
83.872697,28.438757,3669
83.872696,28.438758,3669
83.872695,28.438758,3669
83.872694,28.438759,3669
83.872693,28.438759,3669
83.872692,28.438759,3669
83.872692,28.438758,3669
83.872691,28.438758,3669
83.87269,28.438761,3669
83.872689,28.438764,3669
83.872689,28.438768,3669
83.872689,28.438771,3670
83.872688,28.438775,3670
83.872687,28.438779,3670
83.872687,28.438783,3670
83.872687,28.438786,3670
83.872686,28.43879,3670
83.872685,28.438794,3670
83.872684,28.438797,3670
83.872681,28.438801,3670
83.872679,28.438804,3671
83.872676,28.438807,3671
83.872672,28.438811,3671
83.872669,28.438814,3671
83.872665,28.438817,3671
83.872662,28.438821,3671
83.872659,28.438824,3671
83.872656,28.438827,3672
83.872653,28.438831,3672
83.87265,28.438835,3672
83.872647,28.43884,3672
83.872644,28.438844,3672
83.872643,28.438849,3672
83.872641,28.438853,3673
83.872641,28.438856,3673
83.872639,28.438859,3673
83.872637,28.438862,3673
83.872637,28.438866,3673
83.872637,28.438868,3673
83.872636,28.438871,3674
83.872636,28.438874,3674
83.872636,28.438878,3674
83.872635,28.438881,3674
83.872635,28.438884,3674
83.872634,28.438888,3674
83.872635,28.438891,3675
83.872634,28.438894,3675
83.872634,28.438896,3675
83.872634,28.438897,3675
83.872634,28.438898,3675
83.872633,28.438898,3675
83.872632,28.438899,3676
83.872631,28.438899,3676
83.87263,28.438898,3676
83.872632,28.438898,3676
83.872633,28.438898,3676
83.872634,28.438897,3676
83.872635,28.438896,3676
83.872636,28.438896,3676
83.872636,28.438895,3676
83.872636,28.438894,3676
83.872637,28.438894,3676
83.872638,28.438894,3676
83.872637,28.438895,3676
83.872636,28.438896,3676
83.872634,28.438896,3676
83.872632,28.438896,3676
83.872631,28.438896,3676
83.87263,28.438896,3676
83.872629,28.438896,3676
83.872629,28.438895,3676
83.872629,28.438894,3676
83.872628,28.438894,3676
83.872627,28.438894,3676
83.872626,28.438894,3676
83.872626,28.438896,3676
83.872625,28.4389,3676
83.872624,28.438905,3676
83.872623,28.43891,3676
83.872622,28.438914,3676
83.872622,28.438918,3676
83.872623,28.438922,3676
83.872623,28.438926,3677
83.872622,28.43893,3677
83.872621,28.438934,3677
83.872621,28.43894,3677
83.872621,28.438944,3677
83.872621,28.438948,3677
83.87262,28.438952,3677
83.872619,28.438955,3678
83.872619,28.438957,3678
83.872619,28.438959,3678
83.872619,28.438961,3678
83.872619,28.438962,3678
83.872618,28.438964,3678
83.872617,28.438965,3678
83.872616,28.438966,3679
83.872616,28.438967,3679
83.872615,28.43897,3679
83.872613,28.438974,3679
83.87261,28.438978,3679
83.872606,28.438982,3679
83.872602,28.438985,3679
83.872598,28.438989,3679
83.872595,28.438993,3679
83.872592,28.438996,3679
83.872588,28.438999,3679
83.872585,28.439003,3679
83.872581,28.439005,3679
83.872577,28.439008,3679
83.872574,28.439011,3679
83.872571,28.439014,3680
83.872568,28.439016,3680
83.872564,28.43902,3680
83.87256,28.439023,3680
83.872558,28.439025,3680
83.872553,28.439028,3680
83.872549,28.439031,3681
83.872546,28.439036,3681
83.872545,28.439037,3681
83.872543,28.439039,3681
83.872541,28.439039,3681
83.87254,28.43904,3681
83.872539,28.43904,3681
83.872538,28.43904,3681
83.872537,28.43904,3681
83.872537,28.439041,3681
83.872537,28.439042,3681
83.872538,28.439042,3682
83.872537,28.439042,3682
83.872537,28.439041,3682
83.872537,28.43904,3682
83.872538,28.439042,3682
83.872543,28.439045,3682
83.872548,28.439048,3682
83.872553,28.43905,3682
83.872558,28.439052,3682
83.872562,28.439054,3682
83.872566,28.439055,3682
83.87257,28.439056,3682
83.872575,28.439059,3682
83.87258,28.439062,3682
83.872585,28.439064,3682
83.87259,28.439066,3682
83.872596,28.439068,3682
83.872602,28.439069,3682
83.87261,28.43907,3683
83.872618,28.43907,3683
83.872625,28.439069,3683
83.872632,28.439071,3683
83.872637,28.439073,3683
83.872643,28.439074,3683
83.872649,28.439076,3683
83.872655,28.439078,3684
83.87266,28.439079,3684
83.872663,28.439082,3684
83.872666,28.439086,3684
83.872669,28.439091,3684
83.872674,28.439096,3685
83.872678,28.4391,3685
83.872681,28.439104,3685
83.872683,28.439108,3685
83.872685,28.439111,3685
83.872687,28.439114,3685
83.87269,28.439117,3685
83.872693,28.43912,3686
83.872695,28.439124,3686
83.872698,28.439128,3686
83.8727,28.439131,3686
83.872701,28.439133,3686
83.872702,28.439134,3686
</coordinates>
</LineString>
</Placemark>
<Placemark>
<name>DANGER</name>
<styleUrl>#line-FF0000-8000-nodesc</styleUrl>
<LineString>
<tessellate>1</tessellate>
<coordinates>
83.872741,28.439228,3670
83.872738,28.439227,3670
83.872732,28.439225,3670
83.872729,28.439224,3669
83.872725,28.43922,3669
83.872723,28.439215,3669
83.872723,28.43921,3669
83.872719,28.439205,3669
83.872714,28.439201,3668
83.872707,28.439198,3668
83.872702,28.439195,3668
83.872699,28.439191,3668
83.872696,28.439187,3667
83.872694,28.439181,3667
83.872691,28.439174,3667
83.872687,28.439166,3667
83.872683,28.43916,3667
83.872682,28.439158,3666
83.872683,28.439157,3666
83.872684,28.439156,3666
83.872685,28.439156,3666
83.872685,28.439155,3666
83.872683,28.439153,3666
83.872681,28.43915,3665
83.872678,28.439147,3665
83.872674,28.439143,3665
83.872673,28.439139,3665
83.872671,28.439134,3665
83.87267,28.439128,3665
83.872668,28.43912,3665
83.872665,28.439112,3664
83.872663,28.439105,3664
83.87266,28.439099,3664
83.872656,28.439094,3664
83.872651,28.43909,3664
83.872647,28.439087,3664
83.872643,28.439085,3663
83.872639,28.439083,3663
83.872634,28.439082,3663
83.872627,28.439081,3663
83.872619,28.43908,3663
83.872611,28.43908,3663
83.872604,28.439079,3662
83.872598,28.439078,3662
83.872593,28.439076,3662
83.872589,28.439073,3662
83.872585,28.439071,3662
83.872583,28.439071,3662
83.87258,28.439071,3661
83.872579,28.439072,3661
83.872578,28.439072,3661
83.872578,28.439073,3661
83.872577,28.439073,3661
83.872575,28.439072,3661
83.872572,28.43907,3661
83.872569,28.439067,3661
83.872565,28.439063,3661
83.872563,28.43906,3660
83.872559,28.439056,3660
83.872557,28.439052,3660
83.872555,28.43905,3660
83.872555,28.439045,3660
83.872557,28.439041,3660
83.872558,28.439037,3660
83.872561,28.439035,3660
83.872563,28.439031,3659
83.872566,28.439027,3659
83.872569,28.439023,3659
83.872572,28.439019,3659
83.872576,28.439015,3659
83.872578,28.439011,3658
83.872582,28.439007,3658
83.872586,28.439002,3658
83.872591,28.438998,3658
83.872596,28.438994,3658
83.8726,28.43899,3657
83.872605,28.438986,3657
83.872607,28.438982,3657
83.872609,28.438979,3657
83.872611,28.438974,3657
83.872612,28.438971,3657
83.872614,28.438967,3657
83.872615,28.438963,3656
83.872617,28.43896,3656
83.872619,28.438956,3656
83.872621,28.438953,3656
83.872623,28.438949,3656
83.872624,28.438945,3656
83.872625,28.43894,3656
83.872625,28.438936,3655
83.872626,28.438932,3655
83.872627,28.438926,3655
83.872626,28.43892,3655
83.872627,28.438915,3655
83.872627,28.438911,3655
83.872627,28.438907,3654
83.872627,28.438903,3654
83.872627,28.438899,3654
83.872627,28.438896,3654
83.872627,28.438892,3654
83.872628,28.438889,3654
83.872628,28.438885,3654
83.872628,28.438881,3654
83.872628,28.438878,3653
83.872628,28.438874,3653
83.872627,28.43887,3653
83.872626,28.438866,3653
83.872625,28.438862,3653
83.872625,28.438857,3653
83.872625,28.438853,3652
83.872625,28.438847,3652
83.872626,28.438842,3652
83.872626,28.438837,3652
83.872627,28.438833,3652
83.872626,28.438831,3652
83.872625,28.438832,3651
83.872624,28.438832,3651
83.872624,28.438833,3651
83.872623,28.438832,3651
83.872622,28.438832,3651
83.872621,28.438831,3651
83.87262,28.438831,3651
83.87262,28.438832,3651
83.872619,28.438832,3651
83.87262,28.438833,3651
83.87262,28.438832,3651
83.872621,28.43883,3651
83.872621,28.438828,3651
83.872618,28.438825,3651
83.872613,28.438824,3651
83.872608,28.438823,3651
83.872602,28.438822,3651
83.872596,28.438821,3651
83.87259,28.438821,3650
83.872584,28.438821,3650
83.872577,28.438818,3650
83.872571,28.438814,3650
83.872566,28.438807,3650
83.872561,28.438799,3650
83.872557,28.438792,3650
83.872554,28.438784,3649
83.872551,28.438777,3649
83.872549,28.43877,3649
83.872548,28.438765,3649
83.872549,28.438758,3649
83.872549,28.438751,3649
83.87255,28.438744,3649
83.872551,28.438738,3649
83.872552,28.438732,3649
83.872552,28.438726,3648
83.872552,28.43872,3648
83.872552,28.438714,3648
83.872552,28.438708,3648
83.872551,28.438702,3648
83.872549,28.438695,3648
83.872546,28.438689,3648
83.872542,28.438683,3648
83.872538,28.438677,3648
83.872534,28.438671,3648
83.872532,28.438665,3648
83.872529,28.43866,3648
83.872525,28.438654,3648
83.872521,28.438649,3648
83.872517,28.438644,3648
83.872513,28.438639,3648
83.872511,28.438634,3648
83.872509,28.43863,3647
83.872506,28.438625,3647
83.872504,28.438619,3647
83.872502,28.438612,3647
83.8725,28.438606,3647
83.872499,28.4386,3647
83.872498,28.438594,3647
83.872497,28.438588,3647
83.872497,28.438582,3647
83.872497,28.438575,3647
83.872497,28.438568,3647
83.872497,28.43856,3647
83.872496,28.438553,3647
83.872496,28.438546,3647
83.872497,28.438538,3647
83.872497,28.438531,3647
83.872497,28.438524,3647
83.872496,28.438517,3647
83.872494,28.43851,3647
83.872492,28.438503,3647
83.87249,28.438495,3647
83.872488,28.438489,3647
83.872486,28.438482,3647
83.872484,28.438476,3647
83.872481,28.43847,3647
83.872478,28.438464,3647
83.872475,28.438459,3647
83.872472,28.438454,3647
83.872469,28.438448,3647
83.872467,28.438442,3647
83.872464,28.438435,3647
83.872461,28.438428,3647
83.872458,28.438421,3647
83.872455,28.438414,3647
83.872453,28.438407,3648
83.872451,28.438401,3648
83.872449,28.438397,3648
83.872447,28.438392,3648
83.872445,28.438387,3648
83.87244,28.438382,3648
83.872435,28.438376,3648
83.872431,28.43837,3648
83.872426,28.438364,3648
83.872419,28.438358,3649
83.872412,28.438352,3649
83.872405,28.438346,3649
83.872398,28.43834,3649
83.872391,28.438334,3649
83.872385,28.438327,3649
83.872379,28.438321,3649
83.872373,28.438315,3649
83.872367,28.438309,3649
83.872361,28.438303,3649
83.872355,28.438298,3649
83.87235,28.438294,3649
83.872346,28.438289,3650
83.872342,28.438286,3650
83.87234,28.438283,3650
83.872339,28.438281,3650
83.872339,28.438278,3650
83.87234,28.438276,3650
83.87234,28.438272,3650
83.872342,28.43827,3650
83.872346,28.438267,3651
83.87235,28.438265,3651
83.872355,28.438263,3651
83.872359,28.43826,3651
83.872365,28.438258,3651
83.872371,28.438256,3652
83.872377,28.438254,3652
83.872383,28.438251,3652
83.872389,28.438249,3652
83.872393,28.438245,3652
83.872396,28.438241,3652
83.872398,28.438238,3652
83.872401,28.438234,3652
83.872404,28.438229,3652
83.872405,28.438223,3652
83.872406,28.438218,3652
83.872407,28.438212,3651
83.872408,28.438208,3651
83.87241,28.438203,3651
83.872413,28.438198,3651
83.872415,28.438192,3651
83.872417,28.438186,3651
83.872417,28.43818,3650
83.872417,28.438174,3650
83.872418,28.438169,3650
83.87242,28.438164,3650
83.872422,28.438159,3650
83.872423,28.438152,3649
83.872424,28.438146,3649
83.872423,28.438139,3649
83.872423,28.438133,3649
83.872423,28.438126,3649
83.872423,28.43812,3649
83.872424,28.438114,3649
83.872423,28.438107,3649
83.872422,28.438102,3648
83.872421,28.438095,3648
83.87242,28.43809,3648
83.872418,28.438083,3648
83.872417,28.438077,3648
83.872415,28.438071,3648
83.872412,28.438064,3648
83.872405,28.438059,3648
83.872397,28.438054,3648
83.87239,28.43805,3648
83.872385,28.438046,3648
83.87238,28.438043,3648
83.872375,28.43804,3648
83.87237,28.438037,3648
83.872367,28.438034,3647
83.872365,28.438031,3647
83.872361,28.438027,3647
83.872356,28.438023,3647
83.872349,28.438019,3647
83.87234,28.438016,3647
83.872331,28.438013,3647
83.872323,28.438011,3646
83.872316,28.438007,3646
83.87231,28.438003,3646
83.872305,28.437998,3646
83.872299,28.437992,3646
83.872293,28.437985,3646
83.872287,28.437978,3646
83.872282,28.437971,3646
83.872276,28.437963,3646
83.872269,28.437955,3646
83.87226,28.437948,3646
83.872251,28.437943,3646
83.872242,28.437941,3645
83.872233,28.43794,3645
83.872228,28.43794,3645
83.872225,28.437941,3645
83.872224,28.437941,3645
83.872222,28.437942,3645
83.872221,28.437944,3645
83.872219,28.437948,3645
83.872216,28.437953,3645
83.872212,28.437957,3645
83.872208,28.43796,3645
83.872204,28.437961,3645
83.8722,28.437963,3645
83.872197,28.437964,3645
83.872195,28.437963,3645
83.872193,28.437963,3645
83.872191,28.437963,3645
83.872189,28.437964,3645
83.872187,28.437965,3644
83.872186,28.437966,3644
83.872186,28.437965,3644
83.872187,28.437965,3644
83.872189,28.437967,3644
83.87219,28.437967,3644
83.872191,28.437965,3644
83.872192,28.437964,3644
83.872191,28.437961,3643
83.87219,28.437959,3643
83.872191,28.437956,3643
83.872191,28.437952,3643
83.872192,28.437947,3643
83.87219,28.437942,3643
83.872188,28.437937,3643
83.872187,28.437932,3643
83.872185,28.437927,3642
83.872183,28.437922,3642
83.872181,28.437918,3642
83.872177,28.437916,3642
83.872174,28.437913,3642
83.872169,28.437911,3642
83.872164,28.43791,3641
83.87216,28.437909,3641
83.872157,28.437908,3641
83.872154,28.437907,3641
83.87215,28.437907,3641
83.872146,28.437907,3640
83.872143,28.437907,3640
83.872141,28.437907,3640
83.872138,28.437907,3640
83.872137,28.437907,3640
83.872135,28.437905,3640
83.872135,28.437903,3640
83.872135,28.4379,3639
83.872134,28.437898,3639
83.872132,28.437894,3639
83.87213,28.437891,3639
83.872128,28.437888,3639
83.872127,28.437886,3638
83.872127,28.437885,3638
83.872126,28.437884,3638
83.872126,28.437885,3638
83.87213,28.437885,3638
83.872133,28.437883,3638
83.872134,28.437881,3638
83.872135,28.437879,3637
83.872135,28.437878,3637
83.872138,28.437877,3637
83.872139,28.437875,3637
83.87214,28.437874,3637
83.87214,28.437875,3637
83.87214,28.437876,3637
83.87214,28.437877,3637
83.87214,28.437878,3636
83.87214,28.437879,3636
83.872141,28.43788,3636
83.872142,28.437881,3636
83.872145,28.437879,3636
83.872145,28.437878,3636
83.872146,28.437877,3636
83.872146,28.437876,3636
83.872144,28.437876,3636
83.872143,28.437876,3636
83.872141,28.437876,3636
83.872139,28.437876,3636
83.872138,28.437876,3636
83.872136,28.437876,3636
83.872135,28.437877,3636
83.872133,28.437878,3636
83.872132,28.437878,3636
83.872131,28.437877,3636
83.87213,28.437877,3635
83.87213,28.437878,3636
83.872131,28.437877,3636
83.872132,28.437877,3636
83.872133,28.437877,3636
83.872134,28.437875,3636
83.872136,28.437874,3636
83.872138,28.437873,3635
83.872143,28.437871,3635
83.872147,28.437868,3635
83.87215,28.437863,3635
83.872152,28.437859,3635
83.872153,28.437855,3635
83.872152,28.437852,3635
83.87215,28.437849,3635
83.872147,28.437847,3634
83.872145,28.437846,3634
83.872141,28.437844,3634
83.872138,28.437843,3634
83.872134,28.437842,3634
83.872132,28.437842,3634
83.87213,28.437843,3634
83.872129,28.437841,3633
83.872125,28.437839,3633
83.87212,28.437837,3633
83.872117,28.437835,3633
83.872112,28.437833,3633
83.872109,28.437832,3633
83.872107,28.437833,3632
83.872104,28.437832,3632
83.872102,28.437831,3632
83.872099,28.437831,3632
83.872095,28.437829,3632
83.872092,28.437828,3632
83.872089,28.437826,3631
83.872085,28.437824,3631
83.872082,28.437823,3631
83.872079,28.437822,3631
83.872076,28.437822,3631
83.872073,28.437823,3631
83.87207,28.437824,3631
83.872069,28.437824,3630
83.872068,28.437825,3630
83.872067,28.437824,3630
83.872067,28.437825,3630
83.872066,28.437824,3630
83.872066,28.437823,3630
83.872064,28.437822,3630
83.872064,28.437819,3630
83.872063,28.437817,3629
83.872064,28.437813,3629
83.872065,28.437811,3629
83.872066,28.437809,3629
83.872067,28.437807,3629
83.872069,28.437805,3629
83.872069,28.437801,3629
83.87207,28.437798,3629
83.872067,28.437793,3628
83.872062,28.437788,3628
83.872056,28.437785,3628
83.872049,28.437783,3628
83.872045,28.437783,3628
83.872044,28.437785,3627
83.872043,28.437788,3627
83.872042,28.437791,3627
83.872041,28.437793,3627
83.872039,28.437796,3627
83.872039,28.437797,3627
83.872037,28.437798,3626
83.872036,28.437799,3626
83.872035,28.4378,3626
83.872035,28.437801,3626
83.872036,28.4378,3626
83.872037,28.4378,3626
83.872039,28.437799,3626
83.87204,28.437799,3626
83.872041,28.437799,3626
83.872042,28.437799,3626
83.872042,28.4378,3626
83.872043,28.4378,3626
83.872043,28.437799,3626
83.872042,28.437799,3626
83.872041,28.437799,3626
83.872042,28.437798,3626
83.872043,28.437797,3626
83.872045,28.437795,3626
83.872047,28.437794,3626
83.872049,28.437793,3626
83.872051,28.437792,3626
83.872052,28.437791,3626
83.872054,28.437791,3625
83.872057,28.43779,3625
83.872059,28.437788,3625
83.872061,28.437786,3625
83.872058,28.437783,3625
83.872055,28.437781,3625
83.872052,28.437778,3624
83.872051,28.437777,3624
83.872052,28.437776,3624
83.872053,28.437776,3624
83.872055,28.437775,3624
83.872057,28.437776,3624
83.872058,28.437775,3624
83.872058,28.437776,3624
83.872059,28.437776,3623
83.872059,28.437775,3623
83.872059,28.437774,3623
83.872059,28.437772,3623
83.872059,28.437771,3623
83.872058,28.43777,3623
83.872057,28.437769,3623
83.872056,28.437767,3623
83.872055,28.437765,3623
83.872054,28.437764,3622
83.872053,28.437763,3622
83.872054,28.437763,3622
83.872053,28.437762,3622
83.872054,28.437763,3622
83.872054,28.437762,3622
83.872053,28.437762,3622
83.872054,28.437762,3622
83.872057,28.437763,3622
83.872061,28.437764,3622
83.872065,28.437765,3622
83.872069,28.437765,3622
83.872073,28.437765,3622
83.872077,28.437766,3622
83.872079,28.437766,3621
83.872081,28.437764,3621
83.872082,28.437763,3621
83.872082,28.437761,3621
83.872082,28.437762,3621
83.872083,28.437762,3621
83.872083,28.437763,3620
83.872083,28.437762,3620
83.872084,28.437762,3620
83.872086,28.43776,3620
83.872088,28.43776,3620
83.87209,28.437758,3620
83.872094,28.437758,3620
83.872097,28.437757,3620
83.872102,28.437753,3620
83.872106,28.43775,3619
83.872109,28.437747,3619
83.872111,28.437745,3619
83.872112,28.437744,3619
83.872113,28.437742,3619
83.872114,28.437741,3619
83.872115,28.437741,3619
83.872115,28.43774,3619
83.872114,28.437741,3619
83.872114,28.437742,3618
83.872116,28.43774,3618
83.872117,28.43774,3618
83.872119,28.437737,3618
83.872124,28.437735,3618
83.872129,28.437732,3618
83.872132,28.437729,3618
83.872134,28.437728,3618
83.872135,28.437726,3618
83.872137,28.437724,3618
83.872139,28.437722,3618
83.872143,28.437719,3618
83.872144,28.437714,3618
83.872143,28.43771,3618
83.872142,28.437707,3617
83.872142,28.437705,3617
83.872141,28.437704,3617
83.87214,28.437702,3617
83.87214,28.437701,3617
83.872139,28.437701,3617
83.872139,28.4377,3616
83.872139,28.437697,3616
83.872139,28.437693,3616
83.872138,28.43769,3616
83.872136,28.437689,3616
83.872134,28.437688,3616
83.872131,28.437688,3616
83.87213,28.437687,3616
83.872128,28.437686,3616
83.872127,28.437687,3616
83.872125,28.437686,3616
83.872123,28.437685,3616
83.87212,28.437684,3616
83.872117,28.437685,3616
83.872115,28.437685,3616
83.872111,28.437685,3616
83.872108,28.437685,3615
83.872106,28.437686,3615
83.872105,28.437687,3615
83.872106,28.437687,3615
83.872106,28.437689,3615
83.872106,28.43769,3615
83.872107,28.437691,3615
83.872105,28.437691,3615
83.872102,28.437691,3615
83.872097,28.43769,3615
83.872091,28.437689,3615
83.872085,28.437688,3614
83.872079,28.437686,3614
83.872072,28.437682,3614
83.872064,28.437678,3614
83.872056,28.437673,3614
83.872046,28.437669,3614
83.872039,28.437666,3614
83.872034,28.437664,3613
83.872031,28.437663,3613
83.87203,28.437662,3613
83.872027,28.437661,3613
83.872025,28.43766,3613
83.872023,28.437659,3613
83.872021,28.437657,3613
83.872015,28.437656,3613
83.872008,28.437657,3613
83.872,28.437659,3613
83.871993,28.43766,3613
83.871986,28.437661,3613
83.871981,28.437662,3613
83.871978,28.437663,3613
83.871975,28.437662,3612
83.871974,28.437661,3612
83.871973,28.437661,3612
83.871973,28.43766,3612
83.871974,28.43766,3612
83.871975,28.43766,3612
83.871974,28.43766,3613
83.871975,28.437659,3613
83.871972,28.437656,3613
83.871967,28.437653,3613
83.871961,28.437649,3612
83.871957,28.437645,3612
83.871953,28.437638,3612
83.87195,28.437632,3612
83.871948,28.437628,3612
83.871948,28.437625,3612
83.871948,28.437624,3612
83.87195,28.437622,3612
83.871953,28.437619,3612
83.871957,28.437617,3612
83.871961,28.437613,3612
83.871966,28.437608,3612
83.871971,28.437602,3612
83.871974,28.437595,3612
83.871977,28.437588,3612
83.871976,28.437582,3611
83.871976,28.437575,3611
83.871975,28.437568,3611
83.871973,28.437559,3611
83.87197,28.43755,3611
83.871966,28.437542,3611
83.871964,28.437536,3611
83.871962,28.437533,3611
83.871961,28.437532,3611
83.87196,28.437531,3611
83.871959,28.437532,3611
83.871958,28.437532,3610
83.871957,28.437531,3610
83.871958,28.437531,3610
83.87196,28.43753,3610
83.871964,28.43753,3610
83.871969,28.43753,3610
83.871974,28.437529,3610
83.871979,28.437527,3610
83.871983,28.437524,3610
83.871984,28.43752,3610
83.871982,28.437515,3609
83.871978,28.437512,3609
83.871974,28.437509,3609
83.871972,28.437505,3609
83.871973,28.437502,3609
83.871975,28.437499,3609
83.871978,28.437495,3609
83.87198,28.437491,3609
83.871986,28.437487,3608
83.871991,28.437482,3608
83.871995,28.437476,3608
83.871998,28.437471,3607
83.872,28.437467,3607
83.872004,28.437466,3607
83.872008,28.437464,3606
83.872011,28.43746,3606
83.872013,28.437456,3606
83.872014,28.437453,3606
83.872016,28.437451,3605
83.872017,28.43745,3605
83.872018,28.437448,3605
83.872014,28.437445,3605
83.872009,28.437445,3605
83.872005,28.437445,3604
83.872001,28.437444,3604
83.871997,28.437443,3604
83.871994,28.437442,3604
83.871992,28.437442,3604
83.87199,28.437441,3604
83.871991,28.437442,3604
83.871992,28.437444,3604
83.871993,28.437443,3604
83.871996,28.43744,3604
83.871999,28.437437,3604
83.872001,28.437431,3603
83.872005,28.437424,3603
83.872007,28.437416,3603
83.872004,28.437409,3603
83.871998,28.437405,3603
83.871993,28.4374,3602
83.871988,28.437395,3602
83.871982,28.437391,3602
83.871976,28.437388,3601
83.87197,28.437385,3601
83.871965,28.437382,3601
83.87196,28.437377,3600
83.871954,28.437373,3600
83.871949,28.43737,3600
83.871943,28.437366,3599
83.871937,28.437361,3599
83.871933,28.437356,3599
83.871929,28.43735,3598
83.871925,28.437343,3598
83.87192,28.437337,3598
83.871917,28.437331,3597
83.871916,28.437325,3597
83.871917,28.437319,3597
83.871915,28.437314,3596
83.871912,28.437309,3596
83.871908,28.437307,3596
83.871904,28.437304,3595
83.871898,28.437301,3595
83.871892,28.437302,3595
83.871887,28.437303,3594
83.871884,28.437305,3594
83.871881,28.437307,3594
83.871879,28.437311,3593
83.871876,28.437314,3593
83.871874,28.437317,3593
83.871872,28.437319,3593
83.871869,28.437321,3593
83.871865,28.437323,3592
83.871861,28.437325,3592
83.871858,28.437324,3592
83.871855,28.437321,3592
83.871851,28.437318,3591
83.871847,28.437314,3591
83.871842,28.437309,3591
83.871837,28.437303,3591
83.871832,28.437298,3591
83.871828,28.437291,3591
83.871823,28.437283,3590
83.871818,28.437274,3590
83.871815,28.437266,3590
83.871816,28.437258,3589
83.871818,28.437252,3589
83.871822,28.437246,3589
83.871826,28.437239,3588
83.871829,28.437232,3588
83.871836,28.437227,3588
83.871843,28.437223,3587
83.871852,28.437219,3587
83.871857,28.437213,3587
83.871862,28.437206,3586
83.871864,28.437199,3586
83.871865,28.437194,3586
83.871865,28.43719,3585
83.871864,28.437183,3585
83.871862,28.437175,3585
83.871861,28.437168,3585
83.871861,28.437162,3584
83.871862,28.437155,3584
83.871863,28.437146,3584
83.871862,28.437137,3583
83.87186,28.437129,3583
83.87186,28.437122,3583
83.871864,28.437115,3582
83.871866,28.437108,3582
83.871866,28.437101,3582
83.871865,28.437095,3581
83.871864,28.437092,3581
83.871863,28.43709,3581
83.871862,28.437089,3580
83.871861,28.437088,3580
83.871862,28.437087,3580
83.871862,28.437086,3580
83.87186,28.437086,3580
83.871859,28.437085,3580
83.871858,28.437085,3580
83.871857,28.437085,3580
83.871856,28.437085,3580
83.871855,28.437085,3580
83.871855,28.437084,3580
83.871855,28.437083,3580
83.871854,28.437083,3580
83.871853,28.437083,3580
83.871853,28.437084,3580
83.871852,28.437083,3580
83.871852,28.437084,3579
83.871853,28.437084,3579
83.871852,28.437084,3579
83.871852,28.437085,3579
83.871851,28.437086,3579
83.87185,28.437086,3579
83.871849,28.437086,3579
83.871848,28.437086,3579
83.871847,28.437087,3579
83.871846,28.437087,3579
83.871845,28.437087,3579
83.871846,28.437087,3579
83.871846,28.437086,3579
83.871847,28.437087,3579
83.871846,28.437087,3579
83.871845,28.437087,3579
83.871844,28.437087,3579
83.871846,28.437088,3579
83.871849,28.437088,3579
83.871853,28.437087,3579
83.871859,28.437087,3579
83.871865,28.437086,3579
83.87187,28.437084,3579
83.871875,28.437082,3578
83.87188,28.437081,3578
83.871885,28.43708,3578
83.871889,28.437079,3578
83.871895,28.437077,3578
83.8719,28.437072,3578
83.871903,28.437065,3578
83.871903,28.437059,3578
83.871903,28.437054,3577
83.871901,28.437048,3577
83.8719,28.437042,3577
83.871898,28.437036,3577
83.871894,28.43703,3576
83.871888,28.437026,3576
83.871882,28.437021,3576
83.871875,28.437017,3575
83.871869,28.437014,3575
83.871861,28.43701,3575
83.871854,28.437006,3575
83.871847,28.437002,3574
83.87184,28.436998,3574
83.871834,28.436993,3574
83.871827,28.436988,3573
83.871824,28.436983,3573
83.871821,28.436978,3573
83.871819,28.436972,3573
83.871815,28.436966,3572
83.871809,28.436961,3572
83.871803,28.436957,3572
83.871799,28.436953,3571
83.871794,28.436947,3571
83.87179,28.436942,3571
83.871786,28.436935,3571
83.871783,28.436929,3570
83.871781,28.436923,3570
83.87178,28.436915,3570
83.871778,28.436907,3570
83.871775,28.436899,3570
83.87177,28.436893,3569
83.871766,28.436888,3569
83.871762,28.436885,3569
83.871763,28.436883,3569
83.871766,28.436881,3568
83.871769,28.43688,3568
83.871773,28.436879,3568
83.871779,28.43688,3568
83.871786,28.436879,3568
83.871791,28.436876,3567
83.871793,28.436872,3567
83.871794,28.436867,3567
83.871794,28.43686,3566
83.871792,28.436852,3566
83.87179,28.436844,3566
83.871787,28.436835,3566
83.871783,28.436826,3565
83.871779,28.436816,3565
83.871775,28.436805,3565
83.871772,28.436794,3565
83.871768,28.436783,3564
83.871765,28.436772,3564
83.871761,28.436761,3564
83.871756,28.43675,3564
83.87175,28.436739,3564
83.871745,28.436729,3564
83.871739,28.436719,3564
83.871733,28.436709,3564
83.871729,28.4367,3564
83.871725,28.436691,3564
83.871717,28.436686,3564
83.871711,28.436683,3564
83.871708,28.436681,3564
83.871706,28.436681,3564
83.871705,28.436681,3564
83.871704,28.436681,3564
83.871703,28.436681,3564
83.871704,28.436681,3565
83.871705,28.436681,3565
83.871706,28.436681,3565
83.871708,28.436677,3565
83.87171,28.43667,3565
83.871711,28.436662,3564
83.87171,28.436655,3564
83.871707,28.436649,3564
83.871706,28.436642,3564
83.871705,28.436637,3564
83.871707,28.436631,3564
83.87171,28.436624,3564
83.871713,28.436617,3564
83.871715,28.436609,3564
83.871718,28.436601,3564
83.871721,28.436592,3564
83.871724,28.436583,3564
83.871728,28.436573,3563
83.871731,28.436564,3563
83.871734,28.436554,3563
83.871737,28.436546,3563
83.87174,28.436537,3563
83.871741,28.436535,3562
</coordinates>
</LineString>
</Placemark>
<Placemark>
<name>EXTREME DANGER</name>
<description>There is no space even to construct the stairs. Trail is extremely narrow and has high cliffs on both side.</description>
<styleUrl>#icon-1899-0288D1</styleUrl>
<MultiGeometry>
<Point>
<coordinates>
83.872085,28.437858,0
</coordinates>
</Point>
<Polygon>
<outerBoundaryIs>
<LinearRing>
<tessellate>1</tessellate>
<coordinates>
83.8720312,28.4390746,0
83.871287,28.436973,0
83.872048,28.436445,0
83.872933,28.438969,0
83.8720312,28.4390746,0
</coordinates>
</LinearRing>
</outerBoundaryIs>
</Polygon>
<Polygon>
<outerBoundaryIs>
<LinearRing>
<tessellate>1</tessellate>
<coordinates>
83.872032,28.439077,0
83.872032,28.439086,0
83.872011,28.439077,0
83.8720312,28.4390746,0
83.872032,28.439077,0
</coordinates>
</LinearRing>
</outerBoundaryIs>
</Polygon>
</MultiGeometry>
</Placemark>
<Placemark>
<name>Point 4</name>
<styleUrl>#icon-1899-0288D1-nodesc</styleUrl>
<Point>
<coordinates>
83.8722741,28.4385035,0
</coordinates>
</Point>
</Placemark>
<Placemark>
<name>SAFER</name>
<styleUrl>#icon-1899-0288D1-nodesc</styleUrl>
<Point>
<coordinates>
83.8748007,28.4386498,0
</coordinates>
</Point>
</Placemark>
</Folder>
</Document>
</kml>
