<?xml version="1.0" encoding="UTF-8"?>
<kml xmlns="http://www.opengis.net/kml/2.2" xmlns:gx="http://www.google.com/kml/ext/2.2">
<Document>
<Style id="placemark-red">
<IconStyle>
<Icon>
<href>https://comaps.at/placemarks/placemark-red.png</href>
</Icon>
</IconStyle>
</Style>
<Style id="placemark-blue">
<IconStyle>
<Icon>
<href>https://comaps.at/placemarks/placemark-blue.png</href>
</Icon>
</IconStyle>
</Style>
<Style id="placemark-purple">
<IconStyle>
<Icon>
<href>https://comaps.at/placemarks/placemark-purple.png</href>
</Icon>
</IconStyle>
</Style>
<Style id="placemark-yellow">
<IconStyle>
<Icon>
<href>https://comaps.at/placemarks/placemark-yellow.png</href>
</Icon>
</IconStyle>
</Style>
<Style id="placemark-pink">
<IconStyle>
<Icon>
<href>https://comaps.at/placemarks/placemark-pink.png</href>
</Icon>
</IconStyle>
</Style>
<Style id="placemark-brown">
<IconStyle>
<Icon>
<href>https://comaps.at/placemarks/placemark-brown.png</href>
</Icon>
</IconStyle>
</Style>
<Style id="placemark-green">
<IconStyle>
<Icon>
<href>https://comaps.at/placemarks/placemark-green.png</href>
</Icon>
</IconStyle>
</Style>
<Style id="placemark-orange">
<IconStyle>
<Icon>
<href>https://comaps.at/placemarks/placemark-orange.png</href>
</Icon>
</IconStyle>
</Style>
<Style id="placemark-deeppurple">
<IconStyle>
<Icon>
<href>https://comaps.at/placemarks/placemark-deeppurple.png</href>
</Icon>
</IconStyle>
</Style>
<Style id="placemark-lightblue">
<IconStyle>
<Icon>
<href>https://comaps.at/placemarks/placemark-lightblue.png</href>
</Icon>
</IconStyle>
</Style>
<Style id="placemark-cyan">
<IconStyle>
<Icon>
<href>https://comaps.at/placemarks/placemark-cyan.png</href>
</Icon>
</IconStyle>
</Style>
<Style id="placemark-teal">
<IconStyle>
<Icon>
<href>https://comaps.at/placemarks/placemark-teal.png</href>
</Icon>
</IconStyle>
</Style>
<Style id="placemark-lime">
<IconStyle>
<Icon>
<href>https://comaps.at/placemarks/placemark-lime.png</href>
</Icon>
</IconStyle>
</Style>
<Style id="placemark-deeporange">
<IconStyle>
<Icon>
<href>https://comaps.at/placemarks/placemark-deeporange.png</href>
</Icon>
</IconStyle>
</Style>
<Style id="placemark-gray">
<IconStyle>
<Icon>
<href>https://comaps.at/placemarks/placemark-gray.png</href>
</Icon>
</IconStyle>
</Style>
<Style id="placemark-bluegray">
<IconStyle>
<Icon>
<href>https://comaps.at/placemarks/placemark-bluegray.png</href>
</Icon>
</IconStyle>
</Style>
<name>Muhan Pokhari - Gurje Bhanjyang</name>
<visibility>1</visibility>
<ExtendedData xmlns:mwm="https://comaps.app">
<mwm:name>
<mwm:lang code="default">Muhan Pokhari - Gurje Bhanjyang</mwm:lang>
</mwm:name>
<mwm:annotation>
</mwm:annotation>
<mwm:description>
</mwm:description>
<mwm:accessRules>Local</mwm:accessRules>
</ExtendedData>
<Placemark>
<name>Muhan Pokhari - Gurje Bhanjyang</name>
<Style><LineStyle>
<color>FF8241FF</color>
<width>5</width>
</LineStyle></Style>
<TimeStamp><when>2026-05-09T07:55:59Z</when></TimeStamp>
<gx:Track>
<when>2026-05-09T03:12:13Z</when>
<when>2026-05-09T03:12:21Z</when>
<when>2026-05-09T03:12:29Z</when>
<when>2026-05-09T03:12:37Z</when>
<when>2026-05-09T03:12:47Z</when>
<when>2026-05-09T03:12:55Z</when>
<when>2026-05-09T03:13:04Z</when>
<when>2026-05-09T03:13:13Z</when>
<when>2026-05-09T03:13:22Z</when>
<when>2026-05-09T03:13:29Z</when>
<when>2026-05-09T03:13:37Z</when>
<when>2026-05-09T03:13:46Z</when>
<when>2026-05-09T03:13:55Z</when>
<when>2026-05-09T03:14:04Z</when>
<when>2026-05-09T03:14:13Z</when>
<when>2026-05-09T03:14:20Z</when>
<when>2026-05-09T03:14:30Z</when>
<when>2026-05-09T03:14:38Z</when>
<when>2026-05-09T03:14:45Z</when>
<when>2026-05-09T03:14:56Z</when>
<when>2026-05-09T03:15:03Z</when>
<when>2026-05-09T03:15:11Z</when>
<when>2026-05-09T03:15:17Z</when>
<when>2026-05-09T03:15:25Z</when>
<when>2026-05-09T03:15:33Z</when>
<when>2026-05-09T03:15:41Z</when>
<when>2026-05-09T03:15:48Z</when>
<when>2026-05-09T03:15:56Z</when>
<when>2026-05-09T03:16:04Z</when>
<when>2026-05-09T03:16:14Z</when>
<when>2026-05-09T03:16:26Z</when>
<when>2026-05-09T03:16:37Z</when>
<when>2026-05-09T03:16:46Z</when>
<when>2026-05-09T03:16:54Z</when>
<when>2026-05-09T03:17:07Z</when>
<when>2026-05-09T03:18:17Z</when>
<when>2026-05-09T03:18:24Z</when>
<when>2026-05-09T03:18:32Z</when>
<when>2026-05-09T03:18:40Z</when>
<when>2026-05-09T03:18:47Z</when>
<when>2026-05-09T03:18:55Z</when>
<when>2026-05-09T03:19:04Z</when>
<when>2026-05-09T03:19:45Z</when>
<when>2026-05-09T03:19:55Z</when>
<when>2026-05-09T03:20:04Z</when>
<when>2026-05-09T03:20:14Z</when>
<when>2026-05-09T03:20:21Z</when>
<when>2026-05-09T03:20:30Z</when>
<when>2026-05-09T03:20:38Z</when>
<when>2026-05-09T03:20:47Z</when>
<when>2026-05-09T03:20:59Z</when>
<when>2026-05-09T03:21:08Z</when>
<when>2026-05-09T03:21:19Z</when>
<when>2026-05-09T03:21:28Z</when>
<when>2026-05-09T03:21:36Z</when>
<when>2026-05-09T03:21:45Z</when>
<when>2026-05-09T03:21:54Z</when>
<when>2026-05-09T03:22:04Z</when>
<when>2026-05-09T03:22:13Z</when>
<when>2026-05-09T03:22:22Z</when>
<when>2026-05-09T03:22:31Z</when>
<when>2026-05-09T03:22:39Z</when>
<when>2026-05-09T03:22:48Z</when>
<when>2026-05-09T03:22:56Z</when>
<when>2026-05-09T03:23:04Z</when>
<when>2026-05-09T03:23:13Z</when>
<when>2026-05-09T03:23:22Z</when>
<when>2026-05-09T03:23:31Z</when>
<when>2026-05-09T03:23:41Z</when>
<when>2026-05-09T03:23:51Z</when>
<when>2026-05-09T03:23:59Z</when>
<when>2026-05-09T03:24:07Z</when>
<when>2026-05-09T03:24:15Z</when>
<when>2026-05-09T03:24:22Z</when>
<when>2026-05-09T03:24:32Z</when>
<when>2026-05-09T03:24:41Z</when>
<when>2026-05-09T03:24:50Z</when>
<when>2026-05-09T03:24:59Z</when>
<when>2026-05-09T03:25:08Z</when>
<when>2026-05-09T03:26:14Z</when>
<when>2026-05-09T03:26:24Z</when>
<when>2026-05-09T03:26:33Z</when>
<when>2026-05-09T03:26:44Z</when>
<when>2026-05-09T03:26:54Z</when>
<when>2026-05-09T03:27:05Z</when>
<when>2026-05-09T03:27:46Z</when>
<when>2026-05-09T03:27:58Z</when>
<when>2026-05-09T03:28:08Z</when>
<when>2026-05-09T03:28:19Z</when>
<when>2026-05-09T03:28:29Z</when>
<when>2026-05-09T03:28:40Z</when>
<when>2026-05-09T03:28:50Z</when>
<when>2026-05-09T03:28:59Z</when>
<when>2026-05-09T03:29:10Z</when>
<when>2026-05-09T03:29:25Z</when>
<when>2026-05-09T03:29:34Z</when>
<when>2026-05-09T03:29:43Z</when>
<when>2026-05-09T03:29:53Z</when>
<when>2026-05-09T03:30:12Z</when>
<when>2026-05-09T03:30:22Z</when>
<when>2026-05-09T03:30:31Z</when>
<when>2026-05-09T03:30:39Z</when>
<when>2026-05-09T03:30:48Z</when>
<when>2026-05-09T03:30:58Z</when>
<when>2026-05-09T03:31:08Z</when>
<when>2026-05-09T03:31:16Z</when>
<when>2026-05-09T03:31:26Z</when>
<when>2026-05-09T03:32:16Z</when>
<when>2026-05-09T03:32:20Z</when>
<when>2026-05-09T03:32:27Z</when>
<when>2026-05-09T03:32:35Z</when>
<when>2026-05-09T03:32:42Z</when>
<when>2026-05-09T03:32:55Z</when>
<when>2026-05-09T03:33:05Z</when>
<when>2026-05-09T03:33:14Z</when>
<when>2026-05-09T03:33:23Z</when>
<when>2026-05-09T03:33:36Z</when>
<when>2026-05-09T03:33:48Z</when>
<when>2026-05-09T03:34:01Z</when>
<when>2026-05-09T03:34:11Z</when>
<when>2026-05-09T03:34:20Z</when>
<when>2026-05-09T03:34:30Z</when>
<when>2026-05-09T03:34:42Z</when>
<when>2026-05-09T03:34:49Z</when>
<when>2026-05-09T03:38:06Z</when>
<when>2026-05-09T03:42:43Z</when>
<when>2026-05-09T03:44:05Z</when>
<when>2026-05-09T03:44:13Z</when>
<when>2026-05-09T03:44:22Z</when>
<when>2026-05-09T03:44:35Z</when>
<when>2026-05-09T03:44:47Z</when>
<when>2026-05-09T03:44:57Z</when>
<when>2026-05-09T03:45:07Z</when>
<when>2026-05-09T03:45:18Z</when>
<when>2026-05-09T03:45:29Z</when>
<when>2026-05-09T03:45:42Z</when>
<when>2026-05-09T03:45:58Z</when>
<when>2026-05-09T03:46:15Z</when>
<when>2026-05-09T03:46:24Z</when>
<when>2026-05-09T03:46:34Z</when>
<when>2026-05-09T03:46:42Z</when>
<when>2026-05-09T03:47:12Z</when>
<when>2026-05-09T03:47:26Z</when>
<when>2026-05-09T03:47:37Z</when>
<when>2026-05-09T03:47:46Z</when>
<when>2026-05-09T03:47:53Z</when>
<when>2026-05-09T03:48:01Z</when>
<when>2026-05-09T03:48:12Z</when>
<when>2026-05-09T03:48:21Z</when>
<when>2026-05-09T03:48:30Z</when>
<when>2026-05-09T03:48:39Z</when>
<when>2026-05-09T03:48:49Z</when>
<when>2026-05-09T03:49:05Z</when>
<when>2026-05-09T03:49:23Z</when>
<when>2026-05-09T03:49:33Z</when>
<when>2026-05-09T03:49:41Z</when>
<when>2026-05-09T03:49:51Z</when>
<when>2026-05-09T03:49:58Z</when>
<when>2026-05-09T03:50:06Z</when>
<when>2026-05-09T03:50:13Z</when>
<when>2026-05-09T03:50:22Z</when>
<when>2026-05-09T03:50:39Z</when>
<when>2026-05-09T03:51:05Z</when>
<when>2026-05-09T03:52:03Z</when>
<when>2026-05-09T03:52:13Z</when>
<when>2026-05-09T03:52:27Z</when>
<when>2026-05-09T03:52:39Z</when>
<when>2026-05-09T03:52:47Z</when>
<when>2026-05-09T03:52:55Z</when>
<when>2026-05-09T03:53:06Z</when>
<when>2026-05-09T03:53:15Z</when>
<when>2026-05-09T03:53:23Z</when>
<when>2026-05-09T03:53:30Z</when>
<when>2026-05-09T03:53:38Z</when>
<when>2026-05-09T03:53:46Z</when>
<when>2026-05-09T03:53:53Z</when>
<when>2026-05-09T03:54:07Z</when>
<when>2026-05-09T03:54:19Z</when>
<when>2026-05-09T03:54:24Z</when>
<when>2026-05-09T03:54:33Z</when>
<when>2026-05-09T03:54:42Z</when>
<when>2026-05-09T03:54:51Z</when>
<when>2026-05-09T03:55:01Z</when>
<when>2026-05-09T03:55:12Z</when>
<when>2026-05-09T03:55:29Z</when>
<when>2026-05-09T03:55:38Z</when>
<when>2026-05-09T03:55:46Z</when>
<when>2026-05-09T03:55:58Z</when>
<when>2026-05-09T03:56:04Z</when>
<when>2026-05-09T03:56:11Z</when>
<when>2026-05-09T03:56:19Z</when>
<when>2026-05-09T03:56:28Z</when>
<when>2026-05-09T03:56:49Z</when>
<when>2026-05-09T03:57:00Z</when>
<when>2026-05-09T03:57:07Z</when>
<when>2026-05-09T03:57:15Z</when>
<when>2026-05-09T03:57:21Z</when>
<when>2026-05-09T03:57:28Z</when>
<when>2026-05-09T03:57:33Z</when>
<when>2026-05-09T03:57:40Z</when>
<when>2026-05-09T03:57:48Z</when>
<when>2026-05-09T03:57:56Z</when>
<when>2026-05-09T03:58:03Z</when>
<when>2026-05-09T03:58:14Z</when>
<when>2026-05-09T03:58:22Z</when>
<when>2026-05-09T03:58:28Z</when>
<when>2026-05-09T03:58:34Z</when>
<when>2026-05-09T03:58:41Z</when>
<when>2026-05-09T03:58:49Z</when>
<when>2026-05-09T03:58:55Z</when>
<when>2026-05-09T03:59:02Z</when>
<when>2026-05-09T03:59:11Z</when>
<when>2026-05-09T03:59:24Z</when>
<when>2026-05-09T03:59:39Z</when>
<when>2026-05-09T03:59:47Z</when>
<when>2026-05-09T03:59:55Z</when>
<when>2026-05-09T04:00:02Z</when>
<when>2026-05-09T04:00:13Z</when>
<when>2026-05-09T04:00:19Z</when>
<when>2026-05-09T04:00:23Z</when>
<when>2026-05-09T04:00:33Z</when>
<when>2026-05-09T04:00:42Z</when>
<when>2026-05-09T04:00:54Z</when>
<when>2026-05-09T04:01:02Z</when>
<when>2026-05-09T04:01:11Z</when>
<when>2026-05-09T04:01:18Z</when>
<when>2026-05-09T04:01:25Z</when>
<when>2026-05-09T04:01:41Z</when>
<when>2026-05-09T04:01:53Z</when>
<when>2026-05-09T04:02:02Z</when>
<when>2026-05-09T04:02:10Z</when>
<when>2026-05-09T04:02:20Z</when>
<when>2026-05-09T04:02:27Z</when>
<when>2026-05-09T04:02:33Z</when>
<when>2026-05-09T04:02:41Z</when>
<when>2026-05-09T04:02:48Z</when>
<when>2026-05-09T04:02:57Z</when>
<when>2026-05-09T04:03:04Z</when>
<when>2026-05-09T04:03:13Z</when>
<when>2026-05-09T04:03:18Z</when>
<when>2026-05-09T04:03:24Z</when>
<when>2026-05-09T04:03:31Z</when>
<when>2026-05-09T04:03:40Z</when>
<when>2026-05-09T04:03:47Z</when>
<when>2026-05-09T04:04:02Z</when>
<when>2026-05-09T04:04:11Z</when>
<when>2026-05-09T04:04:23Z</when>
<when>2026-05-09T04:04:35Z</when>
<when>2026-05-09T04:04:41Z</when>
<when>2026-05-09T04:04:49Z</when>
<when>2026-05-09T04:05:01Z</when>
<when>2026-05-09T04:05:09Z</when>
<when>2026-05-09T04:05:18Z</when>
<when>2026-05-09T04:05:27Z</when>
<when>2026-05-09T04:05:36Z</when>
<when>2026-05-09T04:06:01Z</when>
<when>2026-05-09T04:06:12Z</when>
<when>2026-05-09T04:06:18Z</when>
<when>2026-05-09T04:06:23Z</when>
<when>2026-05-09T04:06:31Z</when>
<when>2026-05-09T04:06:40Z</when>
<when>2026-05-09T04:06:52Z</when>
<when>2026-05-09T04:06:59Z</when>
<when>2026-05-09T04:07:06Z</when>
<when>2026-05-09T04:07:16Z</when>
<when>2026-05-09T04:07:24Z</when>
<when>2026-05-09T04:07:32Z</when>
<when>2026-05-09T04:07:40Z</when>
<when>2026-05-09T04:07:47Z</when>
<when>2026-05-09T04:07:56Z</when>
<when>2026-05-09T04:08:03Z</when>
<when>2026-05-09T04:08:13Z</when>
<when>2026-05-09T04:08:21Z</when>
<when>2026-05-09T04:08:27Z</when>
<when>2026-05-09T04:08:37Z</when>
<when>2026-05-09T04:08:47Z</when>
<when>2026-05-09T04:09:01Z</when>
<when>2026-05-09T04:09:10Z</when>
<when>2026-05-09T04:12:21Z</when>
<when>2026-05-09T04:13:05Z</when>
<when>2026-05-09T04:13:18Z</when>
<when>2026-05-09T04:13:28Z</when>
<when>2026-05-09T04:13:36Z</when>
<when>2026-05-09T04:13:43Z</when>
<when>2026-05-09T04:13:53Z</when>
<when>2026-05-09T04:14:00Z</when>
<when>2026-05-09T04:14:09Z</when>
<when>2026-05-09T04:14:19Z</when>
<when>2026-05-09T04:14:27Z</when>
<when>2026-05-09T04:14:36Z</when>
<when>2026-05-09T04:14:43Z</when>
<when>2026-05-09T04:14:50Z</when>
<when>2026-05-09T04:15:03Z</when>
<when>2026-05-09T04:15:13Z</when>
<when>2026-05-09T04:15:46Z</when>
<when>2026-05-09T04:15:54Z</when>
<when>2026-05-09T04:16:01Z</when>
<when>2026-05-09T04:16:08Z</when>
<when>2026-05-09T04:16:19Z</when>
<when>2026-05-09T04:16:35Z</when>
<when>2026-05-09T04:16:42Z</when>
<when>2026-05-09T04:16:51Z</when>
<when>2026-05-09T04:17:00Z</when>
<when>2026-05-09T04:17:08Z</when>
<when>2026-05-09T04:17:15Z</when>
<when>2026-05-09T04:17:22Z</when>
<when>2026-05-09T04:17:28Z</when>
<when>2026-05-09T04:17:35Z</when>
<when>2026-05-09T04:17:43Z</when>
<when>2026-05-09T04:17:50Z</when>
<when>2026-05-09T04:17:59Z</when>
<when>2026-05-09T04:18:10Z</when>
<when>2026-05-09T04:18:18Z</when>
<when>2026-05-09T04:18:35Z</when>
<when>2026-05-09T04:18:44Z</when>
<when>2026-05-09T04:18:50Z</when>
<when>2026-05-09T04:19:00Z</when>
<when>2026-05-09T04:19:11Z</when>
<when>2026-05-09T04:19:18Z</when>
<when>2026-05-09T04:19:27Z</when>
<when>2026-05-09T04:19:35Z</when>
<when>2026-05-09T04:19:48Z</when>
<when>2026-05-09T04:19:57Z</when>
<when>2026-05-09T04:20:05Z</when>
<when>2026-05-09T04:20:14Z</when>
<when>2026-05-09T04:20:23Z</when>
<when>2026-05-09T04:20:30Z</when>
<when>2026-05-09T04:20:39Z</when>
<when>2026-05-09T04:20:47Z</when>
<when>2026-05-09T04:20:56Z</when>
<when>2026-05-09T04:21:04Z</when>
<when>2026-05-09T04:21:13Z</when>
<when>2026-05-09T04:21:21Z</when>
<when>2026-05-09T04:21:29Z</when>
<when>2026-05-09T04:21:58Z</when>
<when>2026-05-09T04:22:04Z</when>
<when>2026-05-09T04:22:11Z</when>
<when>2026-05-09T04:22:18Z</when>
<when>2026-05-09T04:22:24Z</when>
<when>2026-05-09T04:22:31Z</when>
<when>2026-05-09T04:22:42Z</when>
<when>2026-05-09T04:22:51Z</when>
<when>2026-05-09T04:22:56Z</when>
<when>2026-05-09T04:23:03Z</when>
<when>2026-05-09T04:23:13Z</when>
<when>2026-05-09T04:23:20Z</when>
<when>2026-05-09T04:23:26Z</when>
<when>2026-05-09T04:23:34Z</when>
<when>2026-05-09T04:23:45Z</when>
<when>2026-05-09T04:23:52Z</when>
<when>2026-05-09T04:24:00Z</when>
<when>2026-05-09T04:24:06Z</when>
<when>2026-05-09T04:24:14Z</when>
<when>2026-05-09T04:24:20Z</when>
<when>2026-05-09T04:24:28Z</when>
<when>2026-05-09T04:24:35Z</when>
<when>2026-05-09T04:24:44Z</when>
<when>2026-05-09T04:24:51Z</when>
<when>2026-05-09T04:25:00Z</when>
<when>2026-05-09T04:25:10Z</when>
<when>2026-05-09T04:25:19Z</when>
<when>2026-05-09T04:25:29Z</when>
<when>2026-05-09T04:25:38Z</when>
<when>2026-05-09T04:25:48Z</when>
<when>2026-05-09T04:25:53Z</when>
<when>2026-05-09T04:25:58Z</when>
<when>2026-05-09T04:26:05Z</when>
<when>2026-05-09T04:26:12Z</when>
<when>2026-05-09T04:26:23Z</when>
<when>2026-05-09T04:26:29Z</when>
<when>2026-05-09T04:26:35Z</when>
<when>2026-05-09T04:26:44Z</when>
<when>2026-05-09T04:26:53Z</when>
<when>2026-05-09T04:27:02Z</when>
<when>2026-05-09T04:27:08Z</when>
<when>2026-05-09T04:27:16Z</when>
<when>2026-05-09T04:27:26Z</when>
<when>2026-05-09T04:27:37Z</when>
<when>2026-05-09T04:27:46Z</when>
<when>2026-05-09T04:27:56Z</when>
<when>2026-05-09T04:28:05Z</when>
<when>2026-05-09T04:28:26Z</when>
<when>2026-05-09T04:29:29Z</when>
<when>2026-05-09T04:30:22Z</when>
<when>2026-05-09T04:31:18Z</when>
<when>2026-05-09T04:31:30Z</when>
<when>2026-05-09T04:31:41Z</when>
<when>2026-05-09T04:31:53Z</when>
<when>2026-05-09T04:32:04Z</when>
<when>2026-05-09T04:32:12Z</when>
<when>2026-05-09T04:32:19Z</when>
<when>2026-05-09T04:32:28Z</when>
<when>2026-05-09T04:32:37Z</when>
<when>2026-05-09T04:32:46Z</when>
<when>2026-05-09T04:32:54Z</when>
<when>2026-05-09T04:33:04Z</when>
<when>2026-05-09T04:33:25Z</when>
<when>2026-05-09T04:33:38Z</when>
<when>2026-05-09T04:33:47Z</when>
<when>2026-05-09T04:33:54Z</when>
<when>2026-05-09T04:34:02Z</when>
<when>2026-05-09T04:34:07Z</when>
<when>2026-05-09T04:34:13Z</when>
<when>2026-05-09T04:34:20Z</when>
<when>2026-05-09T04:34:28Z</when>
<when>2026-05-09T04:34:41Z</when>
<when>2026-05-09T04:34:52Z</when>
<when>2026-05-09T04:35:01Z</when>
<when>2026-05-09T04:35:07Z</when>
<when>2026-05-09T04:35:13Z</when>
<when>2026-05-09T04:35:19Z</when>
<when>2026-05-09T04:35:26Z</when>
<when>2026-05-09T04:35:34Z</when>
<when>2026-05-09T04:35:43Z</when>
<when>2026-05-09T04:35:52Z</when>
<when>2026-05-09T04:35:59Z</when>
<when>2026-05-09T04:36:06Z</when>
<when>2026-05-09T04:36:13Z</when>
<when>2026-05-09T04:36:24Z</when>
<when>2026-05-09T04:36:34Z</when>
<when>2026-05-09T04:36:42Z</when>
<when>2026-05-09T04:36:51Z</when>
<when>2026-05-09T04:36:58Z</when>
<when>2026-05-09T04:37:05Z</when>
<when>2026-05-09T04:37:12Z</when>
<when>2026-05-09T04:37:20Z</when>
<when>2026-05-09T04:37:30Z</when>
<when>2026-05-09T04:37:49Z</when>
<when>2026-05-09T04:38:03Z</when>
<when>2026-05-09T04:38:10Z</when>
<when>2026-05-09T04:38:16Z</when>
<when>2026-05-09T04:38:23Z</when>
<when>2026-05-09T04:38:32Z</when>
<when>2026-05-09T04:38:40Z</when>
<when>2026-05-09T04:38:49Z</when>
<when>2026-05-09T04:38:55Z</when>
<when>2026-05-09T04:39:04Z</when>
<when>2026-05-09T04:39:11Z</when>
<when>2026-05-09T04:39:17Z</when>
<when>2026-05-09T04:39:27Z</when>
<when>2026-05-09T04:39:34Z</when>
<when>2026-05-09T04:39:41Z</when>
<when>2026-05-09T04:39:55Z</when>
<when>2026-05-09T04:40:05Z</when>
<when>2026-05-09T04:40:15Z</when>
<when>2026-05-09T04:40:25Z</when>
<when>2026-05-09T04:40:33Z</when>
<when>2026-05-09T04:40:46Z</when>
<when>2026-05-09T04:40:55Z</when>
<when>2026-05-09T04:41:02Z</when>
<when>2026-05-09T04:41:10Z</when>
<when>2026-05-09T04:41:19Z</when>
<when>2026-05-09T04:41:28Z</when>
<when>2026-05-09T04:41:36Z</when>
<when>2026-05-09T04:41:43Z</when>
<when>2026-05-09T04:41:50Z</when>
<when>2026-05-09T04:41:57Z</when>
<when>2026-05-09T04:42:03Z</when>
<when>2026-05-09T04:42:10Z</when>
<when>2026-05-09T04:42:18Z</when>
<when>2026-05-09T04:42:26Z</when>
<when>2026-05-09T04:42:35Z</when>
<when>2026-05-09T04:42:44Z</when>
<when>2026-05-09T04:42:52Z</when>
<when>2026-05-09T04:42:59Z</when>
<when>2026-05-09T04:43:08Z</when>
<when>2026-05-09T04:43:19Z</when>
<when>2026-05-09T04:43:29Z</when>
<when>2026-05-09T04:43:36Z</when>
<when>2026-05-09T04:43:43Z</when>
<when>2026-05-09T04:43:51Z</when>
<when>2026-05-09T04:43:58Z</when>
<when>2026-05-09T04:45:43Z</when>
<when>2026-05-09T04:46:17Z</when>
<when>2026-05-09T04:46:26Z</when>
<when>2026-05-09T04:46:34Z</when>
<when>2026-05-09T04:46:42Z</when>
<when>2026-05-09T04:46:51Z</when>
<when>2026-05-09T04:46:59Z</when>
<when>2026-05-09T04:47:08Z</when>
<when>2026-05-09T04:47:58Z</when>
<when>2026-05-09T04:48:09Z</when>
<when>2026-05-09T04:48:20Z</when>
<when>2026-05-09T04:48:29Z</when>
<when>2026-05-09T04:48:36Z</when>
<when>2026-05-09T04:48:43Z</when>
<when>2026-05-09T04:48:50Z</when>
<when>2026-05-09T04:48:58Z</when>
<when>2026-05-09T04:49:06Z</when>
<when>2026-05-09T04:49:14Z</when>
<when>2026-05-09T04:49:20Z</when>
<when>2026-05-09T04:50:02Z</when>
<when>2026-05-09T04:50:10Z</when>
<when>2026-05-09T04:50:24Z</when>
<when>2026-05-09T04:50:36Z</when>
<when>2026-05-09T04:50:48Z</when>
<when>2026-05-09T04:51:12Z</when>
<when>2026-05-09T04:51:30Z</when>
<when>2026-05-09T04:51:37Z</when>
<when>2026-05-09T04:51:44Z</when>
<when>2026-05-09T04:51:52Z</when>
<when>2026-05-09T04:51:58Z</when>
<when>2026-05-09T04:52:05Z</when>
<when>2026-05-09T04:52:13Z</when>
<when>2026-05-09T04:52:22Z</when>
<when>2026-05-09T04:52:30Z</when>
<when>2026-05-09T04:52:37Z</when>
<when>2026-05-09T04:52:46Z</when>
<when>2026-05-09T04:52:54Z</when>
<when>2026-05-09T04:53:04Z</when>
<when>2026-05-09T04:53:15Z</when>
<when>2026-05-09T04:53:29Z</when>
<when>2026-05-09T04:53:37Z</when>
<when>2026-05-09T04:53:46Z</when>
<when>2026-05-09T04:54:04Z</when>
<when>2026-05-09T04:56:56Z</when>
<when>2026-05-09T05:12:39Z</when>
<when>2026-05-09T05:12:50Z</when>
<when>2026-05-09T05:12:59Z</when>
<when>2026-05-09T05:13:08Z</when>
<when>2026-05-09T05:13:15Z</when>
<when>2026-05-09T05:13:25Z</when>
<when>2026-05-09T05:13:35Z</when>
<when>2026-05-09T05:13:40Z</when>
<when>2026-05-09T05:13:45Z</when>
<when>2026-05-09T05:13:54Z</when>
<when>2026-05-09T05:14:01Z</when>
<when>2026-05-09T05:14:07Z</when>
<when>2026-05-09T05:14:14Z</when>
<when>2026-05-09T05:14:25Z</when>
<when>2026-05-09T05:14:30Z</when>
<when>2026-05-09T05:14:36Z</when>
<when>2026-05-09T05:14:43Z</when>
<when>2026-05-09T05:14:50Z</when>
<when>2026-05-09T05:14:57Z</when>
<when>2026-05-09T05:15:06Z</when>
<when>2026-05-09T05:15:12Z</when>
<when>2026-05-09T05:15:20Z</when>
<when>2026-05-09T05:15:28Z</when>
<when>2026-05-09T05:15:37Z</when>
<when>2026-05-09T05:15:46Z</when>
<when>2026-05-09T05:15:52Z</when>
<when>2026-05-09T05:15:59Z</when>
<when>2026-05-09T05:16:06Z</when>
<when>2026-05-09T05:16:12Z</when>
<when>2026-05-09T05:16:19Z</when>
<when>2026-05-09T05:16:26Z</when>
<when>2026-05-09T05:16:33Z</when>
<when>2026-05-09T05:16:40Z</when>
<when>2026-05-09T05:16:48Z</when>
<when>2026-05-09T05:16:58Z</when>
<when>2026-05-09T05:17:05Z</when>
<when>2026-05-09T05:17:13Z</when>
<when>2026-05-09T05:17:20Z</when>
<when>2026-05-09T05:17:29Z</when>
<when>2026-05-09T05:17:36Z</when>
<when>2026-05-09T05:17:43Z</when>
<when>2026-05-09T05:17:51Z</when>
<when>2026-05-09T05:18:00Z</when>
<when>2026-05-09T05:18:07Z</when>
<when>2026-05-09T05:18:14Z</when>
<when>2026-05-09T05:19:03Z</when>
<when>2026-05-09T05:19:17Z</when>
<when>2026-05-09T05:19:28Z</when>
<when>2026-05-09T05:19:35Z</when>
<when>2026-05-09T05:19:41Z</when>
<when>2026-05-09T05:19:50Z</when>
<when>2026-05-09T05:19:59Z</when>
<when>2026-05-09T05:20:10Z</when>
<when>2026-05-09T05:20:20Z</when>
<when>2026-05-09T05:20:27Z</when>
<when>2026-05-09T05:20:34Z</when>
<when>2026-05-09T05:20:44Z</when>
<when>2026-05-09T05:20:56Z</when>
<when>2026-05-09T05:21:02Z</when>
<when>2026-05-09T05:21:09Z</when>
<when>2026-05-09T05:21:15Z</when>
<when>2026-05-09T05:21:21Z</when>
<when>2026-05-09T05:21:28Z</when>
<when>2026-05-09T05:21:37Z</when>
<when>2026-05-09T05:21:47Z</when>
<when>2026-05-09T05:21:54Z</when>
<when>2026-05-09T05:22:03Z</when>
<when>2026-05-09T05:22:12Z</when>
<when>2026-05-09T05:22:19Z</when>
<when>2026-05-09T05:22:25Z</when>
<when>2026-05-09T05:22:31Z</when>
<when>2026-05-09T05:22:38Z</when>
<when>2026-05-09T05:22:45Z</when>
<when>2026-05-09T05:22:54Z</when>
<when>2026-05-09T05:23:03Z</when>
<when>2026-05-09T05:23:12Z</when>
<when>2026-05-09T05:23:22Z</when>
<when>2026-05-09T05:23:32Z</when>
<when>2026-05-09T05:23:40Z</when>
<when>2026-05-09T05:23:56Z</when>
<when>2026-05-09T05:24:05Z</when>
<when>2026-05-09T05:24:12Z</when>
<when>2026-05-09T05:24:19Z</when>
<when>2026-05-09T05:24:28Z</when>
<when>2026-05-09T05:24:37Z</when>
<when>2026-05-09T05:24:45Z</when>
<when>2026-05-09T05:24:52Z</when>
<when>2026-05-09T05:25:01Z</when>
<when>2026-05-09T05:25:08Z</when>
<when>2026-05-09T05:25:13Z</when>
<when>2026-05-09T05:25:20Z</when>
<when>2026-05-09T05:25:27Z</when>
<when>2026-05-09T05:25:33Z</when>
<when>2026-05-09T05:25:41Z</when>
<when>2026-05-09T05:25:48Z</when>
<when>2026-05-09T05:25:56Z</when>
<when>2026-05-09T05:26:02Z</when>
<when>2026-05-09T05:26:08Z</when>
<when>2026-05-09T05:26:16Z</when>
<when>2026-05-09T05:26:24Z</when>
<when>2026-05-09T05:26:31Z</when>
<when>2026-05-09T05:26:38Z</when>
<when>2026-05-09T05:26:45Z</when>
<when>2026-05-09T05:26:51Z</when>
<when>2026-05-09T05:27:00Z</when>
<when>2026-05-09T05:27:07Z</when>
<when>2026-05-09T05:27:15Z</when>
<when>2026-05-09T05:27:22Z</when>
<when>2026-05-09T05:27:29Z</when>
<when>2026-05-09T05:27:34Z</when>
<when>2026-05-09T05:27:42Z</when>
<when>2026-05-09T05:27:49Z</when>
<when>2026-05-09T05:27:57Z</when>
<when>2026-05-09T05:28:08Z</when>
<when>2026-05-09T05:28:17Z</when>
<when>2026-05-09T05:28:25Z</when>
<when>2026-05-09T05:28:31Z</when>
<when>2026-05-09T05:28:37Z</when>
<when>2026-05-09T05:28:43Z</when>
<when>2026-05-09T05:28:50Z</when>
<when>2026-05-09T05:28:58Z</when>
<when>2026-05-09T05:29:06Z</when>
<when>2026-05-09T05:29:13Z</when>
<when>2026-05-09T05:29:19Z</when>
<when>2026-05-09T05:29:27Z</when>
<when>2026-05-09T05:29:34Z</when>
<when>2026-05-09T05:29:41Z</when>
<when>2026-05-09T05:29:49Z</when>
<when>2026-05-09T05:29:58Z</when>
<when>2026-05-09T05:30:07Z</when>
<when>2026-05-09T05:30:15Z</when>
<when>2026-05-09T05:30:24Z</when>
<when>2026-05-09T05:30:31Z</when>
<when>2026-05-09T05:30:38Z</when>
<when>2026-05-09T05:30:45Z</when>
<when>2026-05-09T05:30:54Z</when>
<when>2026-05-09T05:31:04Z</when>
<when>2026-05-09T05:31:12Z</when>
<when>2026-05-09T05:31:21Z</when>
<when>2026-05-09T05:31:27Z</when>
<when>2026-05-09T05:31:32Z</when>
<when>2026-05-09T05:31:38Z</when>
<when>2026-05-09T05:31:46Z</when>
<when>2026-05-09T05:31:55Z</when>
<when>2026-05-09T05:32:06Z</when>
<when>2026-05-09T05:32:13Z</when>
<when>2026-05-09T05:32:19Z</when>
<when>2026-05-09T05:32:26Z</when>
<when>2026-05-09T05:32:34Z</when>
<when>2026-05-09T05:32:44Z</when>
<when>2026-05-09T05:32:51Z</when>
<when>2026-05-09T05:33:01Z</when>
<when>2026-05-09T05:33:07Z</when>
<when>2026-05-09T05:33:14Z</when>
<when>2026-05-09T05:33:23Z</when>
<when>2026-05-09T05:33:32Z</when>
<when>2026-05-09T05:33:39Z</when>
<when>2026-05-09T05:33:46Z</when>
<when>2026-05-09T05:33:56Z</when>
<when>2026-05-09T05:34:06Z</when>
<when>2026-05-09T05:34:59Z</when>
<when>2026-05-09T05:35:06Z</when>
<when>2026-05-09T05:35:27Z</when>
<when>2026-05-09T05:36:15Z</when>
<when>2026-05-09T05:36:24Z</when>
<when>2026-05-09T05:36:33Z</when>
<when>2026-05-09T05:36:43Z</when>
<when>2026-05-09T05:36:56Z</when>
<when>2026-05-09T05:37:14Z</when>
<when>2026-05-09T05:39:14Z</when>
<when>2026-05-09T05:42:50Z</when>
<when>2026-05-09T06:22:24Z</when>
<when>2026-05-09T06:22:44Z</when>
<when>2026-05-09T06:22:51Z</when>
<when>2026-05-09T06:22:57Z</when>
<when>2026-05-09T06:23:08Z</when>
<when>2026-05-09T06:23:18Z</when>
<when>2026-05-09T06:23:26Z</when>
<when>2026-05-09T06:23:33Z</when>
<when>2026-05-09T06:23:41Z</when>
<when>2026-05-09T06:23:59Z</when>
<when>2026-05-09T06:25:02Z</when>
<when>2026-05-09T06:25:14Z</when>
<when>2026-05-09T06:25:22Z</when>
<when>2026-05-09T06:25:30Z</when>
<when>2026-05-09T06:25:41Z</when>
<when>2026-05-09T06:25:50Z</when>
<when>2026-05-09T06:25:58Z</when>
<when>2026-05-09T06:26:04Z</when>
<when>2026-05-09T06:26:12Z</when>
<when>2026-05-09T06:26:20Z</when>
<when>2026-05-09T06:26:29Z</when>
<when>2026-05-09T06:26:37Z</when>
<when>2026-05-09T06:26:48Z</when>
<when>2026-05-09T06:26:57Z</when>
<when>2026-05-09T06:27:02Z</when>
<when>2026-05-09T06:27:08Z</when>
<when>2026-05-09T06:27:15Z</when>
<when>2026-05-09T06:27:26Z</when>
<when>2026-05-09T06:27:33Z</when>
<when>2026-05-09T06:27:47Z</when>
<when>2026-05-09T06:27:56Z</when>
<when>2026-05-09T06:28:02Z</when>
<when>2026-05-09T06:28:08Z</when>
<when>2026-05-09T06:28:13Z</when>
<when>2026-05-09T06:28:19Z</when>
<when>2026-05-09T06:28:28Z</when>
<when>2026-05-09T06:28:36Z</when>
<when>2026-05-09T06:28:48Z</when>
<when>2026-05-09T06:28:56Z</when>
<when>2026-05-09T06:29:03Z</when>
<when>2026-05-09T06:29:09Z</when>
<when>2026-05-09T06:29:16Z</when>
<when>2026-05-09T06:29:22Z</when>
<when>2026-05-09T06:29:31Z</when>
<when>2026-05-09T06:29:40Z</when>
<when>2026-05-09T06:29:45Z</when>
<when>2026-05-09T06:29:51Z</when>
<when>2026-05-09T06:29:57Z</when>
<when>2026-05-09T06:30:05Z</when>
<when>2026-05-09T06:30:11Z</when>
<when>2026-05-09T06:30:21Z</when>
<when>2026-05-09T06:30:32Z</when>
<when>2026-05-09T06:30:40Z</when>
<when>2026-05-09T06:30:47Z</when>
<when>2026-05-09T06:30:55Z</when>
<when>2026-05-09T06:31:05Z</when>
<when>2026-05-09T06:31:11Z</when>
<when>2026-05-09T06:31:19Z</when>
<when>2026-05-09T06:31:30Z</when>
<when>2026-05-09T06:31:37Z</when>
<when>2026-05-09T06:31:46Z</when>
<when>2026-05-09T06:31:52Z</when>
<when>2026-05-09T06:31:58Z</when>
<when>2026-05-09T06:32:05Z</when>
<when>2026-05-09T06:32:11Z</when>
<when>2026-05-09T06:32:19Z</when>
<when>2026-05-09T06:32:26Z</when>
<when>2026-05-09T06:32:33Z</when>
<when>2026-05-09T06:32:44Z</when>
<when>2026-05-09T06:32:51Z</when>
<when>2026-05-09T06:33:00Z</when>
<when>2026-05-09T06:33:06Z</when>
<when>2026-05-09T06:33:16Z</when>
<when>2026-05-09T06:33:25Z</when>
<when>2026-05-09T06:33:34Z</when>
<when>2026-05-09T06:33:41Z</when>
<when>2026-05-09T06:33:49Z</when>
<when>2026-05-09T06:33:55Z</when>
<when>2026-05-09T06:34:01Z</when>
<when>2026-05-09T06:34:06Z</when>
<when>2026-05-09T06:34:13Z</when>
<when>2026-05-09T06:34:20Z</when>
<when>2026-05-09T06:34:26Z</when>
<when>2026-05-09T06:34:33Z</when>
<when>2026-05-09T06:34:39Z</when>
<when>2026-05-09T06:34:44Z</when>
<when>2026-05-09T06:34:51Z</when>
<when>2026-05-09T06:35:03Z</when>
<when>2026-05-09T06:35:12Z</when>
<when>2026-05-09T06:35:22Z</when>
<when>2026-05-09T06:35:28Z</when>
<when>2026-05-09T06:35:37Z</when>
<when>2026-05-09T06:35:46Z</when>
<when>2026-05-09T06:35:56Z</when>
<when>2026-05-09T06:36:05Z</when>
<when>2026-05-09T06:36:12Z</when>
<when>2026-05-09T06:36:20Z</when>
<when>2026-05-09T06:36:31Z</when>
<when>2026-05-09T06:36:44Z</when>
<when>2026-05-09T06:36:52Z</when>
<when>2026-05-09T06:37:03Z</when>
<when>2026-05-09T06:37:12Z</when>
<when>2026-05-09T06:37:19Z</when>
<when>2026-05-09T06:37:24Z</when>
<when>2026-05-09T06:37:31Z</when>
<when>2026-05-09T06:37:38Z</when>
<when>2026-05-09T06:37:47Z</when>
<when>2026-05-09T06:37:52Z</when>
<when>2026-05-09T06:37:57Z</when>
<when>2026-05-09T06:38:27Z</when>
<when>2026-05-09T06:38:35Z</when>
<when>2026-05-09T06:38:44Z</when>
<when>2026-05-09T06:38:51Z</when>
<when>2026-05-09T06:39:00Z</when>
<when>2026-05-09T06:39:08Z</when>
<when>2026-05-09T06:39:15Z</when>
<when>2026-05-09T06:39:21Z</when>
<when>2026-05-09T06:39:36Z</when>
<when>2026-05-09T06:39:46Z</when>
<when>2026-05-09T06:39:56Z</when>
<when>2026-05-09T06:40:06Z</when>
<when>2026-05-09T06:40:12Z</when>
<when>2026-05-09T06:40:21Z</when>
<when>2026-05-09T06:40:29Z</when>
<when>2026-05-09T06:40:37Z</when>
<when>2026-05-09T06:40:47Z</when>
<when>2026-05-09T06:40:56Z</when>
<when>2026-05-09T06:41:02Z</when>
<when>2026-05-09T06:41:09Z</when>
<when>2026-05-09T06:41:17Z</when>
<when>2026-05-09T06:41:25Z</when>
<when>2026-05-09T06:41:33Z</when>
<when>2026-05-09T06:41:41Z</when>
<when>2026-05-09T06:41:51Z</when>
<when>2026-05-09T06:42:00Z</when>
<when>2026-05-09T06:42:08Z</when>
<when>2026-05-09T06:42:15Z</when>
<when>2026-05-09T06:42:22Z</when>
<when>2026-05-09T06:42:30Z</when>
<when>2026-05-09T06:42:38Z</when>
<when>2026-05-09T06:42:44Z</when>
<when>2026-05-09T06:42:51Z</when>
<when>2026-05-09T06:43:11Z</when>
<when>2026-05-09T06:43:17Z</when>
<when>2026-05-09T06:43:28Z</when>
<when>2026-05-09T06:43:34Z</when>
<when>2026-05-09T06:43:41Z</when>
<when>2026-05-09T06:43:50Z</when>
<when>2026-05-09T06:43:59Z</when>
<when>2026-05-09T06:44:08Z</when>
<when>2026-05-09T06:44:14Z</when>
<when>2026-05-09T06:45:21Z</when>
<when>2026-05-09T06:45:29Z</when>
<when>2026-05-09T06:45:37Z</when>
<when>2026-05-09T06:45:49Z</when>
<when>2026-05-09T06:45:58Z</when>
<when>2026-05-09T06:46:05Z</when>
<when>2026-05-09T06:46:13Z</when>
<when>2026-05-09T06:46:19Z</when>
<when>2026-05-09T06:46:26Z</when>
<when>2026-05-09T06:46:35Z</when>
<when>2026-05-09T06:46:43Z</when>
<when>2026-05-09T06:46:51Z</when>
<when>2026-05-09T06:47:00Z</when>
<when>2026-05-09T06:47:08Z</when>
<when>2026-05-09T06:47:43Z</when>
<when>2026-05-09T06:47:51Z</when>
<when>2026-05-09T06:47:59Z</when>
<when>2026-05-09T06:48:06Z</when>
<when>2026-05-09T06:48:14Z</when>
<when>2026-05-09T06:48:22Z</when>
<when>2026-05-09T06:48:30Z</when>
<when>2026-05-09T06:48:37Z</when>
<when>2026-05-09T06:48:58Z</when>
<when>2026-05-09T06:49:06Z</when>
<when>2026-05-09T06:49:12Z</when>
<when>2026-05-09T06:49:27Z</when>
<when>2026-05-09T06:49:37Z</when>
<when>2026-05-09T06:50:09Z</when>
<when>2026-05-09T06:50:16Z</when>
<when>2026-05-09T06:50:23Z</when>
<when>2026-05-09T06:50:31Z</when>
<when>2026-05-09T06:50:38Z</when>
<when>2026-05-09T06:50:46Z</when>
<when>2026-05-09T06:50:55Z</when>
<when>2026-05-09T06:51:03Z</when>
<when>2026-05-09T06:51:11Z</when>
<when>2026-05-09T06:51:19Z</when>
<when>2026-05-09T06:51:27Z</when>
<when>2026-05-09T06:51:35Z</when>
<when>2026-05-09T06:51:46Z</when>
<when>2026-05-09T06:51:56Z</when>
<when>2026-05-09T06:52:04Z</when>
<when>2026-05-09T06:52:11Z</when>
<when>2026-05-09T06:52:20Z</when>
<when>2026-05-09T06:52:28Z</when>
<when>2026-05-09T06:52:37Z</when>
<when>2026-05-09T06:52:46Z</when>
<when>2026-05-09T06:52:56Z</when>
<when>2026-05-09T06:53:04Z</when>
<when>2026-05-09T06:53:14Z</when>
<when>2026-05-09T06:53:27Z</when>
<when>2026-05-09T06:53:36Z</when>
<when>2026-05-09T06:53:42Z</when>
<when>2026-05-09T06:53:50Z</when>
<when>2026-05-09T06:53:59Z</when>
<when>2026-05-09T06:54:07Z</when>
<when>2026-05-09T06:54:14Z</when>
<when>2026-05-09T06:54:20Z</when>
<when>2026-05-09T06:54:27Z</when>
<when>2026-05-09T06:54:33Z</when>
<when>2026-05-09T06:54:41Z</when>
<when>2026-05-09T06:54:50Z</when>
<when>2026-05-09T06:54:57Z</when>
<when>2026-05-09T06:55:06Z</when>
<when>2026-05-09T06:55:14Z</when>
<when>2026-05-09T06:55:24Z</when>
<when>2026-05-09T06:55:34Z</when>
<when>2026-05-09T06:55:42Z</when>
<when>2026-05-09T06:55:49Z</when>
<when>2026-05-09T06:55:56Z</when>
<when>2026-05-09T06:56:03Z</when>
<when>2026-05-09T06:56:11Z</when>
<when>2026-05-09T06:56:19Z</when>
<when>2026-05-09T06:56:26Z</when>
<when>2026-05-09T06:56:34Z</when>
<when>2026-05-09T06:56:43Z</when>
<when>2026-05-09T06:56:51Z</when>
<when>2026-05-09T06:56:59Z</when>
<when>2026-05-09T06:57:08Z</when>
<when>2026-05-09T06:57:20Z</when>
<when>2026-05-09T06:57:27Z</when>
<when>2026-05-09T06:57:34Z</when>
<when>2026-05-09T06:57:42Z</when>
<when>2026-05-09T06:57:50Z</when>
<when>2026-05-09T06:57:59Z</when>
<when>2026-05-09T06:58:06Z</when>
<when>2026-05-09T06:58:14Z</when>
<when>2026-05-09T06:58:23Z</when>
<when>2026-05-09T06:58:29Z</when>
<when>2026-05-09T06:58:36Z</when>
<when>2026-05-09T06:58:47Z</when>
<when>2026-05-09T06:59:08Z</when>
<when>2026-05-09T06:59:18Z</when>
<when>2026-05-09T06:59:28Z</when>
<when>2026-05-09T06:59:35Z</when>
<when>2026-05-09T06:59:43Z</when>
<when>2026-05-09T06:59:51Z</when>
<when>2026-05-09T07:00:03Z</when>
<when>2026-05-09T07:00:13Z</when>
<when>2026-05-09T07:00:21Z</when>
<when>2026-05-09T07:00:53Z</when>
<when>2026-05-09T07:05:46Z</when>
<when>2026-05-09T07:05:55Z</when>
<when>2026-05-09T07:06:03Z</when>
<when>2026-05-09T07:06:19Z</when>
<when>2026-05-09T07:06:27Z</when>
<when>2026-05-09T07:06:35Z</when>
<when>2026-05-09T07:06:43Z</when>
<when>2026-05-09T07:06:50Z</when>
<when>2026-05-09T07:06:57Z</when>
<when>2026-05-09T07:07:04Z</when>
<when>2026-05-09T07:07:14Z</when>
<when>2026-05-09T07:07:23Z</when>
<when>2026-05-09T07:07:32Z</when>
<when>2026-05-09T07:07:42Z</when>
<when>2026-05-09T07:07:53Z</when>
<when>2026-05-09T07:08:02Z</when>
<when>2026-05-09T07:08:09Z</when>
<when>2026-05-09T07:08:18Z</when>
<when>2026-05-09T07:08:26Z</when>
<when>2026-05-09T07:08:32Z</when>
<when>2026-05-09T07:08:38Z</when>
<when>2026-05-09T07:08:46Z</when>
<when>2026-05-09T07:08:52Z</when>
<when>2026-05-09T07:08:59Z</when>
<when>2026-05-09T07:09:07Z</when>
<when>2026-05-09T07:09:14Z</when>
<when>2026-05-09T07:09:21Z</when>
<when>2026-05-09T07:09:29Z</when>
<when>2026-05-09T07:09:37Z</when>
<when>2026-05-09T07:09:44Z</when>
<when>2026-05-09T07:09:52Z</when>
<when>2026-05-09T07:10:02Z</when>
<when>2026-05-09T07:10:11Z</when>
<when>2026-05-09T07:10:21Z</when>
<when>2026-05-09T07:10:28Z</when>
<when>2026-05-09T07:10:34Z</when>
<when>2026-05-09T07:10:42Z</when>
<when>2026-05-09T07:10:50Z</when>
<when>2026-05-09T07:10:58Z</when>
<when>2026-05-09T07:11:06Z</when>
<when>2026-05-09T07:11:14Z</when>
<when>2026-05-09T07:11:22Z</when>
<when>2026-05-09T07:11:33Z</when>
<when>2026-05-09T07:11:40Z</when>
<when>2026-05-09T07:11:48Z</when>
<when>2026-05-09T07:11:54Z</when>
<when>2026-05-09T07:12:01Z</when>
<when>2026-05-09T07:12:08Z</when>
<when>2026-05-09T07:12:15Z</when>
<when>2026-05-09T07:12:22Z</when>
<when>2026-05-09T07:12:29Z</when>
<when>2026-05-09T07:12:36Z</when>
<when>2026-05-09T07:12:44Z</when>
<when>2026-05-09T07:12:50Z</when>
<when>2026-05-09T07:12:58Z</when>
<when>2026-05-09T07:13:07Z</when>
<when>2026-05-09T07:13:15Z</when>
<when>2026-05-09T07:13:24Z</when>
<when>2026-05-09T07:14:01Z</when>
<when>2026-05-09T07:14:10Z</when>
<when>2026-05-09T07:14:19Z</when>
<when>2026-05-09T07:14:29Z</when>
<when>2026-05-09T07:14:38Z</when>
<when>2026-05-09T07:14:58Z</when>
<when>2026-05-09T07:15:05Z</when>
<when>2026-05-09T07:15:13Z</when>
<when>2026-05-09T07:15:19Z</when>
<when>2026-05-09T07:15:25Z</when>
<when>2026-05-09T07:15:45Z</when>
<when>2026-05-09T07:16:43Z</when>
<when>2026-05-09T07:27:09Z</when>
<when>2026-05-09T07:27:17Z</when>
<when>2026-05-09T07:27:25Z</when>
<when>2026-05-09T07:27:33Z</when>
<when>2026-05-09T07:27:42Z</when>
<when>2026-05-09T07:27:54Z</when>
<when>2026-05-09T07:28:04Z</when>
<when>2026-05-09T07:28:13Z</when>
<when>2026-05-09T07:28:21Z</when>
<when>2026-05-09T07:28:29Z</when>
<when>2026-05-09T07:28:37Z</when>
<when>2026-05-09T07:28:45Z</when>
<when>2026-05-09T07:28:53Z</when>
<when>2026-05-09T07:29:01Z</when>
<when>2026-05-09T07:29:09Z</when>
<when>2026-05-09T07:29:18Z</when>
<when>2026-05-09T07:29:26Z</when>
<when>2026-05-09T07:29:34Z</when>
<when>2026-05-09T07:29:41Z</when>
<when>2026-05-09T07:29:50Z</when>
<when>2026-05-09T07:29:58Z</when>
<when>2026-05-09T07:30:06Z</when>
<when>2026-05-09T07:30:15Z</when>
<when>2026-05-09T07:30:26Z</when>
<when>2026-05-09T07:30:36Z</when>
<when>2026-05-09T07:30:44Z</when>
<when>2026-05-09T07:30:53Z</when>
<when>2026-05-09T07:31:02Z</when>
<when>2026-05-09T07:31:10Z</when>
<when>2026-05-09T07:31:17Z</when>
<when>2026-05-09T07:31:25Z</when>
<when>2026-05-09T07:31:33Z</when>
<when>2026-05-09T07:31:44Z</when>
<when>2026-05-09T07:31:56Z</when>
<when>2026-05-09T07:32:05Z</when>
<when>2026-05-09T07:32:14Z</when>
<when>2026-05-09T07:32:23Z</when>
<when>2026-05-09T07:32:30Z</when>
<when>2026-05-09T07:32:36Z</when>
<when>2026-05-09T07:32:44Z</when>
<when>2026-05-09T07:32:51Z</when>
<when>2026-05-09T07:32:58Z</when>
<when>2026-05-09T07:33:07Z</when>
<when>2026-05-09T07:33:17Z</when>
<when>2026-05-09T07:33:26Z</when>
<when>2026-05-09T07:33:34Z</when>
<when>2026-05-09T07:33:42Z</when>
<when>2026-05-09T07:33:50Z</when>
<when>2026-05-09T07:33:58Z</when>
<when>2026-05-09T07:34:06Z</when>
<when>2026-05-09T07:34:13Z</when>
<when>2026-05-09T07:34:19Z</when>
<when>2026-05-09T07:34:27Z</when>
<when>2026-05-09T07:34:34Z</when>
<when>2026-05-09T07:34:41Z</when>
<when>2026-05-09T07:34:49Z</when>
<when>2026-05-09T07:34:57Z</when>
<when>2026-05-09T07:35:05Z</when>
<when>2026-05-09T07:35:15Z</when>
<when>2026-05-09T07:35:29Z</when>
<when>2026-05-09T07:35:37Z</when>
<when>2026-05-09T07:35:46Z</when>
<when>2026-05-09T07:35:53Z</when>
<when>2026-05-09T07:35:59Z</when>
<when>2026-05-09T07:36:06Z</when>
<when>2026-05-09T07:36:14Z</when>
<when>2026-05-09T07:36:23Z</when>
<when>2026-05-09T07:36:31Z</when>
<when>2026-05-09T07:36:39Z</when>
<when>2026-05-09T07:36:46Z</when>
<when>2026-05-09T07:36:53Z</when>
<when>2026-05-09T07:37:01Z</when>
<when>2026-05-09T07:37:09Z</when>
<when>2026-05-09T07:37:17Z</when>
<when>2026-05-09T07:37:25Z</when>
<when>2026-05-09T07:37:33Z</when>
<when>2026-05-09T07:37:42Z</when>
<when>2026-05-09T07:37:50Z</when>
<when>2026-05-09T07:37:58Z</when>
<when>2026-05-09T07:38:10Z</when>
<when>2026-05-09T07:38:18Z</when>
<when>2026-05-09T07:38:27Z</when>
<when>2026-05-09T07:38:34Z</when>
<when>2026-05-09T07:38:41Z</when>
<when>2026-05-09T07:38:49Z</when>
<when>2026-05-09T07:38:58Z</when>
<when>2026-05-09T07:39:05Z</when>
<when>2026-05-09T07:39:13Z</when>
<when>2026-05-09T07:39:26Z</when>
<when>2026-05-09T07:39:33Z</when>
<when>2026-05-09T07:39:40Z</when>
<when>2026-05-09T07:39:47Z</when>
<when>2026-05-09T07:39:53Z</when>
<when>2026-05-09T07:40:00Z</when>
<when>2026-05-09T07:40:07Z</when>
<when>2026-05-09T07:40:15Z</when>
<when>2026-05-09T07:40:24Z</when>
<when>2026-05-09T07:40:34Z</when>
<when>2026-05-09T07:40:43Z</when>
<when>2026-05-09T07:40:50Z</when>
<when>2026-05-09T07:40:58Z</when>
<when>2026-05-09T07:41:06Z</when>
<when>2026-05-09T07:41:14Z</when>
<when>2026-05-09T07:41:21Z</when>
<when>2026-05-09T07:41:28Z</when>
<when>2026-05-09T07:41:35Z</when>
<when>2026-05-09T07:41:42Z</when>
<when>2026-05-09T07:41:50Z</when>
<when>2026-05-09T07:41:58Z</when>
<when>2026-05-09T07:42:05Z</when>
<when>2026-05-09T07:42:13Z</when>
<when>2026-05-09T07:42:20Z</when>
<when>2026-05-09T07:42:27Z</when>
<when>2026-05-09T07:42:34Z</when>
<when>2026-05-09T07:42:42Z</when>
<when>2026-05-09T07:42:53Z</when>
<when>2026-05-09T07:43:01Z</when>
<when>2026-05-09T07:43:08Z</when>
<when>2026-05-09T07:43:16Z</when>
<when>2026-05-09T07:43:22Z</when>
<when>2026-05-09T07:43:31Z</when>
<when>2026-05-09T07:43:39Z</when>
<when>2026-05-09T07:43:48Z</when>
<when>2026-05-09T07:43:56Z</when>
<when>2026-05-09T07:44:04Z</when>
<when>2026-05-09T07:44:11Z</when>
<when>2026-05-09T07:44:20Z</when>
<when>2026-05-09T07:44:27Z</when>
<when>2026-05-09T07:44:36Z</when>
<when>2026-05-09T07:44:45Z</when>
<when>2026-05-09T07:44:54Z</when>
<when>2026-05-09T07:45:03Z</when>
<when>2026-05-09T07:45:14Z</when>
<when>2026-05-09T07:45:21Z</when>
<when>2026-05-09T07:45:29Z</when>
<when>2026-05-09T07:45:36Z</when>
<when>2026-05-09T07:45:42Z</when>
<when>2026-05-09T07:45:49Z</when>
<when>2026-05-09T07:46:02Z</when>
<when>2026-05-09T07:46:09Z</when>
<when>2026-05-09T07:46:17Z</when>
<when>2026-05-09T07:46:25Z</when>
<when>2026-05-09T07:46:33Z</when>
<when>2026-05-09T07:46:40Z</when>
<when>2026-05-09T07:46:47Z</when>
<when>2026-05-09T07:46:54Z</when>
<when>2026-05-09T07:47:01Z</when>
<when>2026-05-09T07:47:08Z</when>
<when>2026-05-09T07:47:15Z</when>
<when>2026-05-09T07:47:23Z</when>
<when>2026-05-09T07:47:30Z</when>
<when>2026-05-09T07:47:38Z</when>
<when>2026-05-09T07:47:45Z</when>
<when>2026-05-09T07:47:53Z</when>
<when>2026-05-09T07:48:01Z</when>
<when>2026-05-09T07:48:08Z</when>
<when>2026-05-09T07:48:16Z</when>
<when>2026-05-09T07:48:25Z</when>
<when>2026-05-09T07:48:32Z</when>
<when>2026-05-09T07:48:39Z</when>
<when>2026-05-09T07:48:46Z</when>
<when>2026-05-09T07:48:53Z</when>
<when>2026-05-09T07:49:01Z</when>
<when>2026-05-09T07:49:09Z</when>
<when>2026-05-09T07:49:16Z</when>
<when>2026-05-09T07:49:24Z</when>
<when>2026-05-09T07:49:32Z</when>
<when>2026-05-09T07:49:45Z</when>
<when>2026-05-09T07:49:54Z</when>
<when>2026-05-09T07:50:02Z</when>
<when>2026-05-09T07:50:10Z</when>
<when>2026-05-09T07:50:34Z</when>
<when>2026-05-09T07:52:33Z</when>
<when>2026-05-09T07:52:42Z</when>
<when>2026-05-09T07:53:01Z</when>
<gx:coord>85.365097 27.781544 1446</gx:coord>
<gx:coord>85.365157 27.781619 1444</gx:coord>
<gx:coord>85.365208 27.781706 1445</gx:coord>
<gx:coord>85.365243 27.781793 1443</gx:coord>
<gx:coord>85.365304 27.781876 1442</gx:coord>
<gx:coord>85.365355 27.781956 1442</gx:coord>
<gx:coord>85.365397 27.782042 1442</gx:coord>
<gx:coord>85.365406 27.782135 1442</gx:coord>
<gx:coord>85.365462 27.78222 1446</gx:coord>
<gx:coord>85.365507 27.782301 1443</gx:coord>
<gx:coord>85.365573 27.782369 1447</gx:coord>
<gx:coord>85.365637 27.782442 1447</gx:coord>
<gx:coord>85.365684 27.78253 1452</gx:coord>
<gx:coord>85.365729 27.782614 1456</gx:coord>
<gx:coord>85.36578 27.782698 1455</gx:coord>
<gx:coord>85.365829 27.782782 1458</gx:coord>
<gx:coord>85.365882 27.78287 1460</gx:coord>
<gx:coord>85.365924 27.782955 1460</gx:coord>
<gx:coord>85.365935 27.783053 1460</gx:coord>
<gx:coord>85.365958 27.783146 1460</gx:coord>
<gx:coord>85.365979 27.783234 1460</gx:coord>
<gx:coord>85.366026 27.783337 1457</gx:coord>
<gx:coord>85.366082 27.783418 1460</gx:coord>
<gx:coord>85.366121 27.783516 1461</gx:coord>
<gx:coord>85.366167 27.783604 1457</gx:coord>
<gx:coord>85.366209 27.783695 1460</gx:coord>
<gx:coord>85.366262 27.783772 1462</gx:coord>
<gx:coord>85.366314 27.783858 1463</gx:coord>
<gx:coord>85.366388 27.783926 1468</gx:coord>
<gx:coord>85.366426 27.78401 1474</gx:coord>
<gx:coord>85.366464 27.784101 1475</gx:coord>
<gx:coord>85.366546 27.784166 1477</gx:coord>
<gx:coord>85.366592 27.784249 1480</gx:coord>
<gx:coord>85.366611 27.784341 1482</gx:coord>
<gx:coord>85.366665 27.784424 1483</gx:coord>
<gx:coord>85.366708 27.784521 1485</gx:coord>
<gx:coord>85.366793 27.784579 1482</gx:coord>
<gx:coord>85.366868 27.784645 1483</gx:coord>
<gx:coord>85.366915 27.784727 1483</gx:coord>
<gx:coord>85.366961 27.784814 1485</gx:coord>
<gx:coord>85.367011 27.7849 1486</gx:coord>
<gx:coord>85.367036 27.784998 1489</gx:coord>
<gx:coord>85.367088 27.785077 1500</gx:coord>
<gx:coord>85.367171 27.785144 1500</gx:coord>
<gx:coord>85.367255 27.785201 1499</gx:coord>
<gx:coord>85.367315 27.785289 1500</gx:coord>
<gx:coord>85.367339 27.785376 1501</gx:coord>
<gx:coord>85.367361 27.785473 1501</gx:coord>
<gx:coord>85.367403 27.78556 1505</gx:coord>
<gx:coord>85.367444 27.785645 1505</gx:coord>
<gx:coord>85.367482 27.785732 1506</gx:coord>
<gx:coord>85.367506 27.785819 1507</gx:coord>
<gx:coord>85.367552 27.785907 1507</gx:coord>
<gx:coord>85.367613 27.785981 1507</gx:coord>
<gx:coord>85.367695 27.786038 1510</gx:coord>
<gx:coord>85.367776 27.786106 1510</gx:coord>
<gx:coord>85.367848 27.786172 1510</gx:coord>
<gx:coord>85.367902 27.786255 1510</gx:coord>
<gx:coord>85.36789 27.78635 1512</gx:coord>
<gx:coord>85.367889 27.786445 1514</gx:coord>
<gx:coord>85.367895 27.786536 1517</gx:coord>
<gx:coord>85.367893 27.786631 1519</gx:coord>
<gx:coord>85.36792 27.786721 1522</gx:coord>
<gx:coord>85.367953 27.786808 1524</gx:coord>
<gx:coord>85.367992 27.786895 1526</gx:coord>
<gx:coord>85.368043 27.786976 1526</gx:coord>
<gx:coord>85.368109 27.787058 1527</gx:coord>
<gx:coord>85.368201 27.787114 1527</gx:coord>
<gx:coord>85.368294 27.787149 1528</gx:coord>
<gx:coord>85.368384 27.787201 1527</gx:coord>
<gx:coord>85.368468 27.787256 1529</gx:coord>
<gx:coord>85.368547 27.787318 1529</gx:coord>
<gx:coord>85.368626 27.787376 1531</gx:coord>
<gx:coord>85.368704 27.787436 1531</gx:coord>
<gx:coord>85.368759 27.787517 1532</gx:coord>
<gx:coord>85.368824 27.787598 1532</gx:coord>
<gx:coord>85.368901 27.787657 1534</gx:coord>
<gx:coord>85.368976 27.787726 1537</gx:coord>
<gx:coord>85.369037 27.787804 1537</gx:coord>
<gx:coord>85.369058 27.787897 1542</gx:coord>
<gx:coord>85.369088 27.787988 1541</gx:coord>
<gx:coord>85.369128 27.78808 1544</gx:coord>
<gx:coord>85.36917 27.788164 1546</gx:coord>
<gx:coord>85.369254 27.788222 1546</gx:coord>
<gx:coord>85.369278 27.788316 1548</gx:coord>
<gx:coord>85.369302 27.788406 1552</gx:coord>
<gx:coord>85.369336 27.788495 1551</gx:coord>
<gx:coord>85.369357 27.788584 1552</gx:coord>
<gx:coord>85.369379 27.788675 1554</gx:coord>
<gx:coord>85.369415 27.788768 1558</gx:coord>
<gx:coord>85.369434 27.788862 1558</gx:coord>
<gx:coord>85.369456 27.788959 1560</gx:coord>
<gx:coord>85.369495 27.789045 1556</gx:coord>
<gx:coord>85.369474 27.789138 1559</gx:coord>
<gx:coord>85.369506 27.789231 1568</gx:coord>
<gx:coord>85.369554 27.78932 1572</gx:coord>
<gx:coord>85.369552 27.789412 1572</gx:coord>
<gx:coord>85.369578 27.789512 1573</gx:coord>
<gx:coord>85.369575 27.789604 1575</gx:coord>
<gx:coord>85.369597 27.789698 1580</gx:coord>
<gx:coord>85.369637 27.789799 1578</gx:coord>
<gx:coord>85.369672 27.789886 1582</gx:coord>
<gx:coord>85.369708 27.789976 1581</gx:coord>
<gx:coord>85.36977 27.79005 1581</gx:coord>
<gx:coord>85.3698 27.79014 1582</gx:coord>
<gx:coord>85.369853 27.79023 1580</gx:coord>
<gx:coord>85.369893 27.790315 1583</gx:coord>
<gx:coord>85.369931 27.79042 1584</gx:coord>
<gx:coord>85.369966 27.79051 1584</gx:coord>
<gx:coord>85.370028 27.790589 1586</gx:coord>
<gx:coord>85.370089 27.790666 1587</gx:coord>
<gx:coord>85.370136 27.790747 1588</gx:coord>
<gx:coord>85.37022 27.790801 1586</gx:coord>
<gx:coord>85.370256 27.790888 1593</gx:coord>
<gx:coord>85.370314 27.790964 1595</gx:coord>
<gx:coord>85.370389 27.791028 1597</gx:coord>
<gx:coord>85.370483 27.791072 1597</gx:coord>
<gx:coord>85.370579 27.791119 1594</gx:coord>
<gx:coord>85.370682 27.79114 1594</gx:coord>
<gx:coord>85.370774 27.791195 1597</gx:coord>
<gx:coord>85.370871 27.791233 1600</gx:coord>
<gx:coord>85.370971 27.791271 1601</gx:coord>
<gx:coord>85.371074 27.791294 1602</gx:coord>
<gx:coord>85.371173 27.791328 1605</gx:coord>
<gx:coord>85.371289 27.791326 1624</gx:coord>
<gx:coord>85.371343 27.791402 1604</gx:coord>
<gx:coord>85.371413 27.79133 1615</gx:coord>
<gx:coord>85.371476 27.791251 1619</gx:coord>
<gx:coord>85.371532 27.791166 1621</gx:coord>
<gx:coord>85.371602 27.791097 1621</gx:coord>
<gx:coord>85.371684 27.791041 1624</gx:coord>
<gx:coord>85.371791 27.791044 1623</gx:coord>
<gx:coord>85.3719 27.791053 1623</gx:coord>
<gx:coord>85.372007 27.791061 1626</gx:coord>
<gx:coord>85.372106 27.791084 1626</gx:coord>
<gx:coord>85.372211 27.791104 1631</gx:coord>
<gx:coord>85.372314 27.791108 1632</gx:coord>
<gx:coord>85.372298 27.791016 1634</gx:coord>
<gx:coord>85.372254 27.790931 1634</gx:coord>
<gx:coord>85.372293 27.790842 1634</gx:coord>
<gx:coord>85.37236 27.790769 1637</gx:coord>
<gx:coord>85.372449 27.790712 1645</gx:coord>
<gx:coord>85.372524 27.79065 1656</gx:coord>
<gx:coord>85.372591 27.790581 1657</gx:coord>
<gx:coord>85.372672 27.790517 1659</gx:coord>
<gx:coord>85.372766 27.790466 1662</gx:coord>
<gx:coord>85.37285 27.790408 1663</gx:coord>
<gx:coord>85.372926 27.79034 1669</gx:coord>
<gx:coord>85.37303 27.790307 1668</gx:coord>
<gx:coord>85.373105 27.790243 1670</gx:coord>
<gx:coord>85.373218 27.790195 1666</gx:coord>
<gx:coord>85.373323 27.790157 1669</gx:coord>
<gx:coord>85.373415 27.7902 1674</gx:coord>
<gx:coord>85.373366 27.790283 1677</gx:coord>
<gx:coord>85.373282 27.790347 1682</gx:coord>
<gx:coord>85.373211 27.790425 1684</gx:coord>
<gx:coord>85.373152 27.790499 1686</gx:coord>
<gx:coord>85.373137 27.790588 1681</gx:coord>
<gx:coord>85.373067 27.790665 1681</gx:coord>
<gx:coord>85.373026 27.790755 1677</gx:coord>
<gx:coord>85.373001 27.790843 1677</gx:coord>
<gx:coord>85.373075 27.790938 1676</gx:coord>
<gx:coord>85.373166 27.790989 1674</gx:coord>
<gx:coord>85.373245 27.791053 1686</gx:coord>
<gx:coord>85.373292 27.791137 1693</gx:coord>
<gx:coord>85.373385 27.791183 1703</gx:coord>
<gx:coord>85.373459 27.791255 1706</gx:coord>
<gx:coord>85.373528 27.791325 1704</gx:coord>
<gx:coord>85.373612 27.791376 1702</gx:coord>
<gx:coord>85.373652 27.791465 1704</gx:coord>
<gx:coord>85.37373 27.791531 1703</gx:coord>
<gx:coord>85.373821 27.791585 1699</gx:coord>
<gx:coord>85.373923 27.791601 1698</gx:coord>
<gx:coord>85.374023 27.791632 1694</gx:coord>
<gx:coord>85.374127 27.79166 1689</gx:coord>
<gx:coord>85.374236 27.791663 1686</gx:coord>
<gx:coord>85.374339 27.79164 1688</gx:coord>
<gx:coord>85.374401 27.791715 1691</gx:coord>
<gx:coord>85.374507 27.791729 1685</gx:coord>
<gx:coord>85.374608 27.791742 1691</gx:coord>
<gx:coord>85.374706 27.791774 1693</gx:coord>
<gx:coord>85.374805 27.791801 1695</gx:coord>
<gx:coord>85.374902 27.791844 1705</gx:coord>
<gx:coord>85.375011 27.791827 1702</gx:coord>
<gx:coord>85.374992 27.791915 1717</gx:coord>
<gx:coord>85.374959 27.792011 1719</gx:coord>
<gx:coord>85.374933 27.792106 1716</gx:coord>
<gx:coord>85.374986 27.792196 1713</gx:coord>
<gx:coord>85.375069 27.792255 1708</gx:coord>
<gx:coord>85.375127 27.792333 1710</gx:coord>
<gx:coord>85.375225 27.792387 1676</gx:coord>
<gx:coord>85.375325 27.792426 1693</gx:coord>
<gx:coord>85.375381 27.792514 1711</gx:coord>
<gx:coord>85.375269 27.792493 1723</gx:coord>
<gx:coord>85.375166 27.792488 1728</gx:coord>
<gx:coord>85.37504 27.792495 1729</gx:coord>
<gx:coord>85.374937 27.792533 1732</gx:coord>
<gx:coord>85.374842 27.792607 1733</gx:coord>
<gx:coord>85.374729 27.792588 1734</gx:coord>
<gx:coord>85.374621 27.792573 1739</gx:coord>
<gx:coord>85.374506 27.79259 1735</gx:coord>
<gx:coord>85.374401 27.792585 1740</gx:coord>
<gx:coord>85.374302 27.792556 1745</gx:coord>
<gx:coord>85.374199 27.792559 1751</gx:coord>
<gx:coord>85.374091 27.792579 1748</gx:coord>
<gx:coord>85.373993 27.792604 1741</gx:coord>
<gx:coord>85.373889 27.79263 1736</gx:coord>
<gx:coord>85.373789 27.792649 1731</gx:coord>
<gx:coord>85.373687 27.792683 1727</gx:coord>
<gx:coord>85.373613 27.792766 1720</gx:coord>
<gx:coord>85.373529 27.792824 1720</gx:coord>
<gx:coord>85.373442 27.792886 1718</gx:coord>
<gx:coord>85.373422 27.792977 1724</gx:coord>
<gx:coord>85.373365 27.793057 1733</gx:coord>
<gx:coord>85.373368 27.793151 1732</gx:coord>
<gx:coord>85.37337 27.793253 1731</gx:coord>
<gx:coord>85.373402 27.793362 1733</gx:coord>
<gx:coord>85.373452 27.793458 1729</gx:coord>
<gx:coord>85.373424 27.793547 1724</gx:coord>
<gx:coord>85.373356 27.793624 1725</gx:coord>
<gx:coord>85.373382 27.793723 1727</gx:coord>
<gx:coord>85.373407 27.793819 1734</gx:coord>
<gx:coord>85.373424 27.793923 1735</gx:coord>
<gx:coord>85.373421 27.794014 1732</gx:coord>
<gx:coord>85.373432 27.794122 1731</gx:coord>
<gx:coord>85.373414 27.794214 1729</gx:coord>
<gx:coord>85.37342 27.794313 1721</gx:coord>
<gx:coord>85.373435 27.794462 1724</gx:coord>
<gx:coord>85.37346 27.794554 1725</gx:coord>
<gx:coord>85.373474 27.79466 1721</gx:coord>
<gx:coord>85.373487 27.794787 1724</gx:coord>
<gx:coord>85.373567 27.79488 1728</gx:coord>
<gx:coord>85.373661 27.794942 1732</gx:coord>
<gx:coord>85.373699 27.795033 1734</gx:coord>
<gx:coord>85.373741 27.795135 1736</gx:coord>
<gx:coord>85.373801 27.795222 1739</gx:coord>
<gx:coord>85.373804 27.795327 1738</gx:coord>
<gx:coord>85.373847 27.795424 1737</gx:coord>
<gx:coord>85.373914 27.795517 1739</gx:coord>
<gx:coord>85.373948 27.795602 1739</gx:coord>
<gx:coord>85.373952 27.795695 1745</gx:coord>
<gx:coord>85.373971 27.795786 1743</gx:coord>
<gx:coord>85.373995 27.795876 1747</gx:coord>
<gx:coord>85.373979 27.795969 1752</gx:coord>
<gx:coord>85.37406 27.796033 1753</gx:coord>
<gx:coord>85.374096 27.796141 1749</gx:coord>
<gx:coord>85.374162 27.79621 1753</gx:coord>
<gx:coord>85.374231 27.796353 1748</gx:coord>
<gx:coord>85.37422 27.796452 1748</gx:coord>
<gx:coord>85.374273 27.796536 1750</gx:coord>
<gx:coord>85.374298 27.796629 1749</gx:coord>
<gx:coord>85.374381 27.796724 1751</gx:coord>
<gx:coord>85.374474 27.796778 1752</gx:coord>
<gx:coord>85.374547 27.796855 1750</gx:coord>
<gx:coord>85.374534 27.796964 1751</gx:coord>
<gx:coord>85.374636 27.797086 1748</gx:coord>
<gx:coord>85.374654 27.797175 1751</gx:coord>
<gx:coord>85.37471 27.797255 1755</gx:coord>
<gx:coord>85.374796 27.797338 1756</gx:coord>
<gx:coord>85.374813 27.797427 1760</gx:coord>
<gx:coord>85.37471 27.797475 1760</gx:coord>
<gx:coord>85.374606 27.797505 1765</gx:coord>
<gx:coord>85.374521 27.797554 1759</gx:coord>
<gx:coord>85.374426 27.79761 1763</gx:coord>
<gx:coord>85.374347 27.797668 1762</gx:coord>
<gx:coord>85.374291 27.797743 1766</gx:coord>
<gx:coord>85.374183 27.797771 1767</gx:coord>
<gx:coord>85.374131 27.797863 1766</gx:coord>
<gx:coord>85.374078 27.797941 1768</gx:coord>
<gx:coord>85.374014 27.79802 1769</gx:coord>
<gx:coord>85.374046 27.798122 1768</gx:coord>
<gx:coord>85.374014 27.798236 1769</gx:coord>
<gx:coord>85.373961 27.798321 1769</gx:coord>
<gx:coord>85.373881 27.798379 1765</gx:coord>
<gx:coord>85.373812 27.798448 1768</gx:coord>
<gx:coord>85.373725 27.798501 1780</gx:coord>
<gx:coord>85.373696 27.798591 1778</gx:coord>
<gx:coord>85.37366 27.798679 1776</gx:coord>
<gx:coord>85.373645 27.798799 1769</gx:coord>
<gx:coord>85.373599 27.798711 1768</gx:coord>
<gx:coord>85.37359 27.798621 1778</gx:coord>
<gx:coord>85.373593 27.798531 1777</gx:coord>
<gx:coord>85.373543 27.798453 1776</gx:coord>
<gx:coord>85.373499 27.798368 1774</gx:coord>
<gx:coord>85.373444 27.798293 1778</gx:coord>
<gx:coord>85.3734 27.798205 1779</gx:coord>
<gx:coord>85.373328 27.798123 1777</gx:coord>
<gx:coord>85.373225 27.798127 1777</gx:coord>
<gx:coord>85.373146 27.798193 1777</gx:coord>
<gx:coord>85.373056 27.79825 1780</gx:coord>
<gx:coord>85.37301 27.798336 1778</gx:coord>
<gx:coord>85.372954 27.798423 1776</gx:coord>
<gx:coord>85.372892 27.798509 1792</gx:coord>
<gx:coord>85.372816 27.798574 1792</gx:coord>
<gx:coord>85.372833 27.798481 1791</gx:coord>
<gx:coord>85.372814 27.798383 1795</gx:coord>
<gx:coord>85.372766 27.798299 1796</gx:coord>
<gx:coord>85.372742 27.798203 1798</gx:coord>
<gx:coord>85.37267 27.798134 1800</gx:coord>
<gx:coord>85.372696 27.798045 1800</gx:coord>
<gx:coord>85.372668 27.797947 1795</gx:coord>
<gx:coord>85.372646 27.797848 1794</gx:coord>
<gx:coord>85.372642 27.797751 1791</gx:coord>
<gx:coord>85.372651 27.797657 1797</gx:coord>
<gx:coord>85.372616 27.797569 1791</gx:coord>
<gx:coord>85.37258 27.797472 1789</gx:coord>
<gx:coord>85.37256 27.797378 1795</gx:coord>
<gx:coord>85.372509 27.797293 1797</gx:coord>
<gx:coord>85.372424 27.797223 1795</gx:coord>
<gx:coord>85.372328 27.797191 1795</gx:coord>
<gx:coord>85.372214 27.797153 1799</gx:coord>
<gx:coord>85.372106 27.79715 1797</gx:coord>
<gx:coord>85.372001 27.797175 1801</gx:coord>
<gx:coord>85.371894 27.797178 1802</gx:coord>
<gx:coord>85.371794 27.79713 1801</gx:coord>
<gx:coord>85.371692 27.797083 1799</gx:coord>
<gx:coord>85.371598 27.797031 1803</gx:coord>
<gx:coord>85.371515 27.796964 1807</gx:coord>
<gx:coord>85.371451 27.796893 1805</gx:coord>
<gx:coord>85.371353 27.796804 1805</gx:coord>
<gx:coord>85.371263 27.796759 1804</gx:coord>
<gx:coord>85.371187 27.796699 1809</gx:coord>
<gx:coord>85.371137 27.796603 1790</gx:coord>
<gx:coord>85.371084 27.796513 1799</gx:coord>
<gx:coord>85.37101 27.796438 1807</gx:coord>
<gx:coord>85.370944 27.796367 1806</gx:coord>
<gx:coord>85.370853 27.796317 1805</gx:coord>
<gx:coord>85.370753 27.796295 1808</gx:coord>
<gx:coord>85.370653 27.796319 1808</gx:coord>
<gx:coord>85.370549 27.796332 1812</gx:coord>
<gx:coord>85.370442 27.796358 1812</gx:coord>
<gx:coord>85.37035 27.796404 1814</gx:coord>
<gx:coord>85.370257 27.796451 1811</gx:coord>
<gx:coord>85.370165 27.796497 1815</gx:coord>
<gx:coord>85.370135 27.796411 1822</gx:coord>
<gx:coord>85.370097 27.796324 1829</gx:coord>
<gx:coord>85.370108 27.796225 1827</gx:coord>
<gx:coord>85.370064 27.796132 1822</gx:coord>
<gx:coord>85.370004 27.79605 1819</gx:coord>
<gx:coord>85.369933 27.795984 1820</gx:coord>
<gx:coord>85.369833 27.795938 1820</gx:coord>
<gx:coord>85.369764 27.795851 1823</gx:coord>
<gx:coord>85.369756 27.795746 1819</gx:coord>
<gx:coord>85.369807 27.795662 1816</gx:coord>
<gx:coord>85.369827 27.795568 1816</gx:coord>
<gx:coord>85.369744 27.795503 1808</gx:coord>
<gx:coord>85.369696 27.795422 1807</gx:coord>
<gx:coord>85.369655 27.795337 1812</gx:coord>
<gx:coord>85.369598 27.795256 1823</gx:coord>
<gx:coord>85.369526 27.795186 1820</gx:coord>
<gx:coord>85.369445 27.795119 1821</gx:coord>
<gx:coord>85.369331 27.795101 1817</gx:coord>
<gx:coord>85.369234 27.795055 1823</gx:coord>
<gx:coord>85.369148 27.794987 1820</gx:coord>
<gx:coord>85.369077 27.794915 1824</gx:coord>
<gx:coord>85.368994 27.794845 1824</gx:coord>
<gx:coord>85.368916 27.794771 1824</gx:coord>
<gx:coord>85.368799 27.794728 1820</gx:coord>
<gx:coord>85.3687 27.794775 1823</gx:coord>
<gx:coord>85.368597 27.794799 1821</gx:coord>
<gx:coord>85.368506 27.79485 1824</gx:coord>
<gx:coord>85.368417 27.794903 1825</gx:coord>
<gx:coord>85.36833 27.794951 1826</gx:coord>
<gx:coord>85.368227 27.794959 1830</gx:coord>
<gx:coord>85.36811 27.794984 1827</gx:coord>
<gx:coord>85.368011 27.795005 1830</gx:coord>
<gx:coord>85.367907 27.795037 1828</gx:coord>
<gx:coord>85.367823 27.79509 1826</gx:coord>
<gx:coord>85.367733 27.795142 1831</gx:coord>
<gx:coord>85.367685 27.795224 1829</gx:coord>
<gx:coord>85.367611 27.795297 1825</gx:coord>
<gx:coord>85.36753 27.795357 1825</gx:coord>
<gx:coord>85.367439 27.795407 1828</gx:coord>
<gx:coord>85.367385 27.795502 1825</gx:coord>
<gx:coord>85.367306 27.795576 1827</gx:coord>
<gx:coord>85.36726 27.795656 1832</gx:coord>
<gx:coord>85.367229 27.795747 1830</gx:coord>
<gx:coord>85.367176 27.795829 1817</gx:coord>
<gx:coord>85.367175 27.795926 1823</gx:coord>
<gx:coord>85.367053 27.79599 1831</gx:coord>
<gx:coord>85.366996 27.796067 1832</gx:coord>
<gx:coord>85.366965 27.796185 1833</gx:coord>
<gx:coord>85.366866 27.796281 1826</gx:coord>
<gx:coord>85.36678 27.796333 1826</gx:coord>
<gx:coord>85.366646 27.796349 1827</gx:coord>
<gx:coord>85.366538 27.796353 1824</gx:coord>
<gx:coord>85.366433 27.796346 1826</gx:coord>
<gx:coord>85.366326 27.796349 1828</gx:coord>
<gx:coord>85.366222 27.79632 1835</gx:coord>
<gx:coord>85.366112 27.796325 1835</gx:coord>
<gx:coord>85.366004 27.796356 1836</gx:coord>
<gx:coord>85.365905 27.796385 1839</gx:coord>
<gx:coord>85.365811 27.796435 1840</gx:coord>
<gx:coord>85.365699 27.796422 1842</gx:coord>
<gx:coord>85.365589 27.796424 1845</gx:coord>
<gx:coord>85.36551 27.796488 1843</gx:coord>
<gx:coord>85.365455 27.796412 1854</gx:coord>
<gx:coord>85.36541 27.79632 1850</gx:coord>
<gx:coord>85.365367 27.796233 1849</gx:coord>
<gx:coord>85.365316 27.796148 1851</gx:coord>
<gx:coord>85.365259 27.79606 1851</gx:coord>
<gx:coord>85.365183 27.795981 1848</gx:coord>
<gx:coord>85.365087 27.795932 1844</gx:coord>
<gx:coord>85.36499 27.795893 1847</gx:coord>
<gx:coord>85.364901 27.795847 1849</gx:coord>
<gx:coord>85.364804 27.795802 1854</gx:coord>
<gx:coord>85.364748 27.795724 1858</gx:coord>
<gx:coord>85.364691 27.79565 1862</gx:coord>
<gx:coord>85.364613 27.795589 1857</gx:coord>
<gx:coord>85.36451 27.795555 1853</gx:coord>
<gx:coord>85.364419 27.795507 1853</gx:coord>
<gx:coord>85.364316 27.79547 1853</gx:coord>
<gx:coord>85.36421 27.795454 1856</gx:coord>
<gx:coord>85.364112 27.79542 1862</gx:coord>
<gx:coord>85.364016 27.795385 1863</gx:coord>
<gx:coord>85.363906 27.795387 1859</gx:coord>
<gx:coord>85.363788 27.795414 1856</gx:coord>
<gx:coord>85.363678 27.795411 1853</gx:coord>
<gx:coord>85.363576 27.795383 1851</gx:coord>
<gx:coord>85.363509 27.795308 1851</gx:coord>
<gx:coord>85.363438 27.795233 1848</gx:coord>
<gx:coord>85.363339 27.795194 1851</gx:coord>
<gx:coord>85.363251 27.795142 1850</gx:coord>
<gx:coord>85.363158 27.795092 1849</gx:coord>
<gx:coord>85.363068 27.795042 1847</gx:coord>
<gx:coord>85.362965 27.795016 1846</gx:coord>
<gx:coord>85.362883 27.794957 1850</gx:coord>
<gx:coord>85.362853 27.794868 1859</gx:coord>
<gx:coord>85.36287 27.794776 1861</gx:coord>
<gx:coord>85.362875 27.794685 1855</gx:coord>
<gx:coord>85.362874 27.794594 1853</gx:coord>
<gx:coord>85.362879 27.794495 1855</gx:coord>
<gx:coord>85.362912 27.794398 1859</gx:coord>
<gx:coord>85.362922 27.794303 1865</gx:coord>
<gx:coord>85.36288 27.794219 1861</gx:coord>
<gx:coord>85.362786 27.794166 1853</gx:coord>
<gx:coord>85.362692 27.794109 1856</gx:coord>
<gx:coord>85.362598 27.794073 1857</gx:coord>
<gx:coord>85.362492 27.794059 1854</gx:coord>
<gx:coord>85.362381 27.794045 1855</gx:coord>
<gx:coord>85.362279 27.794011 1856</gx:coord>
<gx:coord>85.362173 27.79401 1857</gx:coord>
<gx:coord>85.362071 27.793996 1863</gx:coord>
<gx:coord>85.361972 27.79397 1864</gx:coord>
<gx:coord>85.361866 27.793999 1857</gx:coord>
<gx:coord>85.361806 27.794073 1860</gx:coord>
<gx:coord>85.361747 27.794158 1863</gx:coord>
<gx:coord>85.361643 27.794174 1871</gx:coord>
<gx:coord>85.361537 27.794199 1875</gx:coord>
<gx:coord>85.361422 27.794209 1875</gx:coord>
<gx:coord>85.361316 27.794213 1876</gx:coord>
<gx:coord>85.361209 27.7942 1879</gx:coord>
<gx:coord>85.361106 27.794165 1876</gx:coord>
<gx:coord>85.361014 27.794111 1871</gx:coord>
<gx:coord>85.360908 27.794081 1869</gx:coord>
<gx:coord>85.360795 27.794086 1869</gx:coord>
<gx:coord>85.360692 27.794085 1868</gx:coord>
<gx:coord>85.360587 27.794101 1864</gx:coord>
<gx:coord>85.36048 27.79407 1863</gx:coord>
<gx:coord>85.360369 27.794054 1865</gx:coord>
<gx:coord>85.360269 27.794093 1865</gx:coord>
<gx:coord>85.360177 27.794138 1867</gx:coord>
<gx:coord>85.360075 27.794179 1868</gx:coord>
<gx:coord>85.359979 27.794224 1869</gx:coord>
<gx:coord>85.359876 27.794231 1867</gx:coord>
<gx:coord>85.359764 27.794245 1866</gx:coord>
<gx:coord>85.359661 27.794281 1868</gx:coord>
<gx:coord>85.359567 27.794229 1869</gx:coord>
<gx:coord>85.35948 27.794166 1867</gx:coord>
<gx:coord>85.359408 27.794097 1868</gx:coord>
<gx:coord>85.359317 27.794037 1865</gx:coord>
<gx:coord>85.359215 27.794025 1864</gx:coord>
<gx:coord>85.359111 27.794041 1861</gx:coord>
<gx:coord>85.359051 27.794116 1863</gx:coord>
<gx:coord>85.358954 27.79416 1864</gx:coord>
<gx:coord>85.358851 27.794172 1866</gx:coord>
<gx:coord>85.358739 27.794164 1867</gx:coord>
<gx:coord>85.358627 27.794165 1868</gx:coord>
<gx:coord>85.358527 27.794197 1869</gx:coord>
<gx:coord>85.358417 27.79422 1871</gx:coord>
<gx:coord>85.358321 27.794254 1870</gx:coord>
<gx:coord>85.358225 27.794304 1870</gx:coord>
<gx:coord>85.358131 27.794357 1873</gx:coord>
<gx:coord>85.358057 27.794433 1874</gx:coord>
<gx:coord>85.357993 27.794508 1875</gx:coord>
<gx:coord>85.35792 27.794574 1874</gx:coord>
<gx:coord>85.357808 27.794598 1873</gx:coord>
<gx:coord>85.357701 27.794627 1875</gx:coord>
<gx:coord>85.357605 27.794669 1874</gx:coord>
<gx:coord>85.357499 27.794713 1875</gx:coord>
<gx:coord>85.357412 27.79476 1876</gx:coord>
<gx:coord>85.357315 27.794801 1878</gx:coord>
<gx:coord>85.357211 27.794807 1878</gx:coord>
<gx:coord>85.357106 27.794788 1880</gx:coord>
<gx:coord>85.357021 27.794719 1878</gx:coord>
<gx:coord>85.356917 27.794682 1876</gx:coord>
<gx:coord>85.356819 27.794649 1873</gx:coord>
<gx:coord>85.356758 27.79457 1877</gx:coord>
<gx:coord>85.356693 27.794499 1878</gx:coord>
<gx:coord>85.356612 27.794437 1879</gx:coord>
<gx:coord>85.356512 27.794407 1879</gx:coord>
<gx:coord>85.356402 27.794408 1880</gx:coord>
<gx:coord>85.356301 27.794422 1878</gx:coord>
<gx:coord>85.356195 27.794446 1877</gx:coord>
<gx:coord>85.356094 27.794475 1881</gx:coord>
<gx:coord>85.356004 27.794527 1883</gx:coord>
<gx:coord>85.355898 27.794553 1882</gx:coord>
<gx:coord>85.355792 27.794584 1884</gx:coord>
<gx:coord>85.355708 27.794655 1885</gx:coord>
<gx:coord>85.355595 27.794639 1891</gx:coord>
<gx:coord>85.355496 27.794682 1887</gx:coord>
<gx:coord>85.355389 27.794681 1891</gx:coord>
<gx:coord>85.355277 27.794685 1890</gx:coord>
<gx:coord>85.355176 27.794657 1887</gx:coord>
<gx:coord>85.355082 27.794618 1885</gx:coord>
<gx:coord>85.354964 27.794467 1877</gx:coord>
<gx:coord>85.354853 27.794492 1875</gx:coord>
<gx:coord>85.354772 27.794427 1879</gx:coord>
<gx:coord>85.354665 27.794416 1879</gx:coord>
<gx:coord>85.354557 27.794421 1881</gx:coord>
<gx:coord>85.354444 27.794436 1880</gx:coord>
<gx:coord>85.354362 27.794382 1878</gx:coord>
<gx:coord>85.354279 27.794329 1876</gx:coord>
<gx:coord>85.35419 27.794254 1869</gx:coord>
<gx:coord>85.354125 27.794168 1868</gx:coord>
<gx:coord>85.354119 27.794075 1878</gx:coord>
<gx:coord>85.354059 27.793988 1874</gx:coord>
<gx:coord>85.354013 27.793891 1871</gx:coord>
<gx:coord>85.353924 27.793836 1873</gx:coord>
<gx:coord>85.353854 27.793756 1872</gx:coord>
<gx:coord>85.353786 27.793683 1870</gx:coord>
<gx:coord>85.353721 27.79361 1855</gx:coord>
<gx:coord>85.353661 27.793532 1864</gx:coord>
<gx:coord>85.353611 27.793439 1858</gx:coord>
<gx:coord>85.353575 27.793353 1862</gx:coord>
<gx:coord>85.353481 27.793294 1862</gx:coord>
<gx:coord>85.353423 27.793213 1859</gx:coord>
<gx:coord>85.353383 27.793128 1857</gx:coord>
<gx:coord>85.353354 27.793042 1856</gx:coord>
<gx:coord>85.353365 27.792949 1854</gx:coord>
<gx:coord>85.35338 27.792853 1849</gx:coord>
<gx:coord>85.353343 27.792755 1849</gx:coord>
<gx:coord>85.353342 27.792651 1849</gx:coord>
<gx:coord>85.353343 27.792552 1849</gx:coord>
<gx:coord>85.353302 27.792458 1844</gx:coord>
<gx:coord>85.353238 27.79238 1845</gx:coord>
<gx:coord>85.353126 27.792371 1844</gx:coord>
<gx:coord>85.35301 27.792347 1836</gx:coord>
<gx:coord>85.352907 27.792317 1838</gx:coord>
<gx:coord>85.352805 27.792337 1835</gx:coord>
<gx:coord>85.352688 27.792363 1828</gx:coord>
<gx:coord>85.352576 27.792383 1830</gx:coord>
<gx:coord>85.352474 27.792369 1829</gx:coord>
<gx:coord>85.352375 27.79233 1837</gx:coord>
<gx:coord>85.35226 27.792327 1843</gx:coord>
<gx:coord>85.352157 27.792302 1843</gx:coord>
<gx:coord>85.352048 27.792336 1839</gx:coord>
<gx:coord>85.351952 27.792388 1838</gx:coord>
<gx:coord>85.351861 27.79243 1834</gx:coord>
<gx:coord>85.351761 27.792462 1827</gx:coord>
<gx:coord>85.351654 27.792461 1829</gx:coord>
<gx:coord>85.351575 27.792521 1836</gx:coord>
<gx:coord>85.351469 27.792528 1833</gx:coord>
<gx:coord>85.351377 27.792569 1830</gx:coord>
<gx:coord>85.351283 27.79262 1832</gx:coord>
<gx:coord>85.351181 27.792625 1840</gx:coord>
<gx:coord>85.351106 27.792561 1844</gx:coord>
<gx:coord>85.35104 27.79249 1846</gx:coord>
<gx:coord>85.350976 27.792408 1845</gx:coord>
<gx:coord>85.350902 27.792316 1846</gx:coord>
<gx:coord>85.350813 27.792269 1842</gx:coord>
<gx:coord>85.350714 27.792234 1838</gx:coord>
<gx:coord>85.350606 27.79222 1839</gx:coord>
<gx:coord>85.350508 27.792178 1836</gx:coord>
<gx:coord>85.35046 27.792095 1834</gx:coord>
<gx:coord>85.350396 27.792017 1837</gx:coord>
<gx:coord>85.350309 27.791959 1835</gx:coord>
<gx:coord>85.350204 27.791924 1834</gx:coord>
<gx:coord>85.3501 27.791896 1836</gx:coord>
<gx:coord>85.349996 27.791881 1839</gx:coord>
<gx:coord>85.349885 27.791874 1845</gx:coord>
<gx:coord>85.349786 27.791841 1843</gx:coord>
<gx:coord>85.349721 27.791771 1844</gx:coord>
<gx:coord>85.349662 27.791691 1843</gx:coord>
<gx:coord>85.349603 27.791604 1841</gx:coord>
<gx:coord>85.349526 27.791532 1841</gx:coord>
<gx:coord>85.349437 27.791481 1838</gx:coord>
<gx:coord>85.349337 27.791447 1838</gx:coord>
<gx:coord>85.349242 27.791482 1836</gx:coord>
<gx:coord>85.349134 27.791502 1837</gx:coord>
<gx:coord>85.349035 27.791527 1839</gx:coord>
<gx:coord>85.348926 27.791537 1839</gx:coord>
<gx:coord>85.348827 27.79149 1839</gx:coord>
<gx:coord>85.348726 27.791462 1844</gx:coord>
<gx:coord>85.348611 27.791462 1840</gx:coord>
<gx:coord>85.348488 27.791471 1831</gx:coord>
<gx:coord>85.348379 27.791497 1826</gx:coord>
<gx:coord>85.348279 27.791526 1826</gx:coord>
<gx:coord>85.348207 27.791591 1826</gx:coord>
<gx:coord>85.348225 27.791689 1826</gx:coord>
<gx:coord>85.348232 27.791787 1825</gx:coord>
<gx:coord>85.348187 27.791868 1828</gx:coord>
<gx:coord>85.348078 27.791878 1830</gx:coord>
<gx:coord>85.347978 27.791837 1830</gx:coord>
<gx:coord>85.347878 27.791807 1829</gx:coord>
<gx:coord>85.347773 27.791802 1829</gx:coord>
<gx:coord>85.347686 27.791863 1828</gx:coord>
<gx:coord>85.347635 27.791948 1827</gx:coord>
<gx:coord>85.347565 27.792018 1823</gx:coord>
<gx:coord>85.347492 27.792088 1823</gx:coord>
<gx:coord>85.347386 27.79212 1822</gx:coord>
<gx:coord>85.347286 27.79207 1825</gx:coord>
<gx:coord>85.347198 27.792 1830</gx:coord>
<gx:coord>85.347118 27.791937 1831</gx:coord>
<gx:coord>85.347082 27.791846 1829</gx:coord>
<gx:coord>85.34702 27.791765 1828</gx:coord>
<gx:coord>85.346969 27.791677 1829</gx:coord>
<gx:coord>85.346924 27.791594 1828</gx:coord>
<gx:coord>85.346876 27.791514 1827</gx:coord>
<gx:coord>85.346765 27.791492 1824</gx:coord>
<gx:coord>85.346657 27.791458 1825</gx:coord>
<gx:coord>85.346544 27.791443 1823</gx:coord>
<gx:coord>85.346444 27.791397 1823</gx:coord>
<gx:coord>85.346405 27.791313 1822</gx:coord>
<gx:coord>85.346379 27.791221 1825</gx:coord>
<gx:coord>85.346333 27.79114 1825</gx:coord>
<gx:coord>85.346278 27.791056 1821</gx:coord>
<gx:coord>85.346183 27.791011 1816</gx:coord>
<gx:coord>85.346114 27.790932 1814</gx:coord>
<gx:coord>85.346141 27.79084 1822</gx:coord>
<gx:coord>85.346155 27.790742 1823</gx:coord>
<gx:coord>85.346204 27.790652 1825</gx:coord>
<gx:coord>85.34619 27.790563 1826</gx:coord>
<gx:coord>85.346154 27.790478 1828</gx:coord>
<gx:coord>85.346097 27.790397 1827</gx:coord>
<gx:coord>85.346052 27.790315 1829</gx:coord>
<gx:coord>85.346011 27.790226 1830</gx:coord>
<gx:coord>85.345964 27.790135 1828</gx:coord>
<gx:coord>85.345868 27.790072 1825</gx:coord>
<gx:coord>85.345769 27.790029 1824</gx:coord>
<gx:coord>85.345664 27.789986 1821</gx:coord>
<gx:coord>85.345556 27.789968 1821</gx:coord>
<gx:coord>85.345449 27.789981 1818</gx:coord>
<gx:coord>85.345345 27.789995 1823</gx:coord>
<gx:coord>85.345238 27.790012 1826</gx:coord>
<gx:coord>85.345132 27.790041 1826</gx:coord>
<gx:coord>85.34503 27.790065 1825</gx:coord>
<gx:coord>85.344908 27.790083 1827</gx:coord>
<gx:coord>85.344795 27.790104 1827</gx:coord>
<gx:coord>85.344694 27.790142 1826</gx:coord>
<gx:coord>85.344593 27.790163 1828</gx:coord>
<gx:coord>85.34449 27.790186 1830</gx:coord>
<gx:coord>85.344386 27.79019 1829</gx:coord>
<gx:coord>85.344282 27.790222 1826</gx:coord>
<gx:coord>85.34416 27.790252 1827</gx:coord>
<gx:coord>85.344048 27.79029 1825</gx:coord>
<gx:coord>85.34394 27.790301 1824</gx:coord>
<gx:coord>85.343842 27.79035 1824</gx:coord>
<gx:coord>85.343745 27.790408 1823</gx:coord>
<gx:coord>85.343641 27.79045 1823</gx:coord>
<gx:coord>85.343535 27.79048 1825</gx:coord>
<gx:coord>85.343439 27.790531 1817</gx:coord>
<gx:coord>85.343357 27.790596 1815</gx:coord>
<gx:coord>85.343272 27.790664 1816</gx:coord>
<gx:coord>85.343193 27.790721 1817</gx:coord>
<gx:coord>85.34309 27.790728 1818</gx:coord>
<gx:coord>85.342985 27.790761 1819</gx:coord>
<gx:coord>85.342879 27.790801 1823</gx:coord>
<gx:coord>85.342776 27.790812 1818</gx:coord>
<gx:coord>85.342665 27.790835 1816</gx:coord>
<gx:coord>85.342569 27.790872 1813</gx:coord>
<gx:coord>85.342492 27.790938 1811</gx:coord>
<gx:coord>85.342421 27.791018 1809</gx:coord>
<gx:coord>85.34235 27.791091 1809</gx:coord>
<gx:coord>85.342274 27.791163 1808</gx:coord>
<gx:coord>85.342212 27.791236 1804</gx:coord>
<gx:coord>85.342113 27.791211 1805</gx:coord>
<gx:coord>85.342011 27.791238 1802</gx:coord>
<gx:coord>85.34189 27.791303 1797</gx:coord>
<gx:coord>85.341924 27.791216 1795</gx:coord>
<gx:coord>85.342013 27.791166 1797</gx:coord>
<gx:coord>85.342097 27.791098 1796</gx:coord>
<gx:coord>85.342156 27.791025 1791</gx:coord>
<gx:coord>85.34216 27.790923 1821</gx:coord>
<gx:coord>85.342178 27.790835 1789</gx:coord>
<gx:coord>85.342039 27.790697 1766</gx:coord>
<gx:coord>85.341941 27.790653 1770</gx:coord>
<gx:coord>85.34205 27.790742 1771</gx:coord>
<gx:coord>85.342106 27.790824 1780</gx:coord>
<gx:coord>85.342136 27.790944 1774</gx:coord>
<gx:coord>85.342188 27.791036 1784</gx:coord>
<gx:coord>85.342122 27.79112 1791</gx:coord>
<gx:coord>85.342038 27.79118 1798</gx:coord>
<gx:coord>85.341948 27.791253 1795</gx:coord>
<gx:coord>85.341892 27.791329 1803</gx:coord>
<gx:coord>85.341827 27.791402 1801</gx:coord>
<gx:coord>85.341727 27.791424 1804</gx:coord>
<gx:coord>85.341828 27.791469 1807</gx:coord>
<gx:coord>85.34184 27.79156 1808</gx:coord>
<gx:coord>85.341883 27.791646 1810</gx:coord>
<gx:coord>85.341874 27.791742 1811</gx:coord>
<gx:coord>85.341892 27.79183 1813</gx:coord>
<gx:coord>85.341917 27.791924 1811</gx:coord>
<gx:coord>85.341974 27.792009 1810</gx:coord>
<gx:coord>85.342039 27.792079 1806</gx:coord>
<gx:coord>85.342106 27.79216 1796</gx:coord>
<gx:coord>85.342181 27.792225 1799</gx:coord>
<gx:coord>85.34226 27.792285 1807</gx:coord>
<gx:coord>85.342269 27.792377 1809</gx:coord>
<gx:coord>85.342273 27.79247 1807</gx:coord>
<gx:coord>85.34231 27.792568 1808</gx:coord>
<gx:coord>85.342275 27.792661 1806</gx:coord>
<gx:coord>85.342329 27.792751 1808</gx:coord>
<gx:coord>85.342408 27.792837 1803</gx:coord>
<gx:coord>85.342468 27.792918 1810</gx:coord>
<gx:coord>85.342509 27.793006 1811</gx:coord>
<gx:coord>85.342533 27.793103 1808</gx:coord>
<gx:coord>85.342522 27.793203 1807</gx:coord>
<gx:coord>85.342503 27.793303 1811</gx:coord>
<gx:coord>85.342482 27.793402 1809</gx:coord>
<gx:coord>85.342522 27.793491 1814</gx:coord>
<gx:coord>85.342542 27.793583 1817</gx:coord>
<gx:coord>85.342549 27.793676 1820</gx:coord>
<gx:coord>85.342637 27.79373 1815</gx:coord>
<gx:coord>85.342638 27.793827 1810</gx:coord>
<gx:coord>85.342607 27.793915 1816</gx:coord>
<gx:coord>85.342636 27.794009 1816</gx:coord>
<gx:coord>85.342649 27.794109 1816</gx:coord>
<gx:coord>85.342695 27.794203 1817</gx:coord>
<gx:coord>85.342705 27.794293 1819</gx:coord>
<gx:coord>85.342756 27.794373 1814</gx:coord>
<gx:coord>85.342725 27.794461 1813</gx:coord>
<gx:coord>85.342806 27.794519 1810</gx:coord>
<gx:coord>85.342802 27.794614 1808</gx:coord>
<gx:coord>85.342821 27.794707 1806</gx:coord>
<gx:coord>85.342831 27.794798 1800</gx:coord>
<gx:coord>85.342822 27.794889 1803</gx:coord>
<gx:coord>85.34287 27.794973 1811</gx:coord>
<gx:coord>85.342872 27.795072 1816</gx:coord>
<gx:coord>85.342892 27.795162 1817</gx:coord>
<gx:coord>85.342957 27.795237 1810</gx:coord>
<gx:coord>85.343043 27.795302 1806</gx:coord>
<gx:coord>85.343078 27.795395 1804</gx:coord>
<gx:coord>85.343102 27.795495 1804</gx:coord>
<gx:coord>85.343157 27.795571 1795</gx:coord>
<gx:coord>85.34316 27.795663 1799</gx:coord>
<gx:coord>85.343133 27.79575 1797</gx:coord>
<gx:coord>85.343174 27.795844 1802</gx:coord>
<gx:coord>85.343164 27.795948 1797</gx:coord>
<gx:coord>85.34318 27.796052 1799</gx:coord>
<gx:coord>85.343187 27.796155 1808</gx:coord>
<gx:coord>85.343202 27.796245 1803</gx:coord>
<gx:coord>85.343212 27.796335 1812</gx:coord>
<gx:coord>85.343235 27.796432 1818</gx:coord>
<gx:coord>85.343271 27.79653 1820</gx:coord>
<gx:coord>85.343345 27.796596 1805</gx:coord>
<gx:coord>85.34345 27.796603 1802</gx:coord>
<gx:coord>85.343451 27.796703 1807</gx:coord>
<gx:coord>85.343421 27.7968 1807</gx:coord>
<gx:coord>85.343442 27.796898 1806</gx:coord>
<gx:coord>85.343401 27.796986 1806</gx:coord>
<gx:coord>85.343353 27.797068 1817</gx:coord>
<gx:coord>85.343241 27.797093 1822</gx:coord>
<gx:coord>85.343134 27.797149 1831</gx:coord>
<gx:coord>85.343031 27.797193 1838</gx:coord>
<gx:coord>85.342937 27.797238 1837</gx:coord>
<gx:coord>85.342877 27.797322 1833</gx:coord>
<gx:coord>85.342839 27.797408 1837</gx:coord>
<gx:coord>85.342851 27.797509 1836</gx:coord>
<gx:coord>85.342838 27.797605 1830</gx:coord>
<gx:coord>85.342848 27.797704 1829</gx:coord>
<gx:coord>85.342854 27.797805 1820</gx:coord>
<gx:coord>85.342896 27.79789 1824</gx:coord>
<gx:coord>85.342859 27.797977 1824</gx:coord>
<gx:coord>85.342853 27.798071 1825</gx:coord>
<gx:coord>85.342888 27.798162 1829</gx:coord>
<gx:coord>85.342924 27.798258 1829</gx:coord>
<gx:coord>85.342998 27.79833 1830</gx:coord>
<gx:coord>85.343071 27.798401 1828</gx:coord>
<gx:coord>85.343124 27.798478 1826</gx:coord>
<gx:coord>85.343217 27.798539 1822</gx:coord>
<gx:coord>85.343216 27.798643 1824</gx:coord>
<gx:coord>85.343265 27.798729 1823</gx:coord>
<gx:coord>85.343298 27.798818 1829</gx:coord>
<gx:coord>85.343294 27.798916 1832</gx:coord>
<gx:coord>85.343299 27.799018 1830</gx:coord>
<gx:coord>85.343288 27.799118 1829</gx:coord>
<gx:coord>85.343291 27.799213 1831</gx:coord>
<gx:coord>85.343293 27.799307 1827</gx:coord>
<gx:coord>85.343245 27.799394 1828</gx:coord>
<gx:coord>85.34318 27.799472 1829</gx:coord>
<gx:coord>85.343112 27.799549 1831</gx:coord>
<gx:coord>85.343063 27.799635 1829</gx:coord>
<gx:coord>85.343004 27.799709 1832</gx:coord>
<gx:coord>85.342978 27.7998 1834</gx:coord>
<gx:coord>85.342977 27.799901 1833</gx:coord>
<gx:coord>85.342934 27.800003 1839</gx:coord>
<gx:coord>85.342956 27.800094 1838</gx:coord>
<gx:coord>85.342958 27.800185 1837</gx:coord>
<gx:coord>85.342986 27.800273 1841</gx:coord>
<gx:coord>85.34299 27.800368 1843</gx:coord>
<gx:coord>85.342983 27.800459 1844</gx:coord>
<gx:coord>85.342995 27.80055 1846</gx:coord>
<gx:coord>85.343022 27.800637 1847</gx:coord>
<gx:coord>85.343049 27.800727 1851</gx:coord>
<gx:coord>85.342985 27.800808 1852</gx:coord>
<gx:coord>85.342933 27.800886 1851</gx:coord>
<gx:coord>85.342887 27.800985 1851</gx:coord>
<gx:coord>85.342816 27.801061 1853</gx:coord>
<gx:coord>85.342765 27.801147 1851</gx:coord>
<gx:coord>85.342738 27.801234 1849</gx:coord>
<gx:coord>85.342701 27.801317 1850</gx:coord>
<gx:coord>85.3427 27.801416 1846</gx:coord>
<gx:coord>85.342713 27.801519 1845</gx:coord>
<gx:coord>85.34274 27.801616 1846</gx:coord>
<gx:coord>85.342759 27.80171 1844</gx:coord>
<gx:coord>85.342778 27.801809 1839</gx:coord>
<gx:coord>85.342712 27.801877 1837</gx:coord>
<gx:coord>85.342719 27.801968 1840</gx:coord>
<gx:coord>85.342703 27.802069 1842</gx:coord>
<gx:coord>85.342725 27.802161 1840</gx:coord>
<gx:coord>85.342704 27.802256 1839</gx:coord>
<gx:coord>85.342682 27.802356 1840</gx:coord>
<gx:coord>85.342635 27.802448 1843</gx:coord>
<gx:coord>85.342659 27.802546 1845</gx:coord>
<gx:coord>85.342667 27.802637 1846</gx:coord>
<gx:coord>85.342744 27.802696 1840</gx:coord>
<gx:coord>85.342778 27.802791 1844</gx:coord>
<gx:coord>85.342763 27.802881 1845</gx:coord>
<gx:coord>85.342699 27.802957 1838</gx:coord>
<gx:coord>85.342648 27.803038 1840</gx:coord>
<gx:coord>85.342553 27.803074 1847</gx:coord>
<gx:coord>85.342443 27.803072 1847</gx:coord>
<gx:coord>85.342327 27.803094 1842</gx:coord>
<gx:coord>85.34222 27.803104 1839</gx:coord>
<gx:coord>85.342114 27.803086 1842</gx:coord>
<gx:coord>85.342014 27.803108 1826</gx:coord>
<gx:coord>85.34191 27.803139 1834</gx:coord>
<gx:coord>85.341808 27.803168 1843</gx:coord>
<gx:coord>85.341784 27.803256 1844</gx:coord>
<gx:coord>85.341726 27.803334 1839</gx:coord>
<gx:coord>85.341627 27.803371 1842</gx:coord>
<gx:coord>85.34154 27.803437 1842</gx:coord>
<gx:coord>85.341495 27.803526 1839</gx:coord>
<gx:coord>85.341414 27.803582 1841</gx:coord>
<gx:coord>85.341333 27.803648 1840</gx:coord>
<gx:coord>85.341301 27.80374 1837</gx:coord>
<gx:coord>85.34129 27.803832 1839</gx:coord>
<gx:coord>85.341204 27.803881 1841</gx:coord>
<gx:coord>85.341118 27.803938 1842</gx:coord>
<gx:coord>85.341012 27.803948 1837</gx:coord>
<gx:coord>85.340904 27.80397 1839</gx:coord>
<gx:coord>85.340803 27.80402 1839</gx:coord>
<gx:coord>85.340712 27.804081 1835</gx:coord>
<gx:coord>85.340637 27.804148 1837</gx:coord>
<gx:coord>85.340544 27.80421 1836</gx:coord>
<gx:coord>85.34044 27.804263 1836</gx:coord>
<gx:coord>85.340344 27.804294 1838</gx:coord>
<gx:coord>85.340248 27.804342 1839</gx:coord>
<gx:coord>85.340155 27.80438 1840</gx:coord>
<gx:coord>85.340052 27.804405 1839</gx:coord>
<gx:coord>85.339947 27.804417 1837</gx:coord>
<gx:coord>85.339856 27.804459 1835</gx:coord>
<gx:coord>85.33976 27.804506 1843</gx:coord>
<gx:coord>85.339655 27.804521 1845</gx:coord>
<gx:coord>85.339562 27.804566 1847</gx:coord>
<gx:coord>85.339467 27.804604 1847</gx:coord>
<gx:coord>85.339373 27.804646 1846</gx:coord>
<gx:coord>85.339299 27.804719 1845</gx:coord>
<gx:coord>85.339255 27.804811 1844</gx:coord>
<gx:coord>85.339226 27.804904 1845</gx:coord>
<gx:coord>85.339224 27.804998 1844</gx:coord>
<gx:coord>85.339249 27.805086 1842</gx:coord>
<gx:coord>85.339272 27.805175 1843</gx:coord>
<gx:coord>85.339308 27.805269 1841</gx:coord>
<gx:coord>85.339359 27.805363 1842</gx:coord>
<gx:coord>85.339427 27.805443 1841</gx:coord>
<gx:coord>85.339462 27.805528 1844</gx:coord>
<gx:coord>85.339454 27.805626 1844</gx:coord>
<gx:coord>85.339517 27.805712 1840</gx:coord>
<gx:coord>85.339597 27.805779 1839</gx:coord>
<gx:coord>85.339668 27.805856 1844</gx:coord>
<gx:coord>85.339749 27.805913 1841</gx:coord>
<gx:coord>85.339736 27.806003 1845</gx:coord>
<gx:coord>85.339664 27.806069 1848</gx:coord>
<gx:coord>85.339642 27.806165 1849</gx:coord>
<gx:coord>85.339693 27.806252 1849</gx:coord>
<gx:coord>85.339683 27.80635 1848</gx:coord>
<gx:coord>85.339603 27.806405 1854</gx:coord>
<gx:coord>85.339513 27.806465 1852</gx:coord>
<gx:coord>85.339446 27.806535 1853</gx:coord>
<gx:coord>85.339365 27.806594 1855</gx:coord>
<gx:coord>85.339256 27.80661 1857</gx:coord>
<gx:coord>85.339146 27.806593 1856</gx:coord>
<gx:coord>85.339044 27.80659 1857</gx:coord>
<gx:coord>85.338951 27.806636 1854</gx:coord>
<gx:coord>85.338865 27.806706 1853</gx:coord>
<gx:coord>85.338842 27.806798 1851</gx:coord>
<gx:coord>85.338832 27.806893 1851</gx:coord>
<gx:coord>85.338831 27.80699 1853</gx:coord>
<gx:coord>85.338855 27.807087 1855</gx:coord>
<gx:coord>85.338846 27.807179 1856</gx:coord>
<gx:coord>85.338821 27.807267 1852</gx:coord>
<gx:coord>85.338747 27.80734 1850</gx:coord>
<gx:coord>85.338646 27.807381 1852</gx:coord>
<gx:coord>85.338551 27.80742 1856</gx:coord>
<gx:coord>85.338454 27.807455 1856</gx:coord>
<gx:coord>85.338371 27.80753 1853</gx:coord>
<gx:coord>85.338327 27.807618 1855</gx:coord>
<gx:coord>85.338305 27.807711 1855</gx:coord>
<gx:coord>85.33831 27.80781 1852</gx:coord>
<gx:coord>85.338316 27.807902 1854</gx:coord>
<gx:coord>85.338354 27.807996 1851</gx:coord>
<gx:coord>85.338313 27.808081 1853</gx:coord>
<gx:coord>85.33831 27.808172 1853</gx:coord>
<gx:coord>85.338314 27.808275 1854</gx:coord>
<gx:coord>85.338284 27.808362 1857</gx:coord>
<gx:coord>85.33819 27.808408 1853</gx:coord>
<gx:coord>85.338129 27.80849 1853</gx:coord>
<gx:coord>85.338104 27.808587 1852</gx:coord>
<gx:coord>85.338084 27.808684 1851</gx:coord>
<gx:coord>85.338098 27.808773 1851</gx:coord>
<gx:coord>85.338122 27.808867 1851</gx:coord>
<gx:coord>85.338166 27.80895 1847</gx:coord>
<gx:coord>85.338229 27.809035 1844</gx:coord>
<gx:coord>85.338301 27.809109 1842</gx:coord>
<gx:coord>85.338396 27.809144 1839</gx:coord>
<gx:coord>85.338494 27.809189 1837</gx:coord>
<gx:coord>85.338529 27.809276 1838</gx:coord>
<gx:coord>85.33846 27.809347 1837</gx:coord>
<gx:coord>85.338369 27.809402 1837</gx:coord>
<gx:coord>85.338264 27.809426 1835</gx:coord>
<gx:coord>85.338178 27.809479 1832</gx:coord>
<gx:coord>85.33809 27.809525 1829</gx:coord>
<gx:coord>85.337994 27.80957 1829</gx:coord>
<gx:coord>85.337887 27.809593 1825</gx:coord>
<gx:coord>85.337776 27.80962 1825</gx:coord>
<gx:coord>85.337672 27.809625 1827</gx:coord>
<gx:coord>85.337569 27.809667 1827</gx:coord>
<gx:coord>85.337617 27.80975 1826</gx:coord>
<gx:coord>85.337626 27.809851 1822</gx:coord>
<gx:coord>85.337604 27.809946 1822</gx:coord>
<gx:coord>85.337515 27.810007 1823</gx:coord>
<gx:coord>85.337406 27.810023 1827</gx:coord>
<gx:coord>85.337298 27.810012 1829</gx:coord>
<gx:coord>85.337192 27.809996 1829</gx:coord>
<gx:coord>85.337084 27.809999 1830</gx:coord>
<gx:coord>85.336991 27.81004 1829</gx:coord>
<gx:coord>85.336946 27.81013 1825</gx:coord>
<gx:coord>85.336952 27.810227 1826</gx:coord>
<gx:coord>85.336908 27.810322 1824</gx:coord>
<gx:coord>85.336819 27.810384 1825</gx:coord>
<gx:coord>85.336714 27.810382 1830</gx:coord>
<gx:coord>85.336604 27.810365 1833</gx:coord>
<gx:coord>85.336529 27.810302 1843</gx:coord>
<gx:coord>85.336429 27.810281 1843</gx:coord>
<gx:coord>85.336339 27.810236 1845</gx:coord>
<gx:coord>85.336282 27.810149 1844</gx:coord>
<gx:coord>85.336177 27.810121 1840</gx:coord>
<gx:coord>85.336069 27.810108 1836</gx:coord>
<gx:coord>85.335985 27.810167 1834</gx:coord>
<gx:coord>85.335912 27.810232 1830</gx:coord>
<gx:coord>85.335815 27.810264 1831</gx:coord>
<gx:coord>85.335719 27.810297 1828</gx:coord>
<gx:coord>85.335615 27.810314 1827</gx:coord>
<gx:coord>85.335512 27.810331 1827</gx:coord>
<gx:coord>85.33541 27.810366 1825</gx:coord>
<gx:coord>85.335355 27.810443 1827</gx:coord>
<gx:coord>85.335341 27.810535 1829</gx:coord>
<gx:coord>85.335302 27.810623 1829</gx:coord>
<gx:coord>85.335216 27.810683 1836</gx:coord>
<gx:coord>85.335106 27.810691 1834</gx:coord>
<gx:coord>85.335008 27.810666 1833</gx:coord>
<gx:coord>85.334898 27.810666 1831</gx:coord>
<gx:coord>85.334812 27.810724 1827</gx:coord>
<gx:coord>85.334718 27.81077 1831</gx:coord>
<gx:coord>85.334609 27.810788 1830</gx:coord>
<gx:coord>85.334504 27.810776 1834</gx:coord>
<gx:coord>85.334429 27.810715 1840</gx:coord>
<gx:coord>85.334343 27.810666 1845</gx:coord>
<gx:coord>85.334246 27.810609 1842</gx:coord>
<gx:coord>85.334179 27.810523 1841</gx:coord>
<gx:coord>85.334115 27.810444 1842</gx:coord>
<gx:coord>85.334025 27.810392 1843</gx:coord>
<gx:coord>85.333944 27.810332 1839</gx:coord>
<gx:coord>85.333844 27.810286 1834</gx:coord>
<gx:coord>85.333732 27.810281 1833</gx:coord>
<gx:coord>85.333625 27.8103 1834</gx:coord>
<gx:coord>85.333522 27.810335 1831</gx:coord>
<gx:coord>85.333432 27.810378 1832</gx:coord>
<gx:coord>85.333325 27.810372 1829</gx:coord>
<gx:coord>85.333214 27.810358 1829</gx:coord>
<gx:coord>85.333112 27.81036 1826</gx:coord>
<gx:coord>85.333003 27.810383 1829</gx:coord>
<gx:coord>85.332908 27.810433 1830</gx:coord>
<gx:coord>85.332849 27.810509 1829</gx:coord>
<gx:coord>85.332877 27.810596 1829</gx:coord>
<gx:coord>85.332893 27.810688 1834</gx:coord>
<gx:coord>85.332856 27.810774 1834</gx:coord>
<gx:coord>85.332791 27.810845 1836</gx:coord>
<gx:coord>85.332702 27.810907 1846</gx:coord>
<gx:coord>85.332614 27.810952 1844</gx:coord>
<gx:coord>85.332512 27.810905 1849</gx:coord>
<gx:coord>85.332429 27.810847 1851</gx:coord>
<gx:coord>85.332359 27.81077 1851</gx:coord>
<gx:coord>85.332282 27.810706 1849</gx:coord>
<gx:coord>85.332185 27.81065 1843</gx:coord>
<gx:coord>85.332095 27.810606 1842</gx:coord>
<gx:coord>85.331973 27.810571 1836</gx:coord>
<gx:coord>85.331861 27.81059 1831</gx:coord>
<gx:coord>85.331757 27.810591 1832</gx:coord>
<gx:coord>85.331684 27.810661 1833</gx:coord>
<gx:coord>85.331658 27.810756 1829</gx:coord>
<gx:coord>85.331624 27.810848 1832</gx:coord>
<gx:coord>85.331542 27.810907 1837</gx:coord>
<gx:coord>85.331434 27.810911 1833</gx:coord>
<gx:coord>85.331333 27.810864 1839</gx:coord>
<gx:coord>85.331244 27.810815 1844</gx:coord>
<gx:coord>85.331135 27.810809 1846</gx:coord>
<gx:coord>85.331053 27.810873 1841</gx:coord>
<gx:coord>85.331001 27.810954 1842</gx:coord>
<gx:coord>85.330943 27.81104 1843</gx:coord>
<gx:coord>85.330872 27.811114 1845</gx:coord>
<gx:coord>85.330794 27.811174 1846</gx:coord>
<gx:coord>85.330742 27.811263 1845</gx:coord>
<gx:coord>85.330676 27.811345 1847</gx:coord>
<gx:coord>85.330625 27.811439 1844</gx:coord>
<gx:coord>85.330563 27.811517 1841</gx:coord>
<gx:coord>85.330481 27.811579 1842</gx:coord>
<gx:coord>85.330403 27.811646 1839</gx:coord>
<gx:coord>85.330381 27.811742 1838</gx:coord>
<gx:coord>85.330449 27.811813 1840</gx:coord>
<gx:coord>85.330507 27.811893 1843</gx:coord>
<gx:coord>85.330515 27.811989 1847</gx:coord>
<gx:coord>85.330548 27.812084 1851</gx:coord>
<gx:coord>85.330584 27.812172 1853</gx:coord>
<gx:coord>85.330607 27.812267 1855</gx:coord>
<gx:coord>85.330657 27.812348 1857</gx:coord>
<gx:coord>85.330661 27.812439 1859</gx:coord>
<gx:coord>85.330635 27.812537 1859</gx:coord>
<gx:coord>85.330606 27.812633 1858</gx:coord>
<gx:coord>85.330559 27.81272 1851</gx:coord>
<gx:coord>85.33046 27.812754 1853</gx:coord>
<gx:coord>85.33036 27.812731 1855</gx:coord>
<gx:coord>85.33026 27.812696 1858</gx:coord>
<gx:coord>85.330162 27.812658 1859</gx:coord>
<gx:coord>85.330063 27.812631 1858</gx:coord>
<gx:coord>85.329959 27.812628 1856</gx:coord>
<gx:coord>85.329851 27.812647 1856</gx:coord>
<gx:coord>85.329749 27.812655 1854</gx:coord>
<gx:coord>85.329643 27.812676 1852</gx:coord>
<gx:coord>85.329535 27.812687 1855</gx:coord>
<gx:coord>85.329435 27.812662 1860</gx:coord>
<gx:coord>85.329363 27.812588 1863</gx:coord>
<gx:coord>85.329319 27.812505 1866</gx:coord>
<gx:coord>85.329235 27.812445 1866</gx:coord>
<gx:coord>85.329132 27.812415 1868</gx:coord>
<gx:coord>85.329038 27.812367 1869</gx:coord>
<gx:coord>85.328954 27.812312 1869</gx:coord>
<gx:coord>85.328863 27.81226 1869</gx:coord>
<gx:coord>85.328779 27.812209 1868</gx:coord>
<gx:coord>85.328674 27.812175 1867</gx:coord>
<gx:coord>85.328565 27.812185 1861</gx:coord>
<gx:coord>85.328481 27.812243 1859</gx:coord>
<gx:coord>85.328408 27.812312 1860</gx:coord>
<gx:coord>85.328335 27.812382 1862</gx:coord>
<gx:coord>85.328265 27.812448 1868</gx:coord>
<gx:coord>85.328166 27.812482 1872</gx:coord>
<gx:coord>85.328094 27.812412 1871</gx:coord>
<gx:coord>85.327986 27.812392 1870</gx:coord>
<gx:coord>85.327932 27.812313 1874</gx:coord>
<gx:coord>85.32786 27.812248 1873</gx:coord>
<gx:coord>85.327752 27.812225 1870</gx:coord>
<gx:coord>85.327645 27.812213 1871</gx:coord>
<gx:coord>85.327531 27.812234 1870</gx:coord>
<gx:coord>85.327419 27.812245 1871</gx:coord>
<gx:coord>85.327303 27.812248 1871</gx:coord>
<gx:coord>85.327193 27.812238 1872</gx:coord>
<gx:coord>85.327089 27.812243 1869</gx:coord>
<gx:coord>85.326981 27.812235 1869</gx:coord>
<gx:coord>85.326868 27.812235 1870</gx:coord>
<gx:coord>85.326767 27.812208 1871</gx:coord>
<gx:coord>85.326661 27.812188 1869</gx:coord>
<gx:coord>85.326552 27.812215 1866</gx:coord>
<gx:coord>85.326483 27.812287 1861</gx:coord>
<gx:coord>85.326453 27.812375 1863</gx:coord>
<gx:coord>85.326395 27.812452 1865</gx:coord>
<gx:coord>85.326364 27.812551 1865</gx:coord>
<gx:coord>85.326316 27.812654 1862</gx:coord>
<gx:coord>85.326216 27.812683 1865</gx:coord>
<gx:coord>85.326113 27.812716 1868</gx:coord>
<gx:coord>85.326026 27.812773 1867</gx:coord>
<gx:coord>85.325971 27.812855 1861</gx:coord>
<gx:coord>85.325935 27.812948 1859</gx:coord>
<gx:coord>85.325924 27.813047 1861</gx:coord>
<gx:coord>85.325893 27.813135 1860</gx:coord>
<gx:coord>85.325878 27.813229 1852</gx:coord>
<gx:coord>85.325768 27.813213 1855</gx:coord>
<gx:coord>85.325662 27.813215 1856</gx:coord>
<gx:coord>85.325559 27.813232 1856</gx:coord>
<gx:coord>85.325468 27.81329 1852</gx:coord>
<gx:coord>85.325409 27.813363 1850</gx:coord>
<gx:coord>85.325372 27.813456 1850</gx:coord>
<gx:coord>85.325304 27.813536 1851</gx:coord>
<gx:coord>85.325257 27.813628 1852</gx:coord>
<gx:coord>85.325205 27.813711 1853</gx:coord>
<gx:coord>85.325127 27.813776 1855</gx:coord>
<gx:coord>85.325012 27.813783 1859</gx:coord>
<gx:coord>85.324911 27.813807 1861</gx:coord>
<gx:coord>85.32481 27.813832 1865</gx:coord>
<gx:coord>85.324721 27.813885 1860</gx:coord>
<gx:coord>85.324615 27.813882 1863</gx:coord>
<gx:coord>85.32452 27.813848 1863</gx:coord>
<gx:coord>85.324408 27.81383 1861</gx:coord>
<gx:coord>85.324302 27.813817 1860</gx:coord>
<gx:coord>85.324197 27.813816 1861</gx:coord>
<gx:coord>85.324095 27.813792 1864</gx:coord>
<gx:coord>85.323985 27.813757 1858</gx:coord>
<gx:coord>85.323884 27.813734 1861</gx:coord>
<gx:coord>85.323777 27.813712 1866</gx:coord>
<gx:coord>85.323668 27.813696 1864</gx:coord>
<gx:coord>85.323564 27.813669 1861</gx:coord>
<gx:coord>85.323451 27.81365 1858</gx:coord>
<gx:coord>85.323344 27.813614 1861</gx:coord>
<gx:coord>85.323248 27.813577 1864</gx:coord>
<gx:coord>85.323171 27.813515 1865</gx:coord>
<gx:coord>85.323089 27.813449 1865</gx:coord>
<gx:coord>85.322979 27.813428 1864</gx:coord>
<gx:coord>85.322877 27.813399 1863</gx:coord>
<gx:coord>85.322778 27.813359 1863</gx:coord>
<gx:coord>85.322671 27.813316 1862</gx:coord>
<gx:coord>85.322568 27.813277 1862</gx:coord>
<gx:coord>85.322471 27.813225 1862</gx:coord>
<gx:coord>85.322371 27.813189 1863</gx:coord>
<gx:coord>85.322261 27.813166 1860</gx:coord>
<gx:coord>85.322144 27.813151 1861</gx:coord>
<gx:coord>85.322038 27.813152 1861</gx:coord>
<gx:coord>85.321936 27.813114 1861</gx:coord>
<gx:coord>85.321857 27.813046 1861</gx:coord>
<gx:coord>85.321778 27.812973 1863</gx:coord>
<gx:coord>85.321677 27.812929 1861</gx:coord>
<gx:coord>85.321593 27.812863 1865</gx:coord>
<gx:coord>85.321521 27.812796 1866</gx:coord>
<gx:coord>85.32144 27.812738 1865</gx:coord>
<gx:coord>85.321349 27.812686 1865</gx:coord>
<gx:coord>85.321239 27.81269 1866</gx:coord>
<gx:coord>85.321132 27.81272 1865</gx:coord>
<gx:coord>85.320996 27.812734 1860</gx:coord>
<gx:coord>85.320905 27.812783 1858</gx:coord>
<gx:coord>85.320799 27.812808 1857</gx:coord>
<gx:coord>85.320692 27.81282 1855</gx:coord>
<gx:coord>85.320592 27.812778 1857</gx:coord>
<gx:coord>85.320478 27.812779 1860</gx:coord>
<gx:coord>85.320374 27.812821 1860</gx:coord>
<gx:coord>85.320287 27.812881 1858</gx:coord>
<gx:coord>85.320207 27.812953 1860</gx:coord>
<gx:coord>85.320129 27.813021 1854</gx:coord>
<gx:coord>85.320046 27.81308 1854</gx:coord>
<gx:coord>85.319949 27.813117 1857</gx:coord>
<gx:coord>85.319848 27.813148 1857</gx:coord>
<gx:coord>85.319745 27.813187 1857</gx:coord>
<gx:coord>85.319639 27.81319 1858</gx:coord>
<gx:coord>85.319534 27.81322 1857</gx:coord>
<gx:coord>85.319425 27.813204 1859</gx:coord>
<gx:coord>85.319318 27.813209 1859</gx:coord>
<gx:coord>85.319214 27.813204 1862</gx:coord>
<gx:coord>85.319107 27.813197 1863</gx:coord>
<gx:coord>85.319 27.813185 1857</gx:coord>
<gx:coord>85.3189 27.813165 1855</gx:coord>
<gx:coord>85.318784 27.813183 1853</gx:coord>
<gx:coord>85.318688 27.81323 1852</gx:coord>
<gx:coord>85.318585 27.813274 1852</gx:coord>
<gx:coord>85.318478 27.813302 1853</gx:coord>
<gx:coord>85.318389 27.813355 1850</gx:coord>
<gx:coord>85.318294 27.813412 1848</gx:coord>
<gx:coord>85.318207 27.813459 1851</gx:coord>
<gx:coord>85.318124 27.813519 1855</gx:coord>
<gx:coord>85.318044 27.813587 1857</gx:coord>
<gx:coord>85.318002 27.813677 1855</gx:coord>
<gx:coord>85.317963 27.813767 1853</gx:coord>
<gx:coord>85.317988 27.813861 1845</gx:coord>
<gx:coord>85.317959 27.813952 1847</gx:coord>
<gx:coord>85.317937 27.814048 1844</gx:coord>
<gx:coord>85.317869 27.81412 1851</gx:coord>
</gx:Track>
<ExtendedData xmlns:mwm="https://comaps.app">
<mwm:name>
<mwm:lang code="default">Muhan Pokhari - Gurje Bhanjyang</mwm:lang>
</mwm:name>
<mwm:description>
</mwm:description>
<mwm:localId>0</mwm:localId>
<mwm:additionalStyle>
</mwm:additionalStyle>
<mwm:visibility>1</mwm:visibility>
</ExtendedData>
</Placemark>
</Document>
</kml>
